{"type":"FeatureCollection","name":"Kecamatan Jombang","crs":{"type":"name","properties":{"name":"urn:ogc:def:crs:OGC:1.3:CRS84"}},"features":[{"type":"Feature","properties":{"kode_kec":"36.72.05","kode_kk":"36.72","kode_prov":"36","kecamatan":"Jombang","kab_kota":"Kota Cilegon","provinsi":"Banten","fid":"36.72.05","nama":"Kecamatan Jombang","label":"Kecamatan Jombang, Kota Cilegon, Provinsi Banten, 36.72.05"},"geometry":{"type":"MultiPolygon","coordinates":[[[[106.082052866,-6.01391861399998,0],[106.083609388,-6.01482165699997,0],[106.083527344,-6.01507121599997,0],[106.083368703,-6.01543339299997,0],[106.083276755,-6.01566367099997,0],[106.083189705,-6.01585900399994,0],[106.083120543,-6.01602962599998,0],[106.083024379,-6.01615094999994,0],[106.082840976,-6.01634339299994,0],[106.082768255,-6.01648248699996,0],[106.082684875,-6.01663407199993,0],[106.0826404,-6.01673461599995,0],[106.082576665,-6.01691644599993,0],[106.082487686,-6.01714034099996,0],[106.082407962,-6.01734001799997,0],[106.082347654,-6.01745414699997,0],[106.082206917,-6.01766908299993,0],[106.08207205,-6.01789380699995,0],[106.081901324,-6.01818892499995,0],[106.081743459,-6.01848851499994,0],[106.081611558,-6.01870336799993,0],[106.081572625,-6.01882279899996,0],[106.081521222,-6.01893869299994,0],[106.081444928,-6.01907244999995,0],[106.081354373,-6.01919732699997,0],[106.081247328,-6.01934114599993,0],[106.081188643,-6.01931193399997,0],[106.081079146,-6.01925162399993,0],[106.080898368,-6.01915106099995,0],[106.080730122,-6.01907115999995,0],[106.080612861,-6.01900628299995,0],[106.080505371,-6.01894626999996,0],[106.080177443,-6.01878041399993,0],[106.079676906,-6.01851237599993,0],[106.079148757,-6.01823792899995,0],[106.078794639,-6.01805593799997,0],[106.078212557,-6.01776184699997,0],[106.077581006,-6.01742368899994,0],[106.077356276,-6.01767250099994,0],[106.077264576,-6.01783358499995,0],[106.07716485,-6.01813402199997,0],[106.077100947,-6.01825629399997,0],[106.076963078,-6.01861226599993,0],[106.07690183,-6.01877047499994,0],[106.076848747,-6.01890608099995,0],[106.076760515,-6.01904298699998,0],[106.076733958,-6.01910257799994,0],[106.07672794,-6.01917239299996,0],[106.076728004,-6.01917471199994,0],[106.076727946,-6.01917538499993,0],[106.076730079,-6.01925275299993,0],[106.076713872,-6.01932229599993,0],[106.076664757,-6.01939014499993,0],[106.076609498,-6.01946211199993,0],[106.076551662,-6.01954715699998,0],[106.076514812,-6.01959034499993,0],[106.07648209,-6.01964584199993,0],[106.076469904,-6.01970951199996,0],[106.076431078,-6.01979171099993,0],[106.076402391,-6.01981229899997,0],[106.076383965,-6.01983286599994,0],[106.076371729,-6.01987189799996,0],[106.076371735,-6.01987488999993,0],[106.076371818,-6.01991706699994,0],[106.076345236,-6.01996433999994,0],[106.076314502,-6.01998698399996,0],[106.07625078,-6.02007436699995,0],[106.076209868,-6.02013809399995,0],[106.076162782,-6.02019361999993,0],[106.076117748,-6.02024914199995,0],[106.076087057,-6.02029436999993,0],[106.076064575,-6.02033958199996,0],[106.076044177,-6.02040121499994,0],[106.076029927,-6.02045872999997,0],[106.075951884,-6.02063257199995,0],[106.075925337,-6.02069832199993,0],[106.075874426,-6.02089551899996,0],[106.075855993,-6.02098037599995,0],[106.075856593,-6.02098063399995,0],[106.075855999,-6.02098336799997,0],[106.07593095,-6.02101562099995,0],[106.07590952,-6.02106855199997,0],[106.075864525,-6.02114460599995,0],[106.075821599,-6.02122886699993,0],[106.075768379,-6.02127668999998,0],[106.075770433,-6.02127784099997,0],[106.075801247,-6.02129510199995,0],[106.075799869,-6.02129731799994,0],[106.075770565,-6.02134443599994,0],[106.075733734,-6.02139788999995,0],[106.07569969,-6.02156368999994,0],[106.075676531,-6.02161285599993,0],[106.07567452,-6.02162353299997,0],[106.075666303,-6.02166716699998,0],[106.075666635,-6.02166842899993,0],[106.075666309,-6.02167015799995,0],[106.075670867,-6.02168750199996,0],[106.075681929,-6.02172958899996,0],[106.075700143,-6.02179418599997,0],[106.075687417,-6.02189245299996,0],[106.075638496,-6.02198045099993,0],[106.075602393,-6.02201671599994,0],[106.075571457,-6.02205297199993,0],[106.075579181,-6.02212592399997,0],[106.075589693,-6.02221638799995,0],[106.07559507,-6.02232237699997,0],[106.07556941,-6.02241291299993,0],[106.075507589,-6.02251127599993,0],[106.075456054,-6.02258376599997,0],[106.075396797,-6.02267178399995,0],[106.075335037,-6.02283638999995,0],[106.07531456,-6.02293467299995,0],[106.075265633,-6.02312160899993,0],[106.075216728,-6.02321736299996,0],[106.075211733,-6.02330527199996,0],[106.075235166,-6.02339571299996,0],[106.075261096,-6.02344219799994,0],[106.07531861,-6.02351658299995,0],[106.075333924,-6.02353820099995,0],[106.0753289,-6.02357258999996,0],[106.075259267,-6.02375608599993,0],[106.07520245,-6.02387654599994,0],[106.075642164,-6.02417548499994,0],[106.075509529,-6.02448596899995,0],[106.075277249,-6.02510804999997,0],[106.07513452,-6.02549803299996,0],[106.075023435,-6.02571490899993,0],[106.074863694,-6.02606868199996,0],[106.074810438,-6.02617254999996,0],[106.074781851,-6.02618214599994,0],[106.074758985,-6.02617375199998,0],[106.074746631,-6.02616934299994,0],[106.074737458,-6.02616150199998,0],[106.074583253,-6.02585588699998,0],[106.07454475,-6.02557838699994,0],[106.074491555,-6.02547547999995,0],[106.074383572,-6.02531852799996,0],[106.074297663,-6.02518595199996,0],[106.074194478,-6.02497788499994,0],[106.074111807,-6.02479040299994,0],[106.073977159,-6.02483906799995,0],[106.073856844,-6.02487709799993,0],[106.073706035,-6.02493093099997,0],[106.0736122,-6.02497133199995,0],[106.073389002,-6.02500721499996,0],[106.073202755,-6.02503088199995,0],[106.073012659,-6.02505045399994,0],[106.072804693,-6.02508192899995,0],[106.072609173,-6.02512735899995,0],[106.072419779,-6.02512928499993,0],[106.072286296,-6.02514352699995,0],[106.072006274,-6.02517354899993,0],[106.071534598,-6.02515696899997,0],[106.071236884,-6.02520284599996,0],[106.071178373,-6.02526934999997,0],[106.071176218,-6.02532815299998,0],[106.071174332,-6.02538832399995,0],[106.071138337,-6.02543251799995,0],[106.071094283,-6.02545466499993,0],[106.070878449,-6.02543388299995,0],[106.070572714,-6.02537161299995,0],[106.070258365,-6.02528649799996,0],[106.070054826,-6.02527284299993,0],[106.069927478,-6.02522979899993,0],[106.069863891,-6.02525284499995,0],[106.06980536,-6.02525805199997,0],[106.06966604,-6.02546411799995,0],[106.06989859,-6.02564064099994,0],[106.069931056,-6.02571495299998,0],[106.069960302,-6.02579573899993,0],[106.07001866,-6.02588940199996,0],[106.070073825,-6.02600247399994,0],[106.070041621,-6.02606074399995,0],[106.069953375,-6.02617465099996,0],[106.069885105,-6.02626489599993,0],[106.069836718,-6.02639114799996,0],[106.069793664,-6.02648134299994,0],[106.069748641,-6.02648503599994,0],[106.069694578,-6.02647252699995,0],[106.069580994,-6.02641868299997,0],[106.06946017,-6.02634683099996,0],[106.069332961,-6.02628210999995,0],[106.069167105,-6.02621034599997,0],[106.068967064,-6.02615847399994,0],[106.068774306,-6.02614623699998,0],[106.068570902,-6.02618850899995,0],[106.068445644,-6.02622510199996,0],[106.068325826,-6.02625623099993,0],[106.068258689,-6.02629089299995,0],[106.068182491,-6.02633647599993,0],[106.068120863,-6.02640201999998,0],[106.068064674,-6.02646210099994,0],[106.067993936,-6.02651312599994,0],[106.067924957,-6.02653506999997,0],[106.067832692,-6.02653227599995,0],[106.067811905,-6.02652986999993,0],[106.067657582,-6.02650547099995,0],[106.067547506,-6.02647510999998,0],[106.067443502,-6.02642394399993,0],[106.067397045,-6.02642158999993,0],[106.067370196,-6.02644365699996,0],[106.06732622,-6.02645964299995,0],[106.067282165,-6.02643526999998,0],[106.067227412,-6.02642486399998,0],[106.067131151,-6.02641262899994,0],[106.067092283,-6.02638009099996,0],[106.067085976,-6.02633040699993,0],[106.067084266,-6.02624965099994,0],[106.067090287,-6.02615334999996,0],[106.067065373,-6.02611301999997,0],[106.067035823,-6.02608356999997,0],[106.066976812,-6.02606970799997,0],[106.06688432,-6.02607098599998,0],[106.066771483,-6.02605129099993,0],[106.066647612,-6.02604489399994,0],[106.066576879,-6.02606716099996,0],[106.066508362,-6.02609163899996,0],[106.066444222,-6.02609176499993,0],[106.066391119,-6.02608080299996,0],[106.066355649,-6.02603882699998,0],[106.066353295,-6.02596580499994,0],[106.066326964,-6.02585525199993,0],[106.066301573,-6.02579629199994,0],[106.066256605,-6.02577951999996,0],[106.066172291,-6.02574877599994,0],[106.066090709,-6.02567868499995,0],[106.066089437,-6.02555265999996,0],[106.066106843,-6.02547178599997,0],[106.066139998,-6.02536100799995,0],[106.066139744,-6.02523096299996,0],[106.066136051,-6.02513783099994,0],[106.066079753,-6.02509049099996,0],[106.06603565,-6.02507619299996,0],[106.06598646,-6.02507101699996,0],[106.065944365,-6.02510097399994,0],[106.065877704,-6.02514328199993,0],[106.065825073,-6.02517501799997,0],[106.065758347,-6.02518393599996,0],[106.065630701,-6.02517447899993,0],[106.065576304,-6.02517458599993,0],[106.065520508,-6.02517329799997,0],[106.065482802,-6.02514964699998,0],[106.065463135,-6.02507851099995,0],[106.065461591,-6.02500175699993,0],[106.065471205,-6.02492498099997,0],[106.065489267,-6.02488866099998,0],[106.065522848,-6.02479365599993,0],[106.065564165,-6.02470958999993,0],[106.065599726,-6.02452208599993,0],[106.065518826,-6.02439010699993,0],[106.065525213,-6.02427484599997,0],[106.065553896,-6.02419254099993,0],[106.06560575,-6.02415925099996,0],[106.065632988,-6.02407550499993,0],[106.065639886,-6.02391532299993,0],[106.065661472,-6.02383964899997,0],[106.065667069,-6.02375161799995,0],[106.065666287,-6.02365959499997,0],[106.065619238,-6.02362905899997,0],[106.065567473,-6.02356222399993,0],[106.065574308,-6.02349008599998,0],[106.065609039,-6.02341323999997,0],[106.065691799,-6.02328290799994,0],[106.065734207,-6.02310320199996,0],[106.065805123,-6.02296520699997,0],[106.064865228,-6.02256895199997,0],[106.06429675,-6.02229746099994,0],[106.063244251,-6.02177683999997,0],[106.062383227,-6.02134536399996,0],[106.062159658,-6.02125410099995,0],[106.06195874,-6.02115683099993,0],[106.061842176,-6.02134677799995,0],[106.061561809,-6.02164204399998,0],[106.061478028,-6.02176064999998,0],[106.061405764,-6.02182544099998,0],[106.061301452,-6.02181073799994,0],[106.061148701,-6.02180316099998,0],[106.060963208,-6.02185350499997,0],[106.060636621,-6.02198141499997,0],[106.060670667,-6.02219246499993,0],[106.060548426,-6.02223247699993,0],[106.060557495,-6.02228803799994,0],[106.060389461,-6.02235935499994,0],[106.060416481,-6.02248654999994,0],[106.060387976,-6.02258036699993,0],[106.06035338,-6.02265898899998,0],[106.060090822,-6.02263332499996,0],[106.059983622,-6.02266815499996,0],[106.059818065,-6.02273939099996,0],[106.059449838,-6.02286540899996,0],[106.059269847,-6.02286438399994,0],[106.058849009,-6.02293000999993,0],[106.05882455,-6.02301806899993,0],[106.058564392,-6.02301477299994,0],[106.058391841,-6.02296491199996,0],[106.058352515,-6.02289401899998,0],[106.058242551,-6.02292851099998,0],[106.058211051,-6.02289552699995,0],[106.058113446,-6.02288273799996,0],[106.057897494,-6.02293833599992,0],[106.057887724,-6.02298627999994,0],[106.05761026,-6.02302205799998,0],[106.057261173,-6.02309756199998,0],[106.057268839,-6.02316663399995,0],[106.057145427,-6.02321225099996,0],[106.056987271,-6.02325762399994,0],[106.05676592,-6.02327314499996,0],[106.056480891,-6.02325108599996,0],[106.056316273,-6.02327662299996,0],[106.056050414,-6.02327127799992,0],[106.056038753,-6.02297921599995,0],[106.055632947,-6.02299219399993,0],[106.055346633,-6.02298799199997,0],[106.054959697,-6.02298020999996,0],[106.054427797,-6.02294533199995,0],[106.054323112,-6.02294139799994,0],[106.053599878,-6.02290950199995,0],[106.053287928,-6.02291509599996,0],[106.053267051,-6.02264740499993,0],[106.051626313,-6.02265227899994,0],[106.051560546,-6.02263432799998,0],[106.051577867,-6.02258640699995,0],[106.051830265,-6.02196678499996,0],[106.051841888,-6.02190348899995,0],[106.051812939,-6.02188275399993,0],[106.051761429,-6.02187471799994,0],[106.051471348,-6.02183008199995,0],[106.051134984,-6.02177868399997,0],[106.050931752,-6.02175104399993,0],[106.050781405,-6.02174541599993,0],[106.050796469,-6.02161608899996,0],[106.050818605,-6.02142551999998,0],[106.050859101,-6.02122044299995,0],[106.050877251,-6.02108948399996,0],[106.050936993,-6.02067085199997,0],[106.050603249,-6.02061647899995,0],[106.050230133,-6.02054413699994,0],[106.049902755,-6.02048512199997,0],[106.049657637,-6.02043700199994,0],[106.049483831,-6.02042776499997,0],[106.049328459,-6.02046337199994,0],[106.04905625,-6.02052899999995,0],[106.048854943,-6.02051460499996,0],[106.048602419,-6.02046625599996,0],[106.048265594,-6.02038540699994,0],[106.048388361,-6.02002517099993,0],[106.048451624,-6.01979318099995,0],[106.048223327,-6.01972726399993,0],[106.048057348,-6.01970451899996,0],[106.047957879,-6.01970326699995,0],[106.047745728,-6.01974431599996,0],[106.047109147,-6.01988508799997,0],[106.04636194,-6.02006634199995,0],[106.046224812,-6.02016126099994,0],[106.046110481,-6.02008477099997,0],[106.046007632,-6.02004090199995,0],[106.045901462,-6.01996602899993,0],[106.045821432,-6.01991395499994,0],[106.045708061,-6.01982577699994,0],[106.045551346,-6.01976242499995,0],[106.045384889,-6.01972357399995,0],[106.045220135,-6.01972225699996,0],[106.045050268,-6.01962327099994,0],[106.044867464,-6.01958668499998,0],[106.04483947,-6.01942606499995,0],[106.044454284,-6.01932559999995,0],[106.044298853,-6.01929536799997,0],[106.04410783,-6.01923283999997,0],[106.043674091,-6.01909982999996,0],[106.043367249,-6.01902692699997,0],[106.043304368,-6.01901594699996,0],[106.043300605,-6.01898173199993,0],[106.043314628,-6.01893757799996,0],[106.043381925,-6.01879660599997,0],[106.043387274,-6.01864823999995,0],[106.043341903,-6.01848627699997,0],[106.043324079,-6.01832923699993,0],[106.043316538,-6.01812417899993,0],[106.043282963,-6.01801455199995,0],[106.043242688,-6.01792068499998,0],[106.043201891,-6.01782546699997,0],[106.043142608,-6.01780330999998,0],[106.043083016,-6.01778852399997,0],[106.043026569,-6.01774925599995,0],[106.04300044,-6.01766233499995,0],[106.043016341,-6.01750149499998,0],[106.043050514,-6.01739030699997,0],[106.043037112,-6.01726449099993,0],[106.042993137,-6.01715524099995,0],[106.042955479,-6.01700461599995,0],[106.042993439,-6.01693144099994,0],[106.043084818,-6.01688768899993,0],[106.043202391,-6.01687656999997,0],[106.043386772,-6.01687851399993,0],[106.043509285,-6.01681947199995,0],[106.043657687,-6.01673313999993,0],[106.043749045,-6.01672074999993,0],[106.04386174,-6.01679431799994,0],[106.043966403,-6.01672615899997,0],[106.044039164,-6.01668882699994,0],[106.044219372,-6.01667886599995,0],[106.044270942,-6.01668699099997,0],[106.044427872,-6.01666739199993,0],[106.044657705,-6.01665428599995,0],[106.044792568,-6.01661738299993,0],[106.044915539,-6.01654191499995,0],[106.045059291,-6.01648129699993,0],[106.045205609,-6.01643993199997,0],[106.04523871,-6.01642608199995,0],[106.045275093,-6.01640539099998,0],[106.045300504,-6.01638119299997,0],[106.045412755,-6.01620455699998,0],[106.0454826,-6.01610635799994,0],[106.045522845,-6.01603589199993,0],[106.045558833,-6.01599236299995,0],[106.045586677,-6.01597066799997,0],[106.045635406,-6.01589716199993,0],[106.045686635,-6.01588178699996,0],[106.045731355,-6.01588497499995,0],[106.045793975,-6.01590855399996,0],[106.045872984,-6.01592509799997,0],[106.045962984,-6.01595765999997,0],[106.046014591,-6.01597310099993,0],[106.046075093,-6.01599263399993,0],[106.046107891,-6.01598906099997,0],[106.046142484,-6.01595248199993,0],[106.046190796,-6.01587063799997,0],[106.046269753,-6.01577586299993,0],[106.04634021,-6.01568704899995,0],[106.046416673,-6.01559121699995,0],[106.046443228,-6.01556532399997,0],[106.046498216,-6.01540560299998,0],[106.046627939,-6.01514283999995,0],[106.04665645,-6.01502973199996,0],[106.046677262,-6.01489747699998,0],[106.046707682,-6.01480857399997,0],[106.046741338,-6.01475419899998,0],[106.046762024,-6.01469823299993,0],[106.046787322,-6.01464311399997,0],[106.04679891,-6.01461449799996,0],[106.04678915,-6.01455105799994,0],[106.046763697,-6.01450851699997,0],[106.046688875,-6.01441244199998,0],[106.046653065,-6.01434494699993,0],[106.046643595,-6.01428760399995,0],[106.046628284,-6.01423495399996,0],[106.046704746,-6.01410862599994,0],[106.046812314,-6.01396431199993,0],[106.046901936,-6.01383652799996,0],[106.046924832,-6.01379252199996,0],[106.046945371,-6.01375892699997,0],[106.046958064,-6.01369046999997,0],[106.046956591,-6.01367375199993,0],[106.046959863,-6.01364171899996,0],[106.046934005,-6.01361150299994,0],[106.046905523,-6.01360532499996,0],[106.04687348,-6.01359737599995,0],[106.046847653,-6.01358318199993,0],[106.046814687,-6.01355832099995,0],[106.046795049,-6.01352453199996,0],[106.046747779,-6.01348461899994,0],[106.046710689,-6.01342191699996,0],[106.046693722,-6.01333675699993,0],[106.0466722,-6.01321349499995,0],[106.046659724,-6.01313393199996,0],[106.046637034,-6.01304253799998,0],[106.046634676,-6.01298088999994,0],[106.046650248,-6.01292257099993,0],[106.046754532,-6.01278463199998,0],[106.046769479,-6.01275723699996,0],[106.046772059,-6.01272280399996,0],[106.046763177,-6.01269192299998,0],[106.046673929,-6.01261970699994,0],[106.046582737,-6.01253378999996,0],[106.046555823,-6.01247596899998,0],[106.046552872,-6.01240822099993,0],[106.046585213,-6.01235310899995,0],[106.046648618,-6.01231205299996,0],[106.046676792,-6.01229082599997,0],[106.046713389,-6.01224840999993,0],[106.046728714,-6.01214674999994,0],[106.046756766,-6.01192274799996,0],[106.046771898,-6.01172086999998,0],[106.046782729,-6.01161467399993,0],[106.046726128,-6.01135407299995,0],[106.046663092,-6.01106259499994,0],[106.046652636,-6.01081063699996,0],[106.04664969,-6.01059050699996,0],[106.046665708,-6.01046794699994,0],[106.046665636,-6.01043052399996,0],[106.046644381,-6.01039813199998,0],[106.046605704,-6.01038323699993,0],[106.046500396,-6.01034656299993,0],[106.046508882,-6.01017457499995,0],[106.046479079,-6.01014597099993,0],[106.046499591,-6.00990824099995,0],[106.046455525,-6.00991052899997,0],[106.046430025,-6.00982679699996,0],[106.046373209,-6.00974771599994,0],[106.046373172,-6.00972821999994,0],[106.046376788,-6.00970871599998,0],[106.046351685,-6.00963686899996,0],[106.046347851,-6.00957886899994,0],[106.046364932,-6.00955546999995,0],[106.046425597,-6.00952887299997,0],[106.046545388,-6.00950354899993,0],[106.046609992,-6.00945634699997,0],[106.046651068,-6.00940722999997,0],[106.046656848,-6.00935425599994,0],[106.046639121,-6.00931113699994,0],[106.046541044,-6.00928190099995,0],[106.04630172,-6.00920389599997,0],[106.045932214,-6.00905497099996,0],[106.045745725,-6.00892586399993,0],[106.045676423,-6.00886772099994,0],[106.045694729,-6.00880805899993,0],[106.045473294,-6.00868737299993,0],[106.045372078,-6.00862337199993,0],[106.045220319,-6.00856335999993,0],[106.045162025,-6.00857903399998,0],[106.045093813,-6.00849162699996,0],[106.045035404,-6.00844699899994,0],[106.044910034,-6.00840199699996,0],[106.044826336,-6.00834963499995,0],[106.044783498,-6.00831470299994,0],[106.044721201,-6.00827008099998,0],[106.044358639,-6.00813590799993,0],[106.044243817,-6.00807387999993,0],[106.04452093,-6.00754985499998,0],[106.044856296,-6.00698809399995,0],[106.045194856,-6.00657009199995,0],[106.045325092,-6.00641523199994,0],[106.045561326,-6.00669648599995,0],[106.045669089,-6.00659018099998,0],[106.045753828,-6.00654179199995,0],[106.045872036,-6.00670942099993,0],[106.045927953,-6.00671317299998,0],[106.046064308,-6.00663417199996,0],[106.046131086,-6.00661885199997,0],[106.046185762,-6.00662786199996,0],[106.046250713,-6.00672570099994,0],[106.046416751,-6.00664905699995,0],[106.046493125,-6.00664102499996,0],[106.046562946,-6.00666640099996,0],[106.046625993,-6.00665688199996,0],[106.046717197,-6.00663656899997,0],[106.046845362,-6.00663374999993,0],[106.046970824,-6.00666156599993,0],[106.047027752,-6.00668611999993,0],[106.046980589,-6.00681142099995,0],[106.047088776,-6.00687002499996,0],[106.046958338,-6.00714593099997,0],[106.047171666,-6.00723213599997,0],[106.047218047,-6.00727985699996,0],[106.047261454,-6.00733505399995,0],[106.047312325,-6.00738874199993,0],[106.047354198,-6.00742153099998,0],[106.047393284,-6.00747382199995,0],[106.047442293,-6.00753769499994,0],[106.04746683,-6.00758656299996,0],[106.047470698,-6.00764299699995,0],[106.047467039,-6.00769568199996,0],[106.047405072,-6.00773907199994,0],[106.047365662,-6.00777865599997,0],[106.047300032,-6.00787284999996,0],[106.047236329,-6.00799149799997,0],[106.047172616,-6.00810450099993,0],[106.047037052,-6.00829612799993,0],[106.046935938,-6.00851643999994,0],[106.046921025,-6.00858419799994,0],[106.046924904,-6.00864627499993,0],[106.046968291,-6.00871956599997,0],[106.047030426,-6.00876459899996,0],[106.047118818,-6.00877383699998,0],[106.047220349,-6.00877176099993,0],[106.047290843,-6.00875498499994,0],[106.047320756,-6.00866462299996,0],[106.047527809,-6.00871225799995,0],[106.047696663,-6.00874149099997,0],[106.047880333,-6.00879391899997,0],[106.047992197,-6.00881270499997,0],[106.048220025,-6.00878693399994,0],[106.048617327,-6.00865324299997,0],[106.048609107,-6.00852299399997,0],[106.048723316,-6.00850150599996,0],[106.048970259,-6.00842127799996,0],[106.048975441,-6.00835214899996,0],[106.04939826,-6.00826858399995,0],[106.049403298,-6.00804469799994,0],[106.049424039,-6.00777615199996,0],[106.049500988,-6.00772283399994,0],[106.049479664,-6.00760514999996,0],[106.049750868,-6.00751659999997,0],[106.049750675,-6.00741557899994,0],[106.050066852,-6.00741497099995,0],[106.050163084,-6.00761733199994,0],[106.050237575,-6.00766770099995,0],[106.050250952,-6.00771552699996,0],[106.050208691,-6.00784587399994,0],[106.050126754,-6.00806934399998,0],[106.049898472,-6.00832359599997,0],[106.050156421,-6.00844007299997,0],[106.050386457,-6.00855203399993,0],[106.050474183,-6.00857579199993,0],[106.050596427,-6.00850760199995,0],[106.050677024,-6.00844368499997,0],[106.050719361,-6.00836708799994,0],[106.050740441,-6.00828203199995,0],[106.050795596,-6.00824366799998,0],[106.050863521,-6.00821803199995,0],[106.050871839,-6.00812449799997,0],[106.050901537,-6.00804041699996,0],[106.050934927,-6.00799429299997,0],[106.050959924,-6.00793562299998,0],[106.051005861,-6.00788528799995,0],[106.051035038,-6.00782451599997,0],[106.051062107,-6.00775537399994,0],[106.051103842,-6.00769667199995,0],[106.051162759,-6.00761845299996,0],[106.051215002,-6.00758276099998,0],[106.051275633,-6.00755752099997,0],[106.051493381,-6.00739924299995,0],[106.051586907,-6.00731871899995,0],[106.051650322,-6.00723825299997,0],[106.051680318,-6.00717793699994,0],[106.051764048,-6.00700700399995,0],[106.051824855,-6.00692114899994,0],[106.051879126,-6.00686498699997,0],[106.051968005,-6.00681040499995,0],[106.052131288,-6.00664034499994,0],[106.052187206,-6.00658417999995,0],[106.052259767,-6.00655082099996,0],[106.05234693,-6.00655688099994,0],[106.052432046,-6.00657747999998,0],[106.052703702,-6.00662894499993,0],[106.052920712,-6.00660311099995,0],[106.053126252,-6.00661657899997,0],[106.053406212,-6.00659989199994,0],[106.053514741,-6.00659968299993,0],[106.053556257,-6.00657418799995,0],[106.053586196,-6.00653254099996,0],[106.053662336,-6.00650004799996,0],[106.053747774,-6.00649988299995,0],[106.053898598,-6.00639821299995,0],[106.053987127,-6.00635370899994,0],[106.054068292,-6.00632030399993,0],[106.054142066,-6.00628321699998,0],[106.054201057,-6.00623877099997,0],[106.054248971,-6.00619434599997,0],[106.054315331,-6.00614249699993,0],[106.054422271,-6.00607209799995,0],[106.054484955,-6.00602764399997,0],[106.054495917,-6.00596851199998,0],[106.054451504,-6.00591318199997,0],[106.054221543,-6.00573323899994,0],[106.054090515,-6.00564038999994,0],[106.054046815,-6.00559683199998,0],[106.054043779,-6.00552991999996,0],[106.054087306,-6.00548328599996,0],[106.05413662,-6.00542209199995,0],[106.054148111,-6.00534933399996,0],[106.054127628,-6.00528245699996,0],[106.05413044,-6.00523298999997,0],[106.054214665,-6.00518045799993,0],[106.054401284,-6.00509496699993,0],[106.054514657,-6.00508020099994,0],[106.054619337,-6.00507999899997,0],[106.054758813,-6.00503026999996,0],[106.054999848,-6.00486978599997,0],[106.055172547,-6.00469985499996,0],[106.055274184,-6.00462983299997,0],[106.055500792,-6.00452756499993,0],[106.055826241,-6.00441346899993,0],[106.055991446,-6.00432900299995,0],[106.056083099,-6.00423694299997,0],[106.056239662,-6.00394261599996,0],[106.056455635,-6.00361437899994,0],[106.056638683,-6.00329753999995,0],[106.056749028,-6.00315753099994,0],[106.056916054,-6.00299794399996,0],[106.057181343,-6.00274692499994,0],[106.057347034,-6.00258220399996,0],[106.057423735,-6.00247878699997,0],[106.057484391,-6.00245032199996,0],[106.057785986,-6.00248416199997,0],[106.058364094,-6.00258426199997,0],[106.059093795,-6.00269946799995,0],[106.05917997,-6.00226432999995,0],[106.059115132,-6.00224389799996,0],[106.059113311,-6.00211897199995,0],[106.059119535,-6.00206835499995,0],[106.059135263,-6.00202878999994,0],[106.05913833,-6.00197976099997,0],[106.059171139,-6.00179231399994,0],[106.059164132,-6.00164060399993,0],[106.059145419,-6.00161822299998,0],[106.059113022,-6.00159960499997,0],[106.05905571,-6.00156982599998,0],[106.059005856,-6.00153505199995,0],[106.058978382,-6.00148778099998,0],[106.058964576,-6.00142802799996,0],[106.058946112,-6.00125155899997,0],[106.058915945,-6.00108832699993,0],[106.058880817,-6.00095604599994,0],[106.058856186,-6.00092257399996,0],[106.058818148,-6.00088465899995,0],[106.0587466,-6.00084234099995,0],[106.058688492,-6.00082010699998,0],[106.058643707,-6.00075762499995,0],[106.058567399,-6.00056336199998,0],[106.058443492,-6.00030998599993,0],[106.058398696,-6.00024303299995,0],[106.058299824,-6.00002577399994,0],[106.058260263,-5.99998043099993,0],[106.058208881,-5.99994498499996,0],[106.058161449,-5.99991150499994,0],[106.058131753,-5.99986416799993,0],[106.058094121,-5.99979512299996,0],[106.058062448,-5.99974581399994,0],[106.058010982,-5.99966692099997,0],[106.057897646,-5.99952602199994,0],[106.057840278,-5.99945701599995,0],[106.057798729,-5.99940377699994,0],[106.057757203,-5.99936238599997,0],[106.057705859,-5.99934668699996,0],[106.057650589,-5.99934284399995,0],[106.057613033,-5.99931329499998,0],[106.057559655,-5.99926600299995,0],[106.057470671,-5.99917730899995,0],[106.057286136,-5.99897352199997,0],[106.057208412,-5.99890050599993,0],[106.057173448,-5.99885868899997,0],[106.05706754,-5.99874594799996,0],[106.056989366,-5.99870145099993,0],[106.056886114,-5.99866816499997,0],[106.056810713,-5.99861529099996,0],[106.056704489,-5.99848713199998,0],[106.056615074,-5.99839800899997,0],[106.056464235,-5.99827272699997,0],[106.056259409,-5.99812415799994,0],[106.056130773,-5.99794302299995,0],[106.056052487,-5.99783992499994,0],[106.055946248,-5.99770339499997,0],[106.055800191,-5.99743171899996,0],[106.055738429,-5.99721975899996,0],[106.05569348,-5.99704962499993,0],[106.055637185,-5.99681159599993,0],[106.055522531,-5.99664996799993,0],[106.055407948,-5.99652461599993,0],[106.0553113,-5.99640435399994,0],[106.055350295,-5.99632594299993,0],[106.054899123,-5.99598143599997,0],[106.054512549,-5.99572107899996,0],[106.054147991,-5.99545152499996,0],[106.053896382,-5.99529273999997,0],[106.05363926,-5.99510079199996,0],[106.053663817,-5.99495316499997,0],[106.053906027,-5.99498385099997,0],[106.053965399,-5.99493140499993,0],[106.054055274,-5.99491760299998,0],[106.054134218,-5.99488610299994,0],[106.054215876,-5.99484914499993,0],[106.054289357,-5.99480947799998,0],[106.054388696,-5.99475885699997,0],[106.054948974,-5.99454200199995,0],[106.055109314,-5.99461487199994,0],[106.055356684,-5.99428103099996,0],[106.055442105,-5.99421728199997,0],[106.055530018,-5.99417798399998,0],[106.055588624,-5.99415096999996,0],[106.055632528,-5.99410441899994,0],[106.055686696,-5.99401534799995,0],[106.05575513,-5.99401521599998,0],[106.055838262,-5.99403217499997,0],[106.055867506,-5.99398809899998,0],[106.055869791,-5.99390494599993,0],[106.055886782,-5.99384377299998,0],[106.055955146,-5.99380695899993,0],[106.056018655,-5.99378727199996,0],[106.056084043,-5.99375483399996,0],[106.056133675,-5.99373096499994,0],[106.056183142,-5.99362064699994,0],[106.056252292,-5.99363780299996,0],[106.056559325,-5.99380578699993,0],[106.056834827,-5.99392022799998,0],[106.057150441,-5.99405793699998,0],[106.05745308,-5.99418702699995,0],[106.057737658,-5.99428010499997,0],[106.057804616,-5.99427997599997,0],[106.05785643,-5.99426690899998,0],[106.057884396,-5.99420850199994,0],[106.057899357,-5.99412634599997,0],[106.057905638,-5.99402259599998,0],[106.057927045,-5.99392313799996,0],[106.057961306,-5.99376197499993,0],[106.057997717,-5.99360197499993,0],[106.057982452,-5.99352636099997,0],[106.058059897,-5.99336411899998,0],[106.058094272,-5.99326895899998,0],[106.058200056,-5.99314652099997,0],[106.058342223,-5.99294525299996,0],[106.058405282,-5.99286750299996,0],[106.058475013,-5.99286226199996,0],[106.058529471,-5.99287577399997,0],[106.058587276,-5.99286034399995,0],[106.05864504,-5.99282448999998,0],[106.058678956,-5.99276995899993,0],[106.058685622,-5.99269846099997,0],[106.05868549,-5.99263037999998,0],[106.05870584,-5.99259800299996,0],[106.058748309,-5.99256898599998,0],[106.05878736,-5.99253146599995,0],[106.058792368,-5.99248209699994,0],[106.058799057,-5.99242251299995,0],[106.058831987,-5.99236887899997,0],[106.058871044,-5.99233476399996,0],[106.058916925,-5.99231084699994,0],[106.059007031,-5.99228684399998,0],[106.05908864,-5.99226626199993,0],[106.059160016,-5.99223208299998,0],[106.059373191,-5.99214550499994,0],[106.059445914,-5.99209178299998,0],[106.059499343,-5.99202952599995,0],[106.059531361,-5.99197159499994,0],[106.05954401,-5.99186655199998,0],[106.059548617,-5.99171274399993,0],[106.059553557,-5.99165028299996,0],[106.059590573,-5.99160126299995,0],[106.059641094,-5.99155728099993,0],[106.059722026,-5.99145403899996,0],[106.059753942,-5.99138477399993,0],[106.060073655,-5.99161271599996,0],[106.060349519,-5.99183629499993,0],[106.060481123,-5.99138733499996,0],[106.060839498,-5.99151773299997,0],[106.060885659,-5.99149079399996,0],[106.060913874,-5.99143405699994,0],[106.060945546,-5.99135435999995,0],[106.061057959,-5.99120377999998,0],[106.061144664,-5.99111550999993,0],[106.061224492,-5.99111418099994,0],[106.061402559,-5.99122506699996,0],[106.061479381,-5.99128074399994,0],[106.061549207,-5.99132480499998,0],[106.061632932,-5.99134325199998,0],[106.061705064,-5.99137800399996,0],[106.061784215,-5.99143600199994,0],[106.061844733,-5.99147542899993,0],[106.061916897,-5.99152646199997,0],[106.061975072,-5.99155658899997,0],[106.062065779,-5.99157967399998,0],[106.062119251,-5.99158189699995,0],[106.062301402,-5.99164008699995,0],[106.062576952,-5.99170022899995,0],[106.06263257,-5.99170012099995,0],[106.062705782,-5.99171462499993,0],[106.062773196,-5.99175843099994,0],[106.062869881,-5.99180217999998,0],[106.062951847,-5.99180202099996,0],[106.063019153,-5.99179017399996,0],[106.063112889,-5.99182221299998,0],[106.063189124,-5.99188650499997,0],[106.063250722,-5.99195082599994,0],[106.063318079,-5.99196533999998,0],[106.06338248,-5.99196521499994,0],[106.06345863,-5.99198557099993,0],[106.063525965,-5.99198836899996,0],[106.063619649,-5.99199404599995,0],[106.063713341,-5.99200265199994,0],[106.063813764,-5.99202967899993,0],[106.063928066,-5.99209975499997,0],[106.063983901,-5.99221095299993,0],[106.06398996,-5.99231638899994,0],[106.063958507,-5.99244132199993,0],[106.063967867,-5.99251281299996,0],[106.064009551,-5.99260961599992,0],[106.064011954,-5.99266035999995,0],[106.063999689,-5.99273489099994,0],[106.063998283,-5.99274342999996,0],[106.063984572,-5.99280573799996,0],[106.063957011,-5.99285884699998,0],[106.063984786,-5.99291646199993,0],[106.064056333,-5.99295784399993,0],[106.06421112,-5.99302010199995,0],[106.06427295,-5.99307266399995,0],[106.064318452,-5.99313070699998,0],[106.06449591,-5.99319136799994,0],[106.06456503,-5.99324432599997,0],[106.064656109,-5.99327956999997,0],[106.064688107,-5.99335383699997,0],[106.064678647,-5.99339017699998,0],[106.064761951,-5.99341511299997,0],[106.064817649,-5.99339111399996,0],[106.06495312,-5.99343863299993,0],[106.065006926,-5.99344546999993,0],[106.06503543,-5.99344909199993,0],[106.06510972,-5.99343036499994,0],[106.065139124,-5.99342908299997,0],[106.065201506,-5.99343053799993,0],[106.065233057,-5.99343127399993,0],[106.065277235,-5.99343230499994,0],[106.06540465,-5.99343205799994,0],[106.06545773,-5.99342664499994,0],[106.065486847,-5.99338411499997,0],[106.065486774,-5.99334656099995,0],[106.065486749,-5.99333367799994,0],[106.065530827,-5.99333359199994,0],[106.065547523,-5.99339043899994,0],[106.065572131,-5.99344963699997,0],[106.065681815,-5.99344477299996,0],[106.065708303,-5.99346107399998,0],[106.065770916,-5.99347335199997,0],[106.065833847,-5.99348159199997,0],[106.065923797,-5.99349792599997,0],[106.065927416,-5.99349858299996,0],[106.065928257,-5.99349873599994,0],[106.065931014,-5.99349923699998,0],[106.065938506,-5.99350059699998,0],[106.065938443,-5.99350202499994,0],[106.065938379,-5.99350345399995,0],[106.065959417,-5.99350439199998,0],[106.066204002,-5.99355468399995,0],[106.066149528,-5.99369256799997,0],[106.066169689,-5.99370104999997,0],[106.066390225,-5.99369860999997,0],[106.066391649,-5.99382658599995,0],[106.065909288,-5.99383196299993,0],[106.065903112,-5.99397069999998,0],[106.065912138,-5.99397110199993,0],[106.06589924,-5.99426086399995,0],[106.065895759,-5.99433907799994,0],[106.065978978,-5.99440853199997,0],[106.066122584,-5.99443390699997,0],[106.066246108,-5.99450559199994,0],[106.066410663,-5.99457105999994,0],[106.066613237,-5.99462153599995,0],[106.066750503,-5.99464723499995,0],[106.066891392,-5.99466252299993,0],[106.067402002,-5.99467878599995,0],[106.067534491,-5.99468020499995,0],[106.067763443,-5.99469175399997,0],[106.067873225,-5.99470254099998,0],[106.067979856,-5.99471330799997,0],[106.068090406,-5.99472393499997,0],[106.068140135,-5.99473518399998,0],[106.068182586,-5.99473395599995,0],[106.068221271,-5.99474116799996,0],[106.068232268,-5.99475664099998,0],[106.068316291,-5.99475161099997,0],[106.068420838,-5.99473891999997,0],[106.068414484,-5.99478864599996,0],[106.068407469,-5.99486955799995,0],[106.068436866,-5.99487200399994,0],[106.068538165,-5.99489612299993,0],[106.068666818,-5.99490852999998,0],[106.068867671,-5.99494880099996,0],[106.069130132,-5.99494721299993,0],[106.069277142,-5.99494692599995,0],[106.06940054,-5.99495456299996,0],[106.069534368,-5.99492541699993,0],[106.069641974,-5.99491207699998,0],[106.06975398,-5.99498037699993,0],[106.069864281,-5.99501552799995,0],[106.070019874,-5.99505534899993,0],[106.070142758,-5.99503463099995,0],[106.070216946,-5.99501827999995,0],[106.070289801,-5.99501003399996,0],[106.070368059,-5.99500447999998,0],[106.070433482,-5.99499773799994,0],[106.070562134,-5.99499962799996,0],[106.070684496,-5.99500534999993,0],[106.070800583,-5.99502267999998,0],[106.070927566,-5.99509130699994,0],[106.071017577,-5.99510187699997,0],[106.071102003,-5.99513645599995,0],[106.071268136,-5.99515008599997,0],[106.071382315,-5.99515517399993,0],[106.071488539,-5.99516558899995,0],[106.07158559,-5.99517954699996,0],[106.071653233,-5.99520510499997,0],[106.071737169,-5.99521040799993,0],[106.071874176,-5.99521948799998,0],[106.071971771,-5.99524110699997,0],[106.072112439,-5.99527910099994,0],[106.072289291,-5.99535402699996,0],[106.072327732,-5.99537576299997,0],[106.072432771,-5.99534523999995,0],[106.072479292,-5.99533299299998,0],[106.072527868,-5.99533694999997,0],[106.07254812,-5.99534501399995,0],[106.072590665,-5.99536924299997,0],[106.072661574,-5.99540557299997,0],[106.072728458,-5.99545811899998,0],[106.072764963,-5.99549856799996,0],[106.072811626,-5.99555926599993,0],[106.072850167,-5.99560578899997,0],[106.072899692,-5.99559388099993,0],[106.07294221,-5.99558365699994,0],[106.072970607,-5.99565381399998,0],[106.072978813,-5.99567408799993,0],[106.073008966,-5.99575069199994,0],[106.073041222,-5.99585428199993,0],[106.072814589,-5.99590156899995,0],[106.072863959,-5.99603296799995,0],[106.07290977,-5.99610869599996,0],[106.0729411,-5.99619417299994,0],[106.07294742,-5.99621510499998,0],[106.072921396,-5.99628532199995,0],[106.072896339,-5.99631469499997,0],[106.072906877,-5.99635237499996,0],[106.072959275,-5.99639102099997,0],[106.073040348,-5.99652853799995,0],[106.073204997,-5.99680086199993,0],[106.073306249,-5.99691934299995,0],[106.073354677,-5.99697785499995,0],[106.073461735,-5.99707141699997,0],[106.073474569,-5.99709740399993,0],[106.073507195,-5.99716712499998,0],[106.073546661,-5.99726286399994,0],[106.073587232,-5.99729595099996,0],[106.073616007,-5.99732346899998,0],[106.073703203,-5.99734663799995,0],[106.07377815,-5.99738334299997,0],[106.07384573,-5.99741883499996,0],[106.07392931,-5.99747640599998,0],[106.074015302,-5.99751186199995,0],[106.074068942,-5.99753145099993,0],[106.074210102,-5.99753240299998,0],[106.07436616,-5.99751867299995,0],[106.07437349,-5.99756935499994,0],[106.074384223,-5.99777091799996,0],[106.074443894,-5.99788709899997,0],[106.074361645,-5.99811985599996,0],[106.074229177,-5.99821524499993,0],[106.074150936,-5.99838423499995,0],[106.074138168,-5.99841332899996,0],[106.074033381,-5.99855083299997,0],[106.073912252,-5.99872680999994,0],[106.073883888,-5.99876046299994,0],[106.07381414,-5.99882672899997,0],[106.073814231,-5.99887324799994,0],[106.073620928,-5.99914757399995,0],[106.073517885,-5.99932093099994,0],[106.073433599,-5.99948548699996,0],[106.073417657,-5.99951650299994,0],[106.073217321,-5.99988056499996,0],[106.073179846,-5.99989847299997,0],[106.073151291,-5.99997071199994,0],[106.073137609,-5.99996634399997,0],[106.072939098,-6.00028981399993,0],[106.073025258,-6.00031608799998,0],[106.072963271,-6.00055119399997,0],[106.072944415,-6.00075577999996,0],[106.072952979,-6.00081134699997,0],[106.07294438,-6.00088536099997,0],[106.072942828,-6.00089871899996,0],[106.073112714,-6.00091266799996,0],[106.073263925,-6.00093529299994,0],[106.073422052,-6.00098082599993,0],[106.073632854,-6.00102396399996,0],[106.07388941,-6.00103950599993,0],[106.073955796,-6.00102103799998,0],[106.074264178,-6.00101608399996,0],[106.074589572,-6.00109566999993,0],[106.07505467,-6.00117039799994,0],[106.075214467,-6.00117696099994,0],[106.075364348,-6.00118866499997,0],[106.075537244,-6.00120692599995,0],[106.075618908,-6.00120317099993,0],[106.075733425,-6.00120565199995,0],[106.075804677,-6.00121633599997,0],[106.075913862,-6.00125851499996,0],[106.076210409,-6.00130415399997,0],[106.076526927,-6.00133813599996,0],[106.076588372,-6.00134362299997,0],[106.077030561,-6.00138311399996,0],[106.077446447,-6.00141466699995,0],[106.078107148,-6.00149609399995,0],[106.078508172,-6.00153573599994,0],[106.0794894,-6.00164777199996,0],[106.079909434,-6.00165663999996,0],[106.080431088,-6.00174602899995,0],[106.080776581,-6.00177602699995,0],[106.082072529,-6.00191569299994,0],[106.082260912,-6.00193473499996,0],[106.082782705,-6.00198747799993,0],[106.082839763,-6.00199324499994,0],[106.083026113,-6.00200999999993,0],[106.083076707,-6.00201454899997,0],[106.084016686,-6.00209906599997,0],[106.08398652,-6.00211059699996,0],[106.083908694,-6.00215386699995,0],[106.083692691,-6.00238109099996,0],[106.083632543,-6.00251593399997,0],[106.083631498,-6.00251848099998,0],[106.083447627,-6.00296683799996,0],[106.083277012,-6.00333942299994,0],[106.083121952,-6.00371906599997,0],[106.083029443,-6.00398556399995,0],[106.083030217,-6.00398633799995,0],[106.083057874,-6.00401390099995,0],[106.083106919,-6.00403057999995,0],[106.083236173,-6.00405256399995,0],[106.083367747,-6.00406004499996,0],[106.083411642,-6.00408189799998,0],[106.083423356,-6.00413478899998,0],[106.083423086,-6.00413653599998,0],[106.083416988,-6.00417609799996,0],[106.083387379,-6.00420454899995,0],[106.083340999,-6.00423174199994,0],[106.083144359,-6.00430983399997,0],[106.082789966,-6.00447398699993,0],[106.08239566,-6.00466695499995,0],[106.082396591,-6.00466949399993,0],[106.082395666,-6.00466994599998,0],[106.08255898,-6.00511541899994,0],[106.082424683,-6.00518293999994,0],[106.082424742,-6.00518590399997,0],[106.082424689,-6.00518593099997,0],[106.082426182,-6.00526187099996,0],[106.082443841,-6.00571692499994,0],[106.082444513,-6.00602437899994,0],[106.08243033,-6.00634890499992,0],[106.082430437,-6.00634956599993,0],[106.082430335,-6.00635189599996,0],[106.082450436,-6.00647529799994,0],[106.082471765,-6.00657830299997,0],[106.082506239,-6.00665221699995,0],[106.0825357,-6.00686089499993,0],[106.082604488,-6.00692681399994,0],[106.082699653,-6.00697682799995,0],[106.082808015,-6.00702417399998,0],[106.082920826,-6.00711046399994,0],[106.082978737,-6.00714652099992,0],[106.083009802,-6.00718676299994,0],[106.083028507,-6.00724459999998,0],[106.083028606,-6.00729431499997,0],[106.08302558,-6.00733152399994,0],[106.083025706,-6.00733303999993,0],[106.083025586,-6.00733451599996,0],[106.083028761,-6.00737274699998,0],[106.083074701,-6.00742561399994,0],[106.08310624,-6.00746751799994,0],[106.083114371,-6.00751970099998,0],[106.083061182,-6.00761352399996,0],[106.083021501,-6.00764166699997,0],[106.082974784,-6.00765813299995,0],[106.082922204,-6.00766525399996,0],[106.08286966,-6.00768991499996,0],[106.082842829,-6.00771569499994,0],[106.082825579,-6.00774496999998,0],[106.082818243,-6.00778804599997,0],[106.082816035,-6.00788056899995,0],[106.08281604,-6.00788355999993,0],[106.082816237,-6.00798306599995,0],[106.082816243,-6.00798605699993,0],[106.082816373,-6.00805195799995,0],[106.082808138,-6.00813262799994,0],[106.082779738,-6.00824429099993,0],[106.082776508,-6.00830982899993,0],[106.082768272,-6.00839049799993,0],[106.082739853,-6.00845608499998,0],[106.082728243,-6.00853003999993,0],[106.082728296,-6.00853273599995,0],[106.082728249,-6.00853303099996,0],[106.082730477,-6.00864793099993,0],[106.082730607,-6.00871324399998,0],[106.082727611,-6.00879101299995,0],[106.082705763,-6.00889458899996,0],[106.082702713,-6.00894503599994,0],[106.082691257,-6.00899444799995,0],[106.082688223,-6.00905225099996,0],[106.082688366,-6.00905260599995,0],[106.082688228,-6.00905524199993,0],[106.082706169,-6.00909934199996,0],[106.082712346,-6.00914800799995,0],[106.082702184,-6.00920524899993,0],[106.082674992,-6.00926309899995,0],[106.082632087,-6.00934199899996,0],[106.082613309,-6.00940613799997,0],[106.082587206,-6.00949570799997,0],[106.082587663,-6.00949715399997,0],[106.082587212,-6.00949869899995,0],[106.082595294,-6.00952430599995,0],[106.082611806,-6.00955314699996,0],[106.082699451,-6.00961336999995,0],[106.082791904,-6.00968171999995,0],[106.082657397,-6.00990644099994,0],[106.082556986,-6.01007749799993,0],[106.082415778,-6.01026677199997,0],[106.082338108,-6.01036430899995,0],[106.082043295,-6.01016282399996,0],[106.081842017,-6.01050406199994,0],[106.08184291,-6.01050554699998,0],[106.081842022,-6.01050705299997,0],[106.081909174,-6.01061854199997,0],[106.081742736,-6.01090706399998,0],[106.08163816,-6.01108795399995,0],[106.08149058,-6.01134866199993,0],[106.081366306,-6.01160470199994,0],[106.081206875,-6.01189495399996,0],[106.081208124,-6.01189568299998,0],[106.081206881,-6.01189794599998,0],[106.081510286,-6.01207491299994,0],[106.081468532,-6.01216225199994,0],[106.08143081,-6.01224330399998,0],[106.081386199,-6.01232436799995,0],[106.081348528,-6.01243126299994,0],[106.081226664,-6.01270623399995,0],[106.08114074,-6.01287787299998,0],[106.080977597,-6.01310044999997,0],[106.080847262,-6.01328079299998,0],[106.080848839,-6.01328160999998,0],[106.080847268,-6.01328378399995,0],[106.08147664,-6.01361024599993,0],[106.082052866,-6.01391861399998,0]]]]}}]}