{"type":"FeatureCollection","name":"Kecamatan Purwakarta","crs":{"type":"name","properties":{"name":"urn:ogc:def:crs:OGC:1.3:CRS84"}},"features":[{"type":"Feature","properties":{"kode_kec":"36.72.07","kode_kk":"36.72","kode_prov":"36","kecamatan":"Purwakarta","kab_kota":"Kota Cilegon","provinsi":"Banten","fid":"36.72.07","nama":"Kecamatan Purwakarta","label":"Kecamatan Purwakarta, Kota Cilegon, Provinsi Banten, 36.72.07"},"geometry":{"type":"MultiPolygon","coordinates":[[[[106.044721201,-6.00827008099998,0],[106.044783498,-6.00831470299994,0],[106.044826336,-6.00834963499995,0],[106.044910034,-6.00840199699996,0],[106.045035404,-6.00844699899994,0],[106.045093813,-6.00849162699996,0],[106.045162025,-6.00857903399998,0],[106.045220319,-6.00856335999993,0],[106.045372078,-6.00862337199993,0],[106.045473294,-6.00868737299993,0],[106.045694729,-6.00880805899993,0],[106.045676423,-6.00886772099994,0],[106.045745725,-6.00892586399993,0],[106.045932214,-6.00905497099996,0],[106.04630172,-6.00920389599997,0],[106.046541044,-6.00928190099995,0],[106.046639121,-6.00931113699994,0],[106.046656848,-6.00935425599994,0],[106.046651068,-6.00940722999997,0],[106.046609992,-6.00945634699997,0],[106.046545388,-6.00950354899993,0],[106.046425597,-6.00952887299997,0],[106.046364932,-6.00955546999995,0],[106.046347851,-6.00957886899994,0],[106.046351685,-6.00963686899996,0],[106.046376788,-6.00970871599998,0],[106.046373172,-6.00972821999994,0],[106.046373209,-6.00974771599994,0],[106.046430025,-6.00982679699996,0],[106.046455525,-6.00991052899997,0],[106.046499591,-6.00990824099995,0],[106.046479079,-6.01014597099993,0],[106.046508882,-6.01017457499995,0],[106.046500396,-6.01034656299993,0],[106.046605704,-6.01038323699993,0],[106.046644381,-6.01039813199998,0],[106.046665636,-6.01043052399996,0],[106.046665708,-6.01046794699994,0],[106.04664969,-6.01059050699996,0],[106.046652636,-6.01081063699996,0],[106.046663092,-6.01106259499994,0],[106.046726128,-6.01135407299995,0],[106.046782729,-6.01161467399993,0],[106.046771898,-6.01172086999998,0],[106.046756766,-6.01192274799996,0],[106.046728714,-6.01214674999994,0],[106.046713389,-6.01224840999993,0],[106.046676792,-6.01229082599997,0],[106.046648618,-6.01231205299996,0],[106.046585213,-6.01235310899995,0],[106.046552872,-6.01240822099993,0],[106.046555823,-6.01247596899998,0],[106.046582737,-6.01253378999996,0],[106.046673929,-6.01261970699994,0],[106.046763177,-6.01269192299998,0],[106.046772059,-6.01272280399996,0],[106.046769479,-6.01275723699996,0],[106.046754532,-6.01278463199998,0],[106.046650248,-6.01292257099993,0],[106.046634676,-6.01298088999994,0],[106.046637034,-6.01304253799998,0],[106.046659724,-6.01313393199996,0],[106.0466722,-6.01321349499995,0],[106.046693722,-6.01333675699993,0],[106.046710689,-6.01342191699996,0],[106.046747779,-6.01348461899994,0],[106.046795049,-6.01352453199996,0],[106.046814687,-6.01355832099995,0],[106.046847653,-6.01358318199993,0],[106.04687348,-6.01359737599995,0],[106.046905523,-6.01360532499996,0],[106.046934005,-6.01361150299994,0],[106.046959863,-6.01364171899996,0],[106.046956591,-6.01367375199993,0],[106.046958064,-6.01369046999997,0],[106.046945371,-6.01375892699997,0],[106.046924832,-6.01379252199996,0],[106.046901936,-6.01383652799996,0],[106.046812314,-6.01396431199993,0],[106.046704746,-6.01410862599994,0],[106.046628284,-6.01423495399996,0],[106.046643595,-6.01428760399995,0],[106.046653065,-6.01434494699993,0],[106.046688875,-6.01441244199998,0],[106.046763697,-6.01450851699997,0],[106.04678915,-6.01455105799994,0],[106.04679891,-6.01461449799996,0],[106.046787322,-6.01464311399997,0],[106.046762024,-6.01469823299993,0],[106.046741338,-6.01475419899998,0],[106.046707682,-6.01480857399997,0],[106.046677262,-6.01489747699998,0],[106.04665645,-6.01502973199996,0],[106.046627939,-6.01514283999995,0],[106.046498216,-6.01540560299998,0],[106.046443228,-6.01556532399997,0],[106.046276869,-6.01549526599996,0],[106.046147529,-6.01534509899994,0],[106.045949035,-6.01519313599994,0],[106.045369217,-6.01473242099996,0],[106.044649494,-6.01416113499994,0],[106.043689657,-6.01342053999997,0],[106.043412343,-6.01320023299996,0],[106.043066755,-6.01291755499994,0],[106.042645727,-6.01253872299998,0],[106.042277541,-6.01229825099995,0],[106.042028515,-6.01215639199995,0],[106.041742491,-6.01200471799996,0],[106.041551758,-6.01191676099995,0],[106.041247408,-6.01179911099996,0],[106.04084602,-6.01169594899994,0],[106.040213217,-6.01156679099995,0],[106.038814792,-6.01133385899993,0],[106.038368628,-6.01124236899994,0],[106.037839422,-6.01113313699994,0],[106.037414858,-6.01107970399994,0],[106.036211289,-6.01088484599995,0],[106.035160971,-6.01068593999997,0],[106.034725814,-6.01061375899997,0],[106.034140657,-6.01050175099994,0],[106.033344054,-6.01036863799993,0],[106.033023361,-6.01031439999997,0],[106.032597031,-6.01025134499997,0],[106.032105422,-6.01016303599994,0],[106.031835916,-6.01011427899994,0],[106.031560848,-6.01006930799997,0],[106.031138415,-6.00999539799994,0],[106.030770563,-6.00992866099995,0],[106.030442724,-6.00987470299998,0],[106.03011659,-6.00981690299994,0],[106.02967409,-6.00973210899997,0],[106.029262492,-6.00965815399996,0],[106.028619829,-6.00955721999998,0],[106.028315677,-6.00948666499994,0],[106.028022402,-6.00944169699994,0],[106.02793875,-6.00943275799995,0],[106.027789256,-6.00940572799993,0],[106.027643763,-6.00938417099997,0],[106.02749059,-6.00936425599997,0],[106.027392369,-6.00934261099997,0],[106.027221006,-6.00931742699993,0],[106.026995512,-6.00929420099993,0],[106.02658934,-6.00923108099994,0],[106.026268991,-6.00921346399997,0],[106.026032188,-6.00920852399997,0],[106.025662733,-6.00921661899997,0],[106.025404196,-6.00923356399994,0],[106.025078838,-6.00928329299995,0],[106.02502908,-6.00915384199993,0],[106.025051992,-6.00909104099998,0],[106.024636188,-6.00785885399995,0],[106.024260048,-6.00667185799995,0],[106.023042794,-6.00523111299998,0],[106.022821212,-6.00496989899995,0],[106.023001312,-6.00479500599994,0],[106.023073673,-6.00472317499998,0],[106.023106765,-6.00468407399995,0],[106.023164208,-6.00462735899993,0],[106.023236669,-6.00461017699996,0],[106.02329401,-6.00456052899995,0],[106.023327578,-6.00450696399997,0],[106.023378918,-6.00442562199993,0],[106.02342636,-6.00437797499995,0],[106.023509464,-6.00433818699997,0],[106.023574808,-6.00433211999996,0],[106.023620373,-6.00433996099997,0],[106.02369306,-6.00439125699995,0],[106.023759176,-6.00442417999994,0],[106.023896124,-6.00448844299996,0],[106.024021995,-6.00451653299996,0],[106.024169663,-6.00431774399993,0],[106.024298131,-6.00442969699998,0],[106.024594462,-6.00463699199997,0],[106.024691244,-6.00465389399994,0],[106.024805069,-6.00465368099998,0],[106.024884746,-6.00465353199996,0],[106.024947445,-6.00470466499996,0],[106.025049897,-6.00471016699993,0],[106.025163738,-6.00471849599995,0],[106.025226447,-6.00477532299993,0],[106.025335553,-6.00488644599994,0],[106.025506588,-6.00504557199997,0],[106.025626194,-6.00509375199994,0],[106.025734312,-6.00508500699993,0],[106.025811046,-6.00503361199998,0],[106.025903172,-6.00502487199998,0],[106.025982828,-6.00501333299997,0],[106.026014061,-6.00497625999998,0],[106.026070797,-6.00488219399995,0],[106.026102023,-6.00484227399994,0],[106.026184525,-6.00483072899993,0],[106.02635242,-6.00483326199998,0],[106.026580122,-6.00486130699994,0],[106.026788737,-6.00496825699997,0],[106.030377402,-6.00494556899997,0],[106.02909956,-6.00257903199997,0],[106.029163631,-6.00251468299996,0],[106.028445784,-6.00114227299997,0],[106.027923178,-6.00140569499996,0],[106.027194834,-6.00005160799998,0],[106.027226866,-5.99983361399995,0],[106.027577186,-5.99957188799993,0],[106.027851666,-5.99927511699997,0],[106.027852156,-5.99858769699995,0],[106.027843249,-5.99782138099994,0],[106.027853029,-5.99701281099993,0],[106.02782778,-5.99615270799995,0],[106.027766449,-5.99582693799994,0],[106.027619144,-5.99574058899998,0],[106.027374579,-5.99574668399993,0],[106.027217278,-5.99575747299997,0],[106.02713635,-5.99574712999993,0],[106.027122756,-5.99568868799997,0],[106.027176524,-5.99559713499997,0],[106.027592641,-5.99501424899995,0],[106.028318535,-5.99402722099995,0],[106.028697348,-5.99349338699994,0],[106.029100092,-5.99292609999998,0],[106.029398649,-5.99240248299998,0],[106.030818204,-5.99042431799995,0],[106.031374266,-5.98962822499993,0],[106.031559458,-5.98906776499996,0],[106.031650207,-5.98863747299993,0],[106.031740868,-5.98820915399995,0],[106.031848013,-5.98799411999994,0],[106.032034077,-5.98782630099993,0],[106.032221592,-5.98767635499996,0],[106.032325434,-5.98756793999996,0],[106.032456786,-5.98744000999994,0],[106.032500474,-5.98737554299993,0],[106.032518125,-5.98729742799998,0],[106.032569424,-5.98717076099996,0],[106.032573316,-5.98706856099994,0],[106.032566979,-5.98695615899993,0],[106.032556641,-5.98688872999998,0],[106.032525823,-5.98679068199993,0],[106.032460087,-5.98665278599998,0],[106.03239949,-5.98652718599993,0],[106.032465085,-5.98609705299998,0],[106.032476443,-5.98589948099993,0],[106.032489577,-5.98562553699998,0],[106.032566394,-5.98494338599994,0],[106.032637105,-5.98435002199994,0],[106.032771442,-5.98403824199994,0],[106.032169148,-5.98355558099996,0],[106.032501953,-5.98315949599993,0],[106.034119242,-5.98444846399997,0],[106.035619554,-5.98480177699997,0],[106.036485771,-5.98363971299995,0],[106.036745454,-5.98293380899997,0],[106.037671913,-5.98215728399992,0],[106.038387534,-5.98200433199997,0],[106.038690079,-5.98168332999995,0],[106.038723447,-5.98126457299998,0],[106.039161942,-5.98071697999995,0],[106.039581755,-5.98040057699995,0],[106.039709226,-5.98013641599994,0],[106.039793967,-5.97979019299993,0],[106.039857375,-5.97945255399998,0],[106.040180511,-5.97869452899994,0],[106.040354213,-5.97819122299995,0],[106.040564756,-5.97791027099993,0],[106.040805143,-5.97772320899998,0],[106.04098117,-5.97757019699998,0],[106.041208128,-5.97745441099994,0],[106.041396667,-5.97729882199997,0],[106.041425757,-5.97727481599998,0],[106.041631798,-5.97686642699995,0],[106.041843909,-5.97617715499996,0],[106.041973135,-5.97534337799993,0],[106.042155058,-5.97493891999994,0],[106.042174104,-5.97459040099994,0],[106.042160048,-5.97410386499996,0],[106.04219081,-5.97388557899995,0],[106.042196951,-5.97349291199993,0],[106.042173301,-5.97300516999996,0],[106.042163892,-5.97258298399993,0],[106.042071392,-5.97225269799998,0],[106.042011628,-5.97191090399997,0],[106.041932327,-5.97147708599994,0],[106.041855872,-5.97090137399994,0],[106.041729004,-5.97071002299998,0],[106.041489559,-5.97048197599997,0],[106.041130489,-5.97005280499997,0],[106.041050581,-5.96968709499993,0],[106.041190431,-5.96952524199997,0],[106.041408735,-5.96942352799994,0],[106.041519763,-5.96913364999995,0],[106.041643282,-5.96881602099995,0],[106.041737772,-5.96849702399993,0],[106.041925903,-5.96803435999993,0],[106.041904214,-5.96767015699993,0],[106.041966355,-5.96721473499997,0],[106.042143359,-5.96678469699998,0],[106.042370086,-5.96601418999995,0],[106.042403975,-5.96542573399995,0],[106.042039413,-5.96499758399995,0],[106.041749817,-5.96427899299994,0],[106.041714676,-5.96393084099998,0],[106.041440809,-5.96312084599998,0],[106.040996141,-5.96236941199993,0],[106.040611461,-5.96178049999997,0],[106.038880869,-5.96084924199994,0],[106.03793067,-5.95995252599994,0],[106.038075994,-5.95968594599998,0],[106.038128142,-5.95959028599998,0],[106.038698591,-5.95916114399995,0],[106.038971824,-5.95908294699996,0],[106.039241688,-5.95894021599997,0],[106.039596597,-5.95869598299993,0],[106.039995907,-5.95860631299996,0],[106.040242889,-5.95815037599994,0],[106.040410252,-5.95772375599995,0],[106.040611478,-5.95723955899996,0],[106.040924421,-5.95651531399994,0],[106.041016866,-5.95611462799997,0],[106.04094036,-5.95567377699996,0],[106.040981742,-5.95503762499993,0],[106.041200999,-5.95429645799993,0],[106.041519973,-5.95359071599995,0],[106.041970332,-5.95297542399993,0],[106.042324281,-5.95249631099995,0],[106.042887335,-5.95183046899996,0],[106.04318684,-5.95156171199994,0],[106.043558557,-5.95140489799996,0],[106.043883759,-5.95126320599996,0],[106.044058695,-5.95118698499994,0],[106.044460334,-5.95074561999996,0],[106.044722672,-5.95004715299996,0],[106.044829545,-5.94976260299995,0],[106.044924929,-5.94957587099998,0],[106.044928764,-5.94960332599993,0],[106.044933639,-5.94962394299995,0],[106.044938553,-5.94963590099997,0],[106.044945607,-5.94964671799994,0],[106.04495821,-5.94966040099996,0],[106.044968831,-5.94966816099998,0],[106.044973403,-5.94967079899993,0],[106.044975406,-5.94967146299996,0],[106.044977407,-5.94967212699993,0],[106.044984633,-5.94967188699997,0],[106.044994843,-5.94966944599997,0],[106.045005309,-5.94966575799998,0],[106.045010583,-5.94966190299994,0],[106.045028435,-5.94964609599998,0],[106.045037814,-5.94963902799998,0],[106.045048698,-5.94963337899998,0],[106.045060019,-5.94963016999998,0],[106.045075751,-5.94962846399994,0],[106.045089492,-5.94962914299992,0],[106.045103296,-5.94963360499997,0],[106.045120009,-5.94964133199994,0],[106.04512509,-5.94964254299992,0],[106.04513412,-5.94964101699998,0],[106.045160401,-5.94963296099996,0],[106.045188258,-5.94962510099998,0],[106.045199802,-5.94962557799994,0],[106.045213069,-5.94962738399994,0],[106.045225304,-5.94963327999994,0],[106.045251034,-5.94966162099996,0],[106.04530331,-5.94973788499993,0],[106.045322689,-5.94977406899994,0],[106.045361723,-5.94984236399995,0],[106.045384768,-5.94986951699997,0],[106.045410275,-5.94989069799993,0],[106.045440178,-5.94991065399995,0],[106.045471828,-5.94992728699998,0],[106.045505878,-5.94993641299993,0],[106.045618301,-5.94994088499993,0],[106.045707073,-5.94994558199994,0],[106.045742981,-5.94994383999995,0],[106.045781667,-5.94993800099996,0],[106.045816485,-5.94992904999998,0],[106.045847218,-5.94991771199994,0],[106.045868933,-5.94990916399996,0],[106.045903782,-5.94990144899998,0],[106.045942766,-5.94989908099996,0],[106.045969113,-5.94990000699994,0],[106.045984551,-5.94990335399996,0],[106.045997518,-5.94990807399995,0],[106.046007822,-5.94991367399996,0],[106.046016282,-5.94991894399993,0],[106.046022747,-5.94992101799994,0],[106.046031162,-5.94992100199994,0],[106.046055274,-5.94991838699997,0],[106.04610988,-5.94991662799993,0],[106.046194826,-5.94991646699998,0],[106.04626184,-5.94992287899993,0],[106.046352656,-5.94993243899995,0],[106.046449364,-5.94994031599992,0],[106.046524919,-5.94993719899998,0],[106.046587319,-5.94993708099997,0],[106.046637388,-5.94992863599992,0],[106.046663866,-5.94991975099992,0],[106.046681465,-5.94991685999997,0],[106.046718987,-5.94991678799994,0],[106.046772308,-5.94992533499993,0],[106.046826492,-5.94992950999995,0],[106.046901723,-5.94993804899997,0],[106.046962093,-5.94995374399997,0],[106.047046149,-5.94996783099998,0],[106.04714134,-5.94998346799997,0],[106.047160517,-5.94998640799997,0],[106.047195053,-5.94999610399998,0],[106.047218329,-5.95000581599993,0],[106.047262709,-5.95003009399994,0],[106.047305424,-5.95005166699997,0],[106.047351422,-5.95007487099997,0],[106.047422213,-5.95009871999997,0],[106.047464114,-5.95010549799997,0],[106.047480437,-5.95010698499993,0],[106.047515552,-5.95011439999996,0],[106.047543373,-5.95012378399997,0],[106.04759735,-5.95014479499997,0],[106.04761999,-5.95015289999998,0],[106.047652763,-5.95016783299997,0],[106.047684031,-5.95018537699997,0],[106.047700764,-5.95019160399994,0],[106.047742304,-5.95020007199997,0],[106.047784742,-5.95020799899993,0],[106.047802652,-5.95020994699996,0],[106.047851003,-5.95021149399997,0],[106.047890892,-5.95021386099995,0],[106.047908755,-5.95021623099996,0],[106.047939033,-5.95022250999995,0],[106.047950754,-5.95023291899997,0],[106.047958497,-5.95025600799994,0],[106.047966684,-5.95028557199993,0],[106.047973826,-5.95030199499996,0],[106.047984389,-5.95031921199995,0],[106.047996529,-5.95033208899997,0],[106.048014538,-5.95034464799994,0],[106.048016305,-5.95034587999993,0],[106.048018072,-5.95034711299996,0],[106.048088515,-5.95043188099993,0],[106.048151852,-5.95048898799996,0],[106.048180998,-5.95051000799998,0],[106.048253709,-5.95055124499993,0],[106.048280075,-5.95056828799994,0],[106.04832562,-5.95059772999997,0],[106.048358055,-5.95061289999995,0],[106.048439213,-5.95063810099998,0],[106.048509007,-5.95066047799997,0],[106.048561768,-5.95067160399998,0],[106.048634681,-5.95067931899996,0],[106.048715622,-5.95068268499995,0],[106.048768832,-5.95069098899995,0],[106.048942395,-5.95070021599997,0],[106.049233889,-5.95075132599993,0],[106.049373581,-5.95078752999996,0],[106.049534535,-5.95082673099995,0],[106.049731569,-5.95089207199993,0],[106.049817005,-5.95092040499998,0],[106.049911225,-5.95098709499996,0],[106.050062974,-5.95108303399996,0],[106.050361135,-5.95133877899997,0],[106.050680403,-5.95162993099996,0],[106.050777706,-5.95172091699993,0],[106.050859898,-5.95184233299995,0],[106.050912035,-5.95192550199994,0],[106.050920789,-5.95193946699993,0],[106.050932794,-5.95195841899994,0],[106.050993855,-5.95205482099993,0],[106.050945673,-5.95208174199996,0],[106.050857412,-5.95213105799996,0],[106.050734603,-5.95219966999997,0],[106.050689273,-5.95230460499994,0],[106.05068955,-5.95245048799995,0],[106.050758191,-5.95263270999993,0],[106.050820535,-5.95271831899993,0],[106.050846607,-5.95275412099994,0],[106.050887187,-5.95277207999993,0],[106.050967031,-5.95280386199994,0],[106.051029106,-5.95284047199993,0],[106.051108259,-5.95289306899997,0],[106.051344985,-5.95306799499997,0],[106.051481616,-5.95315092999994,0],[106.051612199,-5.95320913299997,0],[106.051850932,-5.95330992499993,0],[106.051998032,-5.95337880499994,0],[106.052133614,-5.95344758499994,0],[106.052158603,-5.95346418999998,0],[106.052190444,-5.95348534699997,0],[106.052252295,-5.95352938599996,0],[106.052316677,-5.95358854299997,0],[106.052380803,-5.95365373299995,0],[106.052420307,-5.95369820099995,0],[106.052446918,-5.95374210999995,0],[106.052452085,-5.95377674699995,0],[106.052459441,-5.95379140199998,0],[106.052472502,-5.95380163199997,0],[106.052507662,-5.95381694799994,0],[106.052533287,-5.95383397499995,0],[106.052544842,-5.95385316599993,0],[106.052575392,-5.95394543499998,0],[106.052581413,-5.95397314499996,0],[106.052581443,-5.95398878499998,0],[106.052665301,-5.95407818299998,0],[106.0526837,-5.95410384899998,0],[106.052956596,-5.95446794599997,0],[106.053266633,-5.95479702799997,0],[106.05339762,-5.95502042199996,0],[106.053443383,-5.95508311499998,0],[106.053463542,-5.95518295499994,0],[106.053466607,-5.95529424199998,0],[106.053472437,-5.95535986499993,0],[106.053503457,-5.95561553499994,0],[106.053514499,-5.95574157899995,0],[106.053561478,-5.95583153499996,0],[106.053644477,-5.95592862699993,0],[106.053745411,-5.95598966499995,0],[106.053842718,-5.95603630399995,0],[106.053994019,-5.95607563499993,0],[106.054094945,-5.95613307199994,0],[106.054199459,-5.95618329799993,0],[106.054329115,-5.95620105899997,0],[106.054388693,-5.95622032499995,0],[106.054457973,-5.95621419599996,0],[106.054498459,-5.95622223199996,0],[106.054538966,-5.95624105799993,0],[106.054557886,-5.95625722999995,0],[106.054570084,-5.95628692799994,0],[106.054597123,-5.95632064099993,0],[106.054632242,-5.95634219099998,0],[106.054678143,-5.95635695499993,0],[106.05473482,-5.95636630699994,0],[106.054768576,-5.95638379899998,0],[106.054805061,-5.95641074599996,0],[106.054875326,-5.95647273999998,0],[106.054919954,-5.95653074099994,0],[106.054947008,-5.95656715799993,0],[106.054980826,-5.95661707499994,0],[106.055009218,-5.95664538499994,0],[106.055017114,-5.95664914699995,0],[106.055028478,-5.95665455999995,0],[106.055040268,-5.95666017699995,0],[106.055072688,-5.95668240999993,0],[106.055124031,-5.95672283299996,0],[106.05518081,-5.95678080099998,0],[106.055205162,-5.95681722299997,0],[106.055224102,-5.95684825599994,0],[106.055241703,-5.95689004699994,0],[106.055248317,-5.95690575099997,0],[106.055270153,-5.95694136599997,0],[106.055347057,-5.95694628399997,0],[106.055417893,-5.95695222599994,0],[106.055492765,-5.95694803099997,0],[106.055514985,-5.95692772799993,0],[106.055545292,-5.95690335699993,0],[106.055575606,-5.95688303899993,0],[106.055616042,-5.95686472699992,0],[106.055666604,-5.95685044799995,0],[106.055725271,-5.95684223199993,0],[106.05576979,-5.95683809399998,0],[106.055794073,-5.95683804799995,0],[106.055824437,-5.95684406799995,0],[106.055877077,-5.95685814899997,0],[106.05590341,-5.95687228099996,0],[106.055947993,-5.95690663799996,0],[106.05597435,-5.95693292599998,0],[106.056008821,-5.95696528599996,0],[106.056043248,-5.95697940199994,0],[106.056099954,-5.95700360599994,0],[106.056144491,-5.95701365099995,0],[106.056191037,-5.95701558799993,0],[106.05623759,-5.95702157699998,0],[106.056269982,-5.95702961899997,0],[106.056320634,-5.95705788699996,0],[106.056355084,-5.95708415899998,0],[106.056343531,-5.95739214799994,0],[106.056326075,-5.95778726899994,0],[106.056326277,-5.95788128399994,0],[106.056326311,-5.95789685499994,0],[106.056478228,-5.95798958999995,0],[106.056721388,-5.95815931999994,0],[106.056864192,-5.95822995799995,0],[106.056903838,-5.95832713199997,0],[106.056916182,-5.95843348399995,0],[106.056913292,-5.95850946599995,0],[106.05692855,-5.95855198399994,0],[106.056964069,-5.95860763199994,0],[106.057016732,-5.95863387799994,0],[106.05710778,-5.95862762599995,0],[106.057221053,-5.95859903499996,0],[106.05733436,-5.95859273899993,0],[106.057490182,-5.95859243999996,0],[106.05759543,-5.95860439499995,0],[106.0577412,-5.95863856699998,0],[106.057822185,-5.95866069799996,0],[106.057891362,-5.95870170099994,0],[106.057892447,-5.95877285399996,0],[106.057898692,-5.95886401399997,0],[106.057935448,-5.95903716999993,0],[106.057963004,-5.95916172699998,0],[106.057996672,-5.95930753699997,0],[106.058061186,-5.95948847599993,0],[106.058064245,-5.95958168299995,0],[106.058067239,-5.95971082599993,0],[106.05808673,-5.95984818099993,0],[106.058185904,-5.95999637499995,0],[106.058317674,-5.96022308799996,0],[106.058428705,-5.96034122899994,0],[106.058573032,-5.96036297999996,0],[106.058694246,-5.96066648599998,0],[106.058735167,-5.96082465499995,0],[106.058760364,-5.96092204599995,0],[106.05877254,-5.96094679399994,0],[106.058843586,-5.96109119299996,0],[106.058857582,-5.96118445699994,0],[106.058926905,-5.96150487099993,0],[106.059028273,-5.96165787099994,0],[106.05909656,-5.96183869099997,0],[106.059143389,-5.96206676599996,0],[106.059178456,-5.96220978599996,0],[106.059251236,-5.96236821099995,0],[106.059327259,-5.96268355399997,0],[106.059310605,-5.96293734899996,0],[106.059279963,-5.96304714299993,0],[106.059273161,-5.96327843199998,0],[106.059291738,-5.96345476499994,0],[106.059271169,-5.96369440699993,0],[106.059301052,-5.96381568899994,0],[106.059355165,-5.96392074599993,0],[106.059336514,-5.96403403299996,0],[106.059310639,-5.96424510699995,0],[106.059321276,-5.96446971199993,0],[106.059306146,-5.96462526899995,0],[106.059289743,-5.96502910199996,0],[106.059360148,-5.96578815999993,0],[106.059432749,-5.96591753499996,0],[106.059455897,-5.96607366799998,0],[106.059437142,-5.96622226399995,0],[106.05936501,-5.96633667999993,0],[106.059330884,-5.96641292999993,0],[106.059257144,-5.96656264099994,0],[106.059132628,-5.96678243799994,0],[106.058749382,-5.96752460199997,0],[106.05861528,-5.96759349099995,0],[106.0585469,-5.96771297999993,0],[106.058520346,-5.96786521199994,0],[106.058511677,-5.96801144199998,0],[106.058531267,-5.96812689099994,0],[106.05854993,-5.96820358899993,0],[106.058605823,-5.96838340899996,0],[106.058587546,-5.96850780599993,0],[106.058579983,-5.96900434899993,0],[106.058452318,-5.96945118399998,0],[106.058390518,-5.96976203799994,0],[106.05831372,-5.96985399199997,0],[106.05821317,-5.96991045299995,0],[106.058118467,-5.96992840399997,0],[106.058014934,-5.96997302599993,0],[106.05793513,-5.97004129399994,0],[106.057852371,-5.97011252799996,0],[106.057805133,-5.97018073299995,0],[106.057740961,-5.97037809699998,0],[106.057659168,-5.97059505599998,0],[106.057505925,-5.97096053999996,0],[106.057456495,-5.97110316499993,0],[106.0574054,-5.97120334299996,0],[106.057078718,-5.97184383999996,0],[106.056988102,-5.97207651099995,0],[106.05695193,-5.97220877899997,0],[106.05694306,-5.97233188699994,0],[106.056948396,-5.97239598699997,0],[106.056969788,-5.97246673899997,0],[106.05704748,-5.97261247399996,0],[106.057138673,-5.97268067699997,0],[106.057229822,-5.97272608799994,0],[106.057330095,-5.97277603999993,0],[106.057562937,-5.97290817999993,0],[106.057815118,-5.97302925699995,0],[106.05794112,-5.97307911299993,0],[106.058238717,-5.97404785999993,0],[106.058465783,-5.97482547799996,0],[106.058481672,-5.97487989199993,0],[106.058533743,-5.97505821599998,0],[106.058762098,-5.97582503299998,0],[106.058908209,-5.97631567199994,0],[106.058892164,-5.97642683799995,0],[106.058852475,-5.97670181799998,0],[106.058928102,-5.97687115199994,0],[106.059013124,-5.97703105299996,0],[106.059145535,-5.97736034299993,0],[106.059221597,-5.97775564999995,0],[106.059302795,-5.97811088099996,0],[106.059656137,-5.97817820999995,0],[106.059690735,-5.97818480299998,0],[106.059688894,-5.97823732099994,0],[106.059686419,-5.97830789299996,0],[106.059668487,-5.97845381099995,0],[106.059628149,-5.97878667399993,0],[106.059733407,-5.97906455399993,0],[106.059738653,-5.97942467999997,0],[106.059679462,-5.97942479499994,0],[106.059692303,-5.97952990699997,0],[106.059734696,-5.97973468099997,0],[106.059757219,-5.97987140399994,0],[106.059745124,-5.97989573899997,0],[106.059728982,-5.97992008299997,0],[106.059741307,-5.98001528299994,0],[106.059702925,-5.98004979999996,0],[106.059736699,-5.98007135199992,0],[106.059775887,-5.98010774499994,0],[106.059804298,-5.98014955799994,0],[106.059816547,-5.98020491599993,0],[106.059812562,-5.98023733999997,0],[106.059659097,-5.98040917999998,0],[106.059576958,-5.98049308399993,0],[106.059489493,-5.98061211999993,0],[106.059225075,-5.98091468699994,0],[106.059225034,-5.98091473399995,0],[106.059223811,-5.98091613399993,0],[106.059231983,-5.98092524799995,0],[106.059238255,-5.98093224199994,0],[106.059243065,-5.98093760699993,0],[106.059248137,-5.98094326299997,0],[106.059295335,-5.98096396999995,0],[106.05933377,-5.98099989299993,0],[106.059554385,-5.98122990599995,0],[106.059957288,-5.98164997299995,0],[106.060252572,-5.98202153199998,0],[106.060334902,-5.98214461099997,0],[106.060339077,-5.98218626699997,0],[106.060349672,-5.98229198399997,0],[106.060441586,-5.98237638099994,0],[106.060644632,-5.98258186099997,0],[106.06062019,-5.98291205599998,0],[106.060768753,-5.98292142299994,0],[106.061023616,-5.98303291099995,0],[106.061010341,-5.98327828399994,0],[106.061164178,-5.98339121299995,0],[106.061309732,-5.98350314599998,0],[106.061534,-5.98348819199992,0],[106.061527448,-5.98353069399997,0],[106.061507818,-5.98367147899995,0],[106.061501497,-5.98383348399994,0],[106.061518893,-5.98391046299997,0],[106.061877284,-5.98399740499997,0],[106.06199783,-5.98407107899993,0],[106.062364367,-5.98459240599993,0],[106.062833623,-5.98475183499994,0],[106.063106919,-5.98481839499993,0],[106.063157251,-5.98483065299996,0],[106.063220675,-5.98486991299995,0],[106.063207741,-5.98501412299993,0],[106.063212216,-5.98525854299993,0],[106.063213086,-5.98530607199996,0],[106.063342337,-5.98539675999996,0],[106.063438272,-5.98556409099996,0],[106.063608014,-5.98573229699997,0],[106.06376123,-5.98585961699996,0],[106.06384704,-5.98568769299993,0],[106.063902014,-5.98557755099995,0],[106.064112683,-5.98574465999997,0],[106.064184475,-5.98578759599997,0],[106.064251088,-5.98562473599998,0],[106.064442477,-5.98571051699997,0],[106.064534006,-5.98545873999996,0],[106.064644144,-5.98549165899993,0],[106.064719394,-5.98551415099996,0],[106.064772925,-5.98553015099998,0],[106.064823413,-5.98554524199994,0],[106.065218335,-5.98567850199993,0],[106.066041012,-5.98608274799994,0],[106.066121753,-5.98609407699996,0],[106.066217664,-5.98608566499996,0],[106.066313654,-5.98611837799996,0],[106.066391877,-5.98617579799998,0],[106.066472798,-5.98621128099995,0],[106.067156007,-5.98644195899993,0],[106.067553953,-5.98655355199998,0],[106.067654369,-5.98692803299997,0],[106.067712277,-5.98712648699995,0],[106.067924719,-5.98785452899995,0],[106.067940981,-5.98791911499995,0],[106.068125845,-5.98865333499998,0],[106.068133391,-5.98868330499994,0],[106.068123918,-5.98889914299997,0],[106.068098333,-5.98896849299996,0],[106.068081121,-5.98901448699996,0],[106.068070823,-5.98906556599997,0],[106.068043229,-5.98911907999997,0],[106.068035515,-5.98922205499997,0],[106.067637057,-5.98948598799996,0],[106.067173043,-5.99012296499996,0],[106.066919713,-5.99043163099998,0],[106.066859375,-5.99050714399993,0],[106.066728307,-5.99064934799998,0],[106.066723513,-5.99071334899998,0],[106.06670806,-5.99081769399993,0],[106.066702594,-5.99091684999996,0],[106.066696119,-5.99095952399995,0],[106.066648595,-5.99097110199995,0],[106.066594436,-5.99094331399994,0],[106.066418877,-5.99087638199995,0],[106.066320445,-5.99084539799998,0],[106.066281506,-5.99089355099994,0],[106.066230322,-5.99095123999996,0],[106.06617077,-5.99099512399994,0],[106.06599863,-5.99122727399993,0],[106.065953492,-5.99128814699998,0],[106.065910252,-5.99140182399998,0],[106.065881153,-5.99150327399997,0],[106.065850148,-5.99157481999993,0],[106.06577143,-5.99165904599994,0],[106.065843092,-5.99170930599996,0],[106.065628928,-5.99198161299995,0],[106.065570815,-5.99208384999997,0],[106.065467037,-5.99231009699997,0],[106.065383496,-5.99243319199996,0],[106.065314442,-5.99253696499994,0],[106.06527981,-5.99260206499997,0],[106.06524671,-5.99267774899994,0],[106.064743433,-5.99269281699998,0],[106.064694404,-5.99273575199993,0],[106.064649294,-5.99274380299994,0],[106.064617574,-5.99281288499998,0],[106.064564587,-5.99286607999994,0],[106.064495683,-5.99292461499994,0],[106.064298767,-5.99307285699996,0],[106.064381619,-5.99311460699994,0],[106.06449591,-5.99319136799994,0],[106.064318452,-5.99313070699998,0],[106.06427295,-5.99307266399995,0],[106.06421112,-5.99302010199995,0],[106.064056333,-5.99295784399993,0],[106.063984786,-5.99291646199993,0],[106.063957011,-5.99285884699998,0],[106.063984572,-5.99280573799996,0],[106.063998283,-5.99274342999996,0],[106.063999689,-5.99273489099994,0],[106.064011954,-5.99266035999995,0],[106.064009551,-5.99260961599992,0],[106.063967867,-5.99251281299996,0],[106.063958507,-5.99244132199993,0],[106.06398996,-5.99231638899994,0],[106.063983901,-5.99221095299993,0],[106.063928066,-5.99209975499997,0],[106.063813764,-5.99202967899993,0],[106.063713341,-5.99200265199994,0],[106.063619649,-5.99199404599995,0],[106.063525965,-5.99198836899996,0],[106.06345863,-5.99198557099993,0],[106.06338248,-5.99196521499994,0],[106.063318079,-5.99196533999998,0],[106.063250722,-5.99195082599994,0],[106.063189124,-5.99188650499997,0],[106.063112889,-5.99182221299998,0],[106.063019153,-5.99179017399996,0],[106.062951847,-5.99180202099996,0],[106.062869881,-5.99180217999998,0],[106.062773196,-5.99175843099994,0],[106.062705782,-5.99171462499993,0],[106.06263257,-5.99170012099995,0],[106.062576952,-5.99170022899995,0],[106.062301402,-5.99164008699995,0],[106.062119251,-5.99158189699995,0],[106.062065779,-5.99157967399998,0],[106.061975072,-5.99155658899997,0],[106.061916897,-5.99152646199997,0],[106.061844733,-5.99147542899993,0],[106.061784215,-5.99143600199994,0],[106.061705064,-5.99137800399996,0],[106.061632932,-5.99134325199998,0],[106.061549207,-5.99132480499998,0],[106.061479381,-5.99128074399994,0],[106.061402559,-5.99122506699996,0],[106.061224492,-5.99111418099994,0],[106.061144664,-5.99111550999993,0],[106.061057959,-5.99120377999998,0],[106.060945546,-5.99135435999995,0],[106.060913874,-5.99143405699994,0],[106.060885659,-5.99149079399996,0],[106.060839498,-5.99151773299997,0],[106.060481123,-5.99138733499996,0],[106.060349519,-5.99183629499993,0],[106.060073655,-5.99161271599996,0],[106.059753942,-5.99138477399993,0],[106.059722026,-5.99145403899996,0],[106.059641094,-5.99155728099993,0],[106.059590573,-5.99160126299995,0],[106.059553557,-5.99165028299996,0],[106.059548617,-5.99171274399993,0],[106.05954401,-5.99186655199998,0],[106.059531361,-5.99197159499994,0],[106.059499343,-5.99202952599995,0],[106.059445914,-5.99209178299998,0],[106.059373191,-5.99214550499994,0],[106.059160016,-5.99223208299998,0],[106.05908864,-5.99226626199993,0],[106.059007031,-5.99228684399998,0],[106.058916925,-5.99231084699994,0],[106.058871044,-5.99233476399996,0],[106.058831987,-5.99236887899997,0],[106.058799057,-5.99242251299995,0],[106.058792368,-5.99248209699994,0],[106.05878736,-5.99253146599995,0],[106.058748309,-5.99256898599998,0],[106.05870584,-5.99259800299996,0],[106.05868549,-5.99263037999998,0],[106.058685622,-5.99269846099997,0],[106.058678956,-5.99276995899993,0],[106.05864504,-5.99282448999998,0],[106.058587276,-5.99286034399995,0],[106.058529471,-5.99287577399997,0],[106.058475013,-5.99286226199996,0],[106.058405282,-5.99286750299996,0],[106.058342223,-5.99294525299996,0],[106.058200056,-5.99314652099997,0],[106.058094272,-5.99326895899998,0],[106.058059897,-5.99336411899998,0],[106.057982452,-5.99352636099997,0],[106.057997717,-5.99360197499993,0],[106.057961306,-5.99376197499993,0],[106.057927045,-5.99392313799996,0],[106.057905638,-5.99402259599998,0],[106.057899357,-5.99412634599997,0],[106.057884396,-5.99420850199994,0],[106.05785643,-5.99426690899998,0],[106.057804616,-5.99427997599997,0],[106.057737658,-5.99428010499997,0],[106.05745308,-5.99418702699995,0],[106.057150441,-5.99405793699998,0],[106.056834827,-5.99392022799998,0],[106.056559325,-5.99380578699993,0],[106.056252292,-5.99363780299996,0],[106.056183142,-5.99362064699994,0],[106.056133675,-5.99373096499994,0],[106.056084043,-5.99375483399996,0],[106.056018655,-5.99378727199996,0],[106.055955146,-5.99380695899993,0],[106.055886782,-5.99384377299998,0],[106.055869791,-5.99390494599993,0],[106.055867506,-5.99398809899998,0],[106.055838262,-5.99403217499997,0],[106.05575513,-5.99401521599998,0],[106.055686696,-5.99401534799995,0],[106.055632528,-5.99410441899994,0],[106.055588624,-5.99415096999996,0],[106.055530018,-5.99417798399998,0],[106.055442105,-5.99421728199997,0],[106.055356684,-5.99428103099996,0],[106.055109314,-5.99461487199994,0],[106.054948974,-5.99454200199995,0],[106.054388696,-5.99475885699997,0],[106.054289357,-5.99480947799998,0],[106.054215876,-5.99484914499993,0],[106.054134218,-5.99488610299994,0],[106.054055274,-5.99491760299998,0],[106.053965399,-5.99493140499993,0],[106.053906027,-5.99498385099997,0],[106.053663817,-5.99495316499997,0],[106.05363926,-5.99510079199996,0],[106.053896382,-5.99529273999997,0],[106.054147991,-5.99545152499996,0],[106.054512549,-5.99572107899996,0],[106.054899123,-5.99598143599997,0],[106.055350295,-5.99632594299993,0],[106.0553113,-5.99640435399994,0],[106.055407948,-5.99652461599993,0],[106.055522531,-5.99664996799993,0],[106.055637185,-5.99681159599993,0],[106.05569348,-5.99704962499993,0],[106.055738429,-5.99721975899996,0],[106.055800191,-5.99743171899996,0],[106.055946248,-5.99770339499997,0],[106.056052487,-5.99783992499994,0],[106.056130773,-5.99794302299995,0],[106.056259409,-5.99812415799994,0],[106.056464235,-5.99827272699997,0],[106.056615074,-5.99839800899997,0],[106.056704489,-5.99848713199998,0],[106.056810713,-5.99861529099996,0],[106.056886114,-5.99866816499997,0],[106.056989366,-5.99870145099993,0],[106.05706754,-5.99874594799996,0],[106.057173448,-5.99885868899997,0],[106.057208412,-5.99890050599993,0],[106.057286136,-5.99897352199997,0],[106.057470671,-5.99917730899995,0],[106.057559655,-5.99926600299995,0],[106.057613033,-5.99931329499998,0],[106.057650589,-5.99934284399995,0],[106.057705859,-5.99934668699996,0],[106.057757203,-5.99936238599997,0],[106.057798729,-5.99940377699994,0],[106.057840278,-5.99945701599995,0],[106.057897646,-5.99952602199994,0],[106.058010982,-5.99966692099997,0],[106.058062448,-5.99974581399994,0],[106.058094121,-5.99979512299996,0],[106.058131753,-5.99986416799993,0],[106.058161449,-5.99991150499994,0],[106.058208881,-5.99994498499996,0],[106.058260263,-5.99998043099993,0],[106.058299824,-6.00002577399994,0],[106.058398696,-6.00024303299995,0],[106.058443492,-6.00030998599993,0],[106.058567399,-6.00056336199998,0],[106.058643707,-6.00075762499995,0],[106.058688492,-6.00082010699998,0],[106.0587466,-6.00084234099995,0],[106.058818148,-6.00088465899995,0],[106.058856186,-6.00092257399996,0],[106.058880817,-6.00095604599994,0],[106.058915945,-6.00108832699993,0],[106.058946112,-6.00125155899997,0],[106.058964576,-6.00142802799996,0],[106.058978382,-6.00148778099998,0],[106.059005856,-6.00153505199995,0],[106.05905571,-6.00156982599998,0],[106.059113022,-6.00159960499997,0],[106.059145419,-6.00161822299998,0],[106.059164132,-6.00164060399993,0],[106.059171139,-6.00179231399994,0],[106.05913833,-6.00197976099997,0],[106.059135263,-6.00202878999994,0],[106.059119535,-6.00206835499995,0],[106.059113311,-6.00211897199995,0],[106.059115132,-6.00224389799996,0],[106.05917997,-6.00226432999995,0],[106.059093795,-6.00269946799995,0],[106.058364094,-6.00258426199997,0],[106.057785986,-6.00248416199997,0],[106.057484391,-6.00245032199996,0],[106.057423735,-6.00247878699997,0],[106.057347034,-6.00258220399996,0],[106.057181343,-6.00274692499994,0],[106.056916054,-6.00299794399996,0],[106.056749028,-6.00315753099994,0],[106.056638683,-6.00329753999995,0],[106.056455635,-6.00361437899994,0],[106.056239662,-6.00394261599996,0],[106.056083099,-6.00423694299997,0],[106.055991446,-6.00432900299995,0],[106.055826241,-6.00441346899993,0],[106.055500792,-6.00452756499993,0],[106.055274184,-6.00462983299997,0],[106.055172547,-6.00469985499996,0],[106.054999848,-6.00486978599997,0],[106.054758813,-6.00503026999996,0],[106.054619337,-6.00507999899997,0],[106.054514657,-6.00508020099994,0],[106.054401284,-6.00509496699993,0],[106.054214665,-6.00518045799993,0],[106.05413044,-6.00523298999997,0],[106.054127628,-6.00528245699996,0],[106.054148111,-6.00534933399996,0],[106.05413662,-6.00542209199995,0],[106.054087306,-6.00548328599996,0],[106.054043779,-6.00552991999996,0],[106.054046815,-6.00559683199998,0],[106.054090515,-6.00564038999994,0],[106.054221543,-6.00573323899994,0],[106.054451504,-6.00591318199997,0],[106.054495917,-6.00596851199998,0],[106.054484955,-6.00602764399997,0],[106.054422271,-6.00607209799995,0],[106.054315331,-6.00614249699993,0],[106.054248971,-6.00619434599997,0],[106.054201057,-6.00623877099997,0],[106.054142066,-6.00628321699998,0],[106.054068292,-6.00632030399993,0],[106.053987127,-6.00635370899994,0],[106.053898598,-6.00639821299995,0],[106.053747774,-6.00649988299995,0],[106.053662336,-6.00650004799996,0],[106.053586196,-6.00653254099996,0],[106.053556257,-6.00657418799995,0],[106.053514741,-6.00659968299993,0],[106.053406212,-6.00659989199994,0],[106.053126252,-6.00661657899997,0],[106.052920712,-6.00660311099995,0],[106.052703702,-6.00662894499993,0],[106.052432046,-6.00657747999998,0],[106.05234693,-6.00655688099994,0],[106.052259767,-6.00655082099996,0],[106.052187206,-6.00658417999995,0],[106.052131288,-6.00664034499994,0],[106.051968005,-6.00681040499995,0],[106.051879126,-6.00686498699997,0],[106.051824855,-6.00692114899994,0],[106.051764048,-6.00700700399995,0],[106.051680318,-6.00717793699994,0],[106.051650322,-6.00723825299997,0],[106.051586907,-6.00731871899995,0],[106.051493381,-6.00739924299995,0],[106.051275633,-6.00755752099997,0],[106.051215002,-6.00758276099998,0],[106.051162759,-6.00761845299996,0],[106.051103842,-6.00769667199995,0],[106.051062107,-6.00775537399994,0],[106.051035038,-6.00782451599997,0],[106.051005861,-6.00788528799995,0],[106.050959924,-6.00793562299998,0],[106.050934927,-6.00799429299997,0],[106.050901537,-6.00804041699996,0],[106.050871839,-6.00812449799997,0],[106.050863521,-6.00821803199995,0],[106.050795596,-6.00824366799998,0],[106.050740441,-6.00828203199995,0],[106.050719361,-6.00836708799994,0],[106.050677024,-6.00844368499997,0],[106.050596427,-6.00850760199995,0],[106.050474183,-6.00857579199993,0],[106.050386457,-6.00855203399993,0],[106.050156421,-6.00844007299997,0],[106.049898472,-6.00832359599997,0],[106.050126754,-6.00806934399998,0],[106.050208691,-6.00784587399994,0],[106.050250952,-6.00771552699996,0],[106.050237575,-6.00766770099995,0],[106.050163084,-6.00761733199994,0],[106.050066852,-6.00741497099995,0],[106.049750675,-6.00741557899994,0],[106.049750868,-6.00751659999997,0],[106.049479664,-6.00760514999996,0],[106.049500988,-6.00772283399994,0],[106.049424039,-6.00777615199996,0],[106.049403298,-6.00804469799994,0],[106.04939826,-6.00826858399995,0],[106.048975441,-6.00835214899996,0],[106.048970259,-6.00842127799996,0],[106.048723316,-6.00850150599996,0],[106.048609107,-6.00852299399997,0],[106.048617327,-6.00865324299997,0],[106.048220025,-6.00878693399994,0],[106.047992197,-6.00881270499997,0],[106.047880333,-6.00879391899997,0],[106.047696663,-6.00874149099997,0],[106.047527809,-6.00871225799995,0],[106.047320756,-6.00866462299996,0],[106.047290843,-6.00875498499994,0],[106.047220349,-6.00877176099993,0],[106.047118818,-6.00877383699998,0],[106.047030426,-6.00876459899996,0],[106.046968291,-6.00871956599997,0],[106.046924904,-6.00864627499993,0],[106.046921025,-6.00858419799994,0],[106.046935938,-6.00851643999994,0],[106.047037052,-6.00829612799993,0],[106.047172616,-6.00810450099993,0],[106.047236329,-6.00799149799997,0],[106.047300032,-6.00787284999996,0],[106.047365662,-6.00777865599997,0],[106.047405072,-6.00773907199994,0],[106.047467039,-6.00769568199996,0],[106.047470698,-6.00764299699995,0],[106.04746683,-6.00758656299996,0],[106.047442293,-6.00753769499994,0],[106.047393284,-6.00747382199995,0],[106.047354198,-6.00742153099998,0],[106.047312325,-6.00738874199993,0],[106.047261454,-6.00733505399995,0],[106.047218047,-6.00727985699996,0],[106.047171666,-6.00723213599997,0],[106.046958338,-6.00714593099997,0],[106.047088776,-6.00687002499996,0],[106.046980589,-6.00681142099995,0],[106.047027752,-6.00668611999993,0],[106.046970824,-6.00666156599993,0],[106.046845362,-6.00663374999993,0],[106.046717197,-6.00663656899997,0],[106.046625993,-6.00665688199996,0],[106.046562946,-6.00666640099996,0],[106.046493125,-6.00664102499996,0],[106.046416751,-6.00664905699995,0],[106.046250713,-6.00672570099994,0],[106.046185762,-6.00662786199996,0],[106.046131086,-6.00661885199997,0],[106.046064308,-6.00663417199996,0],[106.045927953,-6.00671317299998,0],[106.045872036,-6.00670942099993,0],[106.045753828,-6.00654179199995,0],[106.045669089,-6.00659018099998,0],[106.045561326,-6.00669648599995,0],[106.045325092,-6.00641523199994,0],[106.045194856,-6.00657009199995,0],[106.044856296,-6.00698809399995,0],[106.04452093,-6.00754985499998,0],[106.044243817,-6.00807387999993,0],[106.044358639,-6.00813590799993,0],[106.044721201,-6.00827008099998,0]]]]}}]}