{"type":"FeatureCollection","name":"Kecamatan Cibeber","crs":{"type":"name","properties":{"name":"urn:ogc:def:crs:OGC:1.3:CRS84"}},"features":[{"type":"Feature","properties":{"kode_kec":"36.72.01","kode_kk":"36.72","kode_prov":"36","kecamatan":"Cibeber","kab_kota":"Kota Cilegon","provinsi":"Banten","fid":"36.72.01","nama":"Kecamatan Cibeber","label":"Kecamatan Cibeber, Kota Cilegon, Provinsi Banten, 36.72.01"},"geometry":{"type":"MultiPolygon","coordinates":[[[[106.053242836,-6.06122902399994,0],[106.053222221,-6.06138458999993,0],[106.053239779,-6.06144950899994,0],[106.053239788,-6.06144954299998,0],[106.05323995,-6.06145014199996,0],[106.053240002,-6.06145033399997,0],[106.05324001,-6.06145036199996,0],[106.053240371,-6.06145169799993,0],[106.053247808,-6.06147919699993,0],[106.053287391,-6.06162555199995,0],[106.053383078,-6.06192921199994,0],[106.053387379,-6.06194285999993,0],[106.053439549,-6.06210842199994,0],[106.053520677,-6.06236587699993,0],[106.053527523,-6.06238760599996,0],[106.053537,-6.06241899999998,0],[106.053528243,-6.06265018399995,0],[106.053527,-6.06268299999994,0],[106.053492108,-6.06277634599996,0],[106.05345,-6.06288899899994,0],[106.053445286,-6.06290183999994,0],[106.053435524,-6.06292790699996,0],[106.053420638,-6.06296765899998,0],[106.053393746,-6.06301803799994,0],[106.053317251,-6.06316134299993,0],[106.053254082,-6.06327968299996,0],[106.053254063,-6.06327971799993,0],[106.053254027,-6.06327978599995,0],[106.053145484,-6.06348246599993,0],[106.053097,-6.06357299999996,0],[106.053024,-6.06374399999993,0],[106.052970691,-6.06386792099994,0],[106.05291,-6.06400900099993,0],[106.052906,-6.06401899999997,0],[106.052757525,-6.06437626899998,0],[106.052266001,-6.06555900099994,0],[106.052195792,-6.06572823099998,0],[106.05211639,-6.06591961799995,0],[106.052116077,-6.06592037099995,0],[106.052054,-6.06606999999997,0],[106.05203671,-6.06619479099993,0],[106.052027666,-6.06626006199997,0],[106.052014401,-6.06635580099993,0],[106.052008,-6.06640200099997,0],[106.052012535,-6.06650932499997,0],[106.052012609,-6.06651108199998,0],[106.052012612,-6.06651116099994,0],[106.052018218,-6.06664383299994,0],[106.052031648,-6.06696968699993,0],[106.052084171,-6.06720357099994,0],[106.052097708,-6.06726384899997,0],[106.052103514,-6.06728704599993,0],[106.052141977,-6.06744071799994,0],[106.052153899,-6.06748862299997,0],[106.052180415,-6.06759517099994,0],[106.052180775,-6.06759661599995,0],[106.052207001,-6.06770199999994,0],[106.052252385,-6.06788353899998,0],[106.052282768,-6.06800507299994,0],[106.052287089,-6.06802235699996,0],[106.052298,-6.06806599999993,0],[106.052298517,-6.06806806699996,0],[106.052298587,-6.06807000099997,0],[106.05230851,-6.06835102799994,0],[106.052313549,-6.06849375699994,0],[106.052261609,-6.06872389099993,0],[106.052219436,-6.06891074899994,0],[106.052201355,-6.06899086299995,0],[106.052191802,-6.06903318999997,0],[106.052182649,-6.06907374299993,0],[106.052182641,-6.06907377899995,0],[106.052182633,-6.06907381499997,0],[106.052164,-6.06915500099996,0],[106.052103481,-6.06932506499993,0],[106.052084829,-6.06937715499993,0],[106.051988224,-6.06964695599993,0],[106.051980824,-6.06966762299993,0],[106.051960721,-6.06969979799993,0],[106.051794681,-6.06996554899996,0],[106.051681707,-6.07008423099995,0],[106.051503262,-6.07027168999997,0],[106.051430647,-6.07034797399996,0],[106.051423911,-6.07035504999993,0],[106.051393409,-6.07038709599993,0],[106.05135718,-6.07042477499994,0],[106.051331001,-6.07045200099998,0],[106.051237127,-6.07063820899998,0],[106.051208862,-6.07069396199995,0],[106.05111999,-6.07101516699993,0],[106.051118542,-6.07102040099994,0],[106.051107301,-6.07110909599993,0],[106.051106001,-6.07111900099994,0],[106.051048,-6.07157400099993,0],[106.051035477,-6.07164568499996,0],[106.05096216,-6.07206536699994,0],[106.050961001,-6.07207200099998,0],[106.05092417,-6.07221220899993,0],[106.050904058,-6.07228877299997,0],[106.050904018,-6.07228892399996,0],[106.050903998,-6.07228899999996,0],[106.05081,-6.07264199999997,0],[106.050753754,-6.07285604999993,0],[106.050744898,-6.07288975099993,0],[106.050701738,-6.07305271799993,0],[106.05064578,-6.07326401699993,0],[106.050645697,-6.07326432999997,0],[106.050629,-6.07332700099994,0],[106.050599847,-6.07343824199995,0],[106.050567592,-6.07356090099995,0],[106.050552832,-6.07361703199996,0],[106.050540033,-6.07366164699994,0],[106.050452735,-6.07396599699996,0],[106.050327001,-6.07440400099995,0],[106.05022283,-6.07476689899994,0],[106.050143,-6.07504499999993,0],[106.05005,-6.07521000099996,0],[106.049892001,-6.07549100099993,0],[106.049741999,-6.07562199999995,0],[106.049395204,-6.07580991999993,0],[106.04933646,-6.07584167399995,0],[106.049033597,-6.07604666199995,0],[106.0489921,-6.07607474799994,0],[106.048970001,-6.07608970599995,0],[106.04882459,-6.07617781099998,0],[106.048816131,-6.07618291899996,0],[106.048609,-6.07630800099997,0],[106.048338633,-6.07643203499993,0],[106.048181475,-6.07650413299996,0],[106.048181288,-6.07650421899996,0],[106.047946008,-6.07661215699994,0],[106.047945105,-6.07661257099994,0],[106.047848304,-6.07665691799997,0],[106.047832777,-6.07666403099995,0],[106.047827772,-6.07666632399997,0],[106.047806,-6.07667599999996,0],[106.047560667,-6.07669193699996,0],[106.04735255,-6.07670517399993,0],[106.047297986,-6.07670864499994,0],[106.04726292,-6.07671203999996,0],[106.047262225,-6.07671210699993,0],[106.047167727,-6.07672125599993,0],[106.047040704,-6.07673320599997,0],[106.047011,-6.07673599999993,0],[106.04698579,-6.07673861599994,0],[106.046948293,-6.07674250699995,0],[106.046904853,-6.07674671699993,0],[106.046831005,-6.07675386699998,0],[106.046801287,-6.07675674399997,0],[106.046615141,-6.07677476499993,0],[106.04657906,-6.07678417599993,0],[106.046578971,-6.07678419899997,0],[106.04657598,-6.07678496199998,0],[106.046575852,-6.07678499499997,0],[106.046568,-6.07678699999997,0],[106.046535522,-6.07679549799997,0],[106.046488337,-6.07680784499996,0],[106.046222942,-6.07687708399993,0],[106.04621169,-6.07688001999998,0],[106.046182133,-6.07688773099994,0],[106.046141226,-6.07689688599993,0],[106.046092852,-6.07690771199998,0],[106.046057062,-6.07691572199997,0],[106.046052372,-6.07691677199995,0],[106.04602314,-6.07692331399994,0],[106.045973681,-6.07693438299998,0],[106.04592644,-6.07694495599998,0],[106.045888218,-6.07695350999995,0],[106.045852536,-6.07696149599997,0],[106.045805687,-6.07698558999994,0],[106.045758706,-6.07700975299997,0],[106.045707353,-6.07703616399994,0],[106.04565862,-6.07706122799993,0],[106.045618867,-6.07708167299995,0],[106.045572342,-6.07710560099997,0],[106.045518921,-6.07713307599994,0],[106.045518891,-6.07713309199994,0],[106.045518862,-6.07713310699995,0],[106.045501399,-6.07714941399996,0],[106.045454629,-6.07719308699996,0],[106.045428651,-6.07721734599994,0],[106.045391801,-6.07725175699994,0],[106.045353487,-6.07728753399994,0],[106.045322182,-6.07731676699996,0],[106.04530096,-6.07733658399997,0],[106.045267325,-6.07737599099994,0],[106.045246249,-6.07740068299995,0],[106.04522922,-6.07742063499995,0],[106.045222047,-6.07742903799993,0],[106.045192082,-6.07746414599995,0],[106.045190697,-6.07746576899996,0],[106.045168497,-6.07749177899996,0],[106.04513747,-6.07752812999996,0],[106.045113287,-6.07755646199996,0],[106.045089544,-6.07758427999994,0],[106.045083204,-6.07759170699995,0],[106.045042438,-6.07763382499996,0],[106.045011147,-6.07766615499997,0],[106.044992432,-6.07768549099995,0],[106.044980977,-6.07769731499997,0],[106.044956211,-6.07772287999995,0],[106.044926929,-6.07775310599993,0],[106.044897,-6.07778399999995,0],[106.044867005,-6.07780772299998,0],[106.044823026,-6.07784250699996,0],[106.044804573,-6.07785710099995,0],[106.044457,-6.07813199999993,0],[106.044414265,-6.07816502199995,0],[106.04441423,-6.07816504999994,0],[106.044407651,-6.07817013399995,0],[106.044390999,-6.07818299999997,0],[106.044331489,-6.07821240499993,0],[106.044278419,-6.07823862799995,0],[106.044255288,-6.07824997199998,0],[106.044135672,-6.07830863099997,0],[106.044073542,-6.07832377899996,0],[106.043966789,-6.07834980799993,0],[106.043814313,-6.07838698399996,0],[106.043814251,-6.07838699899997,0],[106.043814125,-6.07838702999993,0],[106.043739794,-6.07840515299995,0],[106.043566346,-6.07843895299993,0],[106.043515755,-6.07844881499994,0],[106.043505153,-6.07845088199997,0],[106.04339652,-6.07847205999997,0],[106.043372205,-6.07847679899993,0],[106.043356149,-6.07847992799998,0],[106.043356077,-6.07847994199994,0],[106.043355963,-6.07847996399994,0],[106.043303632,-6.07849016299997,0],[106.04330317,-6.07849025299993,0],[106.042703,-6.07860700099997,0],[106.042638234,-6.07862585699996,0],[106.042638163,-6.07862587799997,0],[106.042624,-6.07863000099996,0],[106.042529675,-6.07865737499998,0],[106.042511005,-6.07866278199998,0],[106.042470229,-6.07867459099998,0],[106.042302611,-6.07872313399997,0],[106.042021296,-6.07880460499996,0],[106.041721975,-6.07878919599995,0],[106.041706328,-6.07878836899994,0],[106.041548,-6.07878000099993,0],[106.041253,-6.07876499999998,0],[106.041186019,-6.07875987099993,0],[106.041185636,-6.07875984199995,0],[106.041185252,-6.07875981199993,0],[106.041030552,-6.07874785799993,0],[106.040735942,-6.07872509899994,0],[106.040735965,-6.07872538899994,0],[106.040483,-6.07870599899996,0],[106.0402,-6.07876799999997,0],[106.040016734,-6.07882865799996,0],[106.040016355,-6.07882878399994,0],[106.040015975,-6.07882890999997,0],[106.039774,-6.07890899999995,0],[106.039621226,-6.07895845299993,0],[106.039428114,-6.07902068599998,0],[106.03939212,-6.07903228799995,0],[106.039392072,-6.07903230299996,0],[106.039339248,-6.07904933099996,0],[106.039274163,-6.07906293699995,0],[106.039190211,-6.07908048799993,0],[106.03914706,-6.07908950899997,0],[106.039144775,-6.07908998699997,0],[106.039142489,-6.07909046499998,0],[106.038790091,-6.07914714799995,0],[106.038619597,-6.07916195499996,0],[106.038431463,-6.07917829499996,0],[106.038057031,-6.07921659999994,0],[106.03798324,-6.07922669399994,0],[106.037960082,-6.07923901899994,0],[106.037939679,-6.07926634699993,0],[106.037929408,-6.07928700199994,0],[106.03792202,-6.07930185799995,0],[106.037757595,-6.07960235999997,0],[106.037719526,-6.07966110599995,0],[106.037670537,-6.07971441399997,0],[106.037627941,-6.07970857999993,0],[106.037549931,-6.07969789599997,0],[106.037488386,-6.07970449699997,0],[106.037435981,-6.07970221499994,0],[106.037435804,-6.07970237999996,0],[106.037394267,-6.07971846899994,0],[106.037287727,-6.07975973699996,0],[106.037184281,-6.07979036199993,0],[106.036747079,-6.07991977399996,0],[106.036509448,-6.08003677099993,0],[106.036373636,-6.08010363799997,0],[106.03631423,-6.08013288599994,0],[106.036213499,-6.08011082999997,0],[106.036017795,-6.08006797899998,0],[106.035786007,-6.08001677699997,0],[106.035643727,-6.07998534799998,0],[106.035437826,-6.08005485399997,0],[106.035280542,-6.08011177199995,0],[106.035239087,-6.08012677399995,0],[106.035226607,-6.08013128999994,0],[106.035197145,-6.08014195199996,0],[106.034915485,-6.08024387799998,0],[106.034806507,-6.08028331499997,0],[106.034446495,-6.08017071799998,0],[106.034275191,-6.08000301099997,0],[106.034076264,-6.07982136399994,0],[106.033779777,-6.07970292199997,0],[106.03359168,-6.07962777999995,0],[106.03354484,-6.07960906799997,0],[106.03350041,-6.07959131899997,0],[106.033464612,-6.07957701799995,0],[106.03346392,-6.07957674199997,0],[106.033386677,-6.07963068799995,0],[106.033329864,-6.07977485399994,0],[106.033335031,-6.07996835899996,0],[106.033408647,-6.08020129499994,0],[106.033414336,-6.08022313099997,0],[106.033485281,-6.08049543999994,0],[106.033430096,-6.08054558199996,0],[106.03332283,-6.08053045599996,0],[106.033154746,-6.08043096799997,0],[106.032800214,-6.08021628799997,0],[106.032556863,-6.08016335799994,0],[106.032550361,-6.08016194399994,0],[106.032320824,-6.08014270999996,0],[106.03227771,-6.08014055899997,0],[106.032089561,-6.08018533699993,0],[106.032012304,-6.08029854599994,0],[106.031959795,-6.08039296099997,0],[106.031849873,-6.08059060699998,0],[106.031700333,-6.08063003799998,0],[106.031476204,-6.08059911699996,0],[106.031338436,-6.08051062099997,0],[106.031287528,-6.08037637599995,0],[106.031282867,-6.08034143399993,0],[106.031256728,-6.08014545699996,0],[106.031250152,-6.07988106099998,0],[106.031264863,-6.07963485899995,0],[106.0312798,-6.07950718099994,0],[106.031270155,-6.07939561799998,0],[106.031268417,-6.07937550999998,0],[106.031215623,-6.07928646399995,0],[106.031144631,-6.07921162699995,0],[106.031059515,-6.07915505999995,0],[106.031013615,-6.07912775099993,0],[106.030917683,-6.07907631499995,0],[106.030678807,-6.07905853599993,0],[106.030682065,-6.07917553399994,0],[106.030513975,-6.07912925499994,0],[106.030376257,-6.07908494499998,0],[106.030327654,-6.07907085499994,0],[106.030236565,-6.07907102899998,0],[106.030139416,-6.07907323999996,0],[106.030070623,-6.07908552799995,0],[106.030080436,-6.07930823999993,0],[106.030088953,-6.07950151999995,0],[106.030080931,-6.07954070799997,0],[106.030067479,-6.07956099499995,0],[106.030027008,-6.07957052399996,0],[106.029989242,-6.07957735199994,0],[106.029943341,-6.07956798799995,0],[106.029874475,-6.07954244999996,0],[106.029785352,-6.07950749799994,0],[106.029744851,-6.07949677599993,0],[106.029696267,-6.07949281599997,0],[106.029647697,-6.07950101299997,0],[106.02962379,-6.07951072399993,0],[106.029552794,-6.07943507299996,0],[106.029368475,-6.07938275799995,0],[106.02926771,-6.07923452599994,0],[106.029169492,-6.07916768299998,0],[106.028918039,-6.07903888899995,0],[106.028860935,-6.07896569599995,0],[106.02881191,-6.07895519799996,0],[106.028682905,-6.07892757199994,0],[106.028500772,-6.07886991999993,0],[106.02834038,-6.07882782599995,0],[106.028311624,-6.07882027899996,0],[106.028309218,-6.07881988299994,0],[106.02830681,-6.07881948599993,0],[106.028142442,-6.07879239499994,0],[106.028083678,-6.07878994499993,0],[106.028049143,-6.07879138199996,0],[106.027935872,-6.07880559999995,0],[106.027870085,-6.07881921299997,0],[106.027840905,-6.07882473199993,0],[106.027725829,-6.07884649899995,0],[106.027694868,-6.07885765999993,0],[106.02757332,-6.07892485099995,0],[106.027469622,-6.07898836499993,0],[106.027443537,-6.07900947899998,0],[106.027377523,-6.07907901299996,0],[106.027319229,-6.07916910099993,0],[106.027254357,-6.07925398399993,0],[106.027216959,-6.07932096099995,0],[106.027200144,-6.07936770999993,0],[106.027171306,-6.07940036099995,0],[106.027013583,-6.07962377499996,0],[106.026891071,-6.07983605699997,0],[106.02674112,-6.08002321699996,0],[106.02657661,-6.08022819499996,0],[106.026520949,-6.08029944999993,0],[106.026481214,-6.08033878499998,0],[106.02633162,-6.08045321999998,0],[106.026229561,-6.08052741099993,0],[106.026165915,-6.08056440699994,0],[106.026062585,-6.08061110599994,0],[106.025961457,-6.08063975599993,0],[106.025916665,-6.08064599199997,0],[106.025905149,-6.08064690499998,0],[106.025818986,-6.08063669699993,0],[106.025764592,-6.08062077199997,0],[106.025703298,-6.08059103699998,0],[106.025608694,-6.08054620599995,0],[106.025560984,-6.08051689499996,0],[106.025472913,-6.08044864399994,0],[106.025432426,-6.08041007299994,0],[106.025395869,-6.08036734599995,0],[106.025366918,-6.08031850599997,0],[106.023574114,-6.08010321399996,0],[106.023645106,-6.07995274899997,0],[106.023732256,-6.07988016699994,0],[106.023872867,-6.07973402299996,0],[106.023903857,-6.07968732699993,0],[106.023936553,-6.07963805999998,0],[106.023983248,-6.07956342599994,0],[106.024025641,-6.07946537099997,0],[106.024079814,-6.07926152699997,0],[106.024103379,-6.07920735899995,0],[106.024121837,-6.07913290199997,0],[106.024118292,-6.07904664799997,0],[106.024089425,-6.07897965799998,0],[106.024048733,-6.07891884299994,0],[106.023984396,-6.07886991599997,0],[106.023933611,-6.07883449399998,0],[106.023918295,-6.07878208899996,0],[106.023940203,-6.07874483499995,0],[106.023990854,-6.07870922199993,0],[106.024143117,-6.07862066599995,0],[106.024224577,-6.07855822799996,0],[106.024342453,-6.07845491399996,0],[106.024489037,-6.07838936699994,0],[106.024604891,-6.07835263599998,0],[106.024939348,-6.07812004799996,0],[106.025261987,-6.07793675699997,0],[106.025373498,-6.07787211399994,0],[106.025433275,-6.07780401599996,0],[106.025428881,-6.07775033299993,0],[106.02539867,-6.07766877499995,0],[106.025364245,-6.07762803499998,0],[106.025336215,-6.07756365599994,0],[106.025312414,-6.07746490599993,0],[106.025258574,-6.07737480399993,0],[106.025176923,-6.07733629899997,0],[106.025049918,-6.07726940599997,0],[106.025019682,-6.07717281599997,0],[106.025015175,-6.07706114399997,0],[106.024986837,-6.07686249099993,0],[106.0249586,-6.07668857799996,0],[106.024885294,-6.07652119599993,0],[106.024835743,-6.07642893699995,0],[106.024782051,-6.07625105999995,0],[106.024770855,-6.07609563399996,0],[106.024705065,-6.07590212899993,0],[106.024647594,-6.07578224399998,0],[106.02454069,-6.07561507199995,0],[106.024516058,-6.07556330199998,0],[106.024502283,-6.07548696699996,0],[106.024488443,-6.07537517899993,0],[106.024469113,-6.07524431099995,0],[106.024466204,-6.07514613899997,0],[106.024452148,-6.07500870699994,0],[106.024468395,-6.07495140699996,0],[106.02452279,-6.07488585199997,0],[106.024593592,-6.07484753699993,0],[106.024686171,-6.07479281899998,0],[106.02477602,-6.07473537799996,0],[106.024843966,-6.07462888899994,0],[106.024865516,-6.07449249199993,0],[106.024848973,-6.07439434399993,0],[106.024796367,-6.07429626299995,0],[106.024664055,-6.07416438899998,0],[106.024566854,-6.07411405799996,0],[106.024504612,-6.07406365799994,0],[106.024481174,-6.07399375499995,0],[106.024492686,-6.07391989899997,0],[106.024554672,-6.07383429099997,0],[106.02465158,-6.07372918599998,0],[106.024732934,-6.07361633999994,0],[106.024775461,-6.07351133799995,0],[106.024767524,-6.07342197599996,0],[106.024724739,-6.07339096999993,0],[106.024619858,-6.07333918499995,0],[106.024557645,-6.07330432999993,0],[106.024487656,-6.07326560299992,0],[106.024437053,-6.07320740799997,0],[106.024433028,-6.07313358399995,0],[106.024491122,-6.07304409599993,0],[106.024568608,-6.07293902999993,0],[106.024646122,-6.07284950399998,0],[106.024739203,-6.07277549599996,0],[106.024851683,-6.07268979099996,0],[106.024910653,-6.07261744299996,0],[106.024956664,-6.07254201499995,0],[106.025037386,-6.07246781299995,0],[106.025105335,-6.07243122999995,0],[106.025161133,-6.07239223899995,0],[106.025212086,-6.07236054999993,0],[106.025270313,-6.07232155499997,0],[106.025343169,-6.07231169399995,0],[106.025415999,-6.07228725399995,0],[106.025454779,-6.07224100499997,0],[106.025450252,-6.07217245799995,0],[106.025471967,-6.07209464599993,0],[106.025513153,-6.07203624199997,0],[106.025569001,-6.07202398499993,0],[106.025637008,-6.07201899499995,0],[106.025690424,-6.07200431299998,0],[106.025704888,-6.07194595799996,0],[106.025682947,-6.07190468499994,0],[106.025648925,-6.07189745799997,0],[106.025595469,-6.07189026899994,0],[106.025551688,-6.07186118799996,0],[106.025524939,-6.07180238299998,0],[106.025512718,-6.07176352099998,0],[106.025510151,-6.07169061699994,0],[106.025524533,-6.07158851799994,0],[106.025521892,-6.07147672899993,0],[106.025475578,-6.07139175699996,0],[106.025448733,-6.07132618899993,0],[106.025424121,-6.07114579799998,0],[106.025399176,-6.07085274599996,0],[106.02541358,-6.07076279899997,0],[106.025418214,-6.07064370499995,0],[106.025449559,-6.07051970199996,0],[106.025488246,-6.07042484799996,0],[106.025531766,-6.07031540099996,0],[106.025583096,-6.07016118999996,0],[106.025587814,-6.07008827199996,0],[106.025602266,-6.07002262699996,0],[106.025655551,-6.06993989599994,0],[106.025759775,-6.06981818299994,0],[106.025835029,-6.06979130899992,0],[106.025924917,-6.06979599799996,0],[106.02611211,-6.06987341299993,0],[106.026296741,-6.06986477199996,0],[106.026452876,-6.06985027199994,0],[106.026626723,-6.06981798699996,0],[106.026708212,-6.06974326599993,0],[106.026750518,-6.06959405499992,0],[106.026725418,-6.06945917199994,0],[106.026676092,-6.06926938399994,0],[106.026661722,-6.06917709099997,0],[106.026654307,-6.06901021899995,0],[106.026643438,-6.06889306499994,0],[106.026646798,-6.06879363799993,0],[106.026745938,-6.06866917199994,0],[106.026824006,-6.06866192299998,0],[106.026923341,-6.06864042999996,0],[106.027036612,-6.06858891799993,0],[106.027127593,-6.06857764199998,0],[106.027234385,-6.06853451399996,0],[106.027318655,-6.06849438199993,0],[106.027378509,-6.06845429599997,0],[106.027469275,-6.06832754699997,0],[106.027513516,-6.06824751999994,0],[106.027566621,-6.06816081399995,0],[106.027597566,-6.06809191399998,0],[106.027606702,-6.06797513099997,0],[106.027602073,-6.06787520999995,0],[106.027615173,-6.06775971199994,0],[106.027621371,-6.06747694999996,0],[106.02763006,-6.06737700399998,0],[106.027654186,-6.06722373399998,0],[106.027707262,-6.06712148299994,0],[106.027762628,-6.06705475899997,0],[106.027922796,-6.06698248199996,0],[106.028013704,-6.06693123399998,0],[106.028097944,-6.06687555899993,0],[106.028153296,-6.06680217199994,0],[106.028190801,-6.06668218699997,0],[106.028190599,-6.06657559499996,0],[106.028199433,-6.06640565199996,0],[106.02819707,-6.06633015399996,0],[106.028196923,-6.06625243099995,0],[106.028221227,-6.06619242699998,0],[106.028265521,-6.06614126899996,0],[106.028334283,-6.06611671099995,0],[106.028409764,-6.06605633799995,0],[106.028456296,-6.06601405799995,0],[106.02849835,-6.06595179999994,0],[106.028538194,-6.06589398799997,0],[106.028586882,-6.06581839299997,0],[106.028593436,-6.06576286399996,0],[106.028589288,-6.06565961799993,0],[106.028609126,-6.06558629799997,0],[106.028644484,-6.06550406699995,0],[106.028679829,-6.06541517299996,0],[106.028681919,-6.06534633099994,0],[106.028672851,-6.06524641899995,0],[106.028646022,-6.06514431899996,0],[106.028599106,-6.06499674499997,0],[106.028590088,-6.06492347999995,0],[106.028627636,-6.06482570099996,0],[106.028674135,-6.06476565399993,0],[106.028720599,-6.06468784499998,0],[106.028746547,-6.06460555299998,0],[106.028838018,-6.06450662399993,0],[106.028892617,-6.06448359399997,0],[106.028940151,-6.06445352599997,0],[106.028973513,-6.06438468499994,0],[106.029010405,-6.06431936399997,0],[106.029063207,-6.06427870499994,0],[106.029150969,-6.06421628499993,0],[106.029202244,-6.06410870299993,0],[106.029213227,-6.06399895799996,0],[106.02918635,-6.06388163099996,0],[106.029170487,-6.06377865499996,0],[106.02916137,-6.06369134099998,0],[106.029156701,-6.06359058299995,0],[106.029190092,-6.06349423099994,0],[106.029268191,-6.06340186399996,0],[106.029310589,-6.06333460499997,0],[106.029352989,-6.06326734599998,0],[106.029402171,-6.06323590399995,0],[106.029489393,-6.06319990899993,0],[106.029598468,-6.06304146299993,0],[106.029642149,-6.06293561699994,0],[106.029641872,-6.06278994599995,0],[106.029659477,-6.06256325999993,0],[106.02965933,-6.06248543499993,0],[106.029657018,-6.06231781699995,0],[106.029638832,-6.06219413099996,0],[106.029686873,-6.06206939299994,0],[106.029708669,-6.06199352199997,0],[106.029706517,-6.06190971599995,0],[106.029732294,-6.06182984699996,0],[106.029784034,-6.06176788899995,0],[106.029845783,-6.06172386899993,0],[106.029950171,-6.06163852699996,0],[106.030040234,-6.06155531399997,0],[106.030170028,-6.06149007699997,0],[106.03019507,-6.06137449299996,0],[106.030194844,-6.06125534499995,0],[106.03016581,-6.06116874599996,0],[106.030241349,-6.06103862399993,0],[106.030335225,-6.06090392899995,0],[106.030425705,-6.06088967299996,0],[106.030516225,-6.06089553699996,0],[106.030568586,-6.06093165699997,0],[106.030666022,-6.06098767699996,0],[106.03072646,-6.06103987999995,0],[106.030806933,-6.06105179999997,0],[106.030927606,-6.06104955899997,0],[106.03106033,-6.06103924499996,0],[106.031178909,-6.06099474999996,0],[106.031277344,-6.06093218499996,0],[106.031378517,-6.06084304099994,0],[106.031432758,-6.06081074299993,0],[106.031511172,-6.06079650699996,0],[106.031603699,-6.06080035599996,0],[106.031700234,-6.06079815999993,0],[106.031800817,-6.06080802999998,0],[106.031887317,-6.06081591299994,0],[106.031981878,-6.06083183199996,0],[106.032072385,-6.06083165999996,0],[106.032136634,-6.06077318299998,0],[106.032188716,-6.06066241099995,0],[106.032226809,-6.06059794699996,0],[106.032286141,-6.06054660299998,0],[106.03234044,-6.06054448599997,0],[106.032418804,-6.06050409299996,0],[106.032456873,-6.06042755599998,0],[106.032484812,-6.06031280599996,0],[106.032506741,-6.06021013999998,0],[106.032560858,-6.06011143799998,0],[106.032604987,-6.06004897399993,0],[106.032729838,-6.05997134999996,0],[106.03280817,-6.05991485799996,0],[106.032852284,-6.05984434599998,0],[106.0328562,-6.05978799599995,0],[106.03285811,-6.05973567499996,0],[106.0328822,-6.05971148099997,0],[106.032930439,-6.05969529199996,0],[106.032968547,-6.05963887699994,0],[106.033012676,-6.05957641499998,0],[106.033060923,-6.05956424899995,0],[106.033123268,-6.05956211799997,0],[106.033220859,-6.05954709499997,0],[106.033287134,-6.05949666299995,0],[106.03333722,-6.05939394399996,0],[106.033369241,-6.05930936999994,0],[106.033421375,-6.05922676799997,0],[106.033503761,-6.05918636699994,0],[106.033566255,-6.05912568799994,0],[106.033620448,-6.05906722999993,0],[106.033690671,-6.05897654599994,0],[106.033765345,-6.05882680299993,0],[106.033803394,-6.05874020499994,0],[106.033817358,-6.05867981099993,0],[106.033791081,-6.05861144599993,0],[106.03375878,-6.05854711699993,0],[106.033746577,-6.05847671199996,0],[106.033734143,-6.05833468199995,0],[106.033723941,-6.05825823699996,0],[106.033717696,-6.05814757499996,0],[106.033709459,-6.05804697999997,0],[106.033675054,-6.05793436099998,0],[106.033660525,-6.05778228199995,0],[106.033690531,-6.05769569899996,0],[106.033738654,-6.05761914099998,0],[106.03378278,-6.05755466799997,0],[106.03381882,-6.05747008499998,0],[106.033814601,-6.05736545799994,0],[106.033814431,-6.05727691999994,0],[106.033834386,-6.05719437999994,0],[106.033866942,-6.05712118599996,0],[106.033895016,-6.05707686399995,0],[106.033941182,-6.05702848199996,0],[106.03399741,-6.05698209499997,0],[106.034069708,-6.05692561299998,0],[106.034122677,-6.05683254699994,0],[106.034168573,-6.05679413299993,0],[106.034214412,-6.05672505699994,0],[106.034270431,-6.05663807599996,0],[106.034334075,-6.05653063999995,0],[106.034423643,-6.05640424299997,0],[106.034512848,-6.05630953399998,0],[106.034584221,-6.05623785499995,0],[106.034676029,-6.05616869199997,0],[106.034790817,-6.05609692999997,0],[106.034913339,-6.05606347999998,0],[106.035085161,-6.05595506799995,0],[106.035131067,-6.05592176399995,0],[106.035182013,-6.05585267799995,0],[106.035232896,-6.05575037699998,0],[106.035255676,-6.05564301899994,0],[106.035281097,-6.05558164699994,0],[106.035321849,-6.05552280199993,0],[106.03538051,-6.05548180799997,0],[106.035452225,-6.05541608499993,0],[106.035498467,-6.05537604699992,0],[106.035535064,-6.05530247199994,0],[106.035546067,-6.05520976799994,0],[106.035541166,-6.05515224999994,0],[106.035536103,-6.05499338699997,0],[106.035529592,-6.05492948099993,0],[106.035528898,-6.05472453599998,0],[106.035528736,-6.05463984399995,0],[106.035549403,-6.05458867099998,0],[106.035592485,-6.05456621599996,0],[106.03564439,-6.05454337099997,0],[106.035729002,-6.05452403399994,0],[106.035794439,-6.05449834099994,0],[106.035855075,-6.05446786299996,0],[106.03592692,-6.05445334499996,0],[106.035993969,-6.05443563799997,0],[106.036054638,-6.05442273799997,0],[106.036137686,-6.05441938499996,0],[106.036231963,-6.05444157699998,0],[106.03636241,-6.05450150499996,0],[106.036425846,-6.05451026699996,0],[106.036495654,-6.05453424499996,0],[106.036600251,-6.05457234699998,0],[106.036737243,-6.05457589099996,0],[106.036850074,-6.05454648899996,0],[106.036894388,-6.05450579799998,0],[106.036939768,-6.05435723599993,0],[106.036961221,-6.05424085299995,0],[106.036957256,-6.05415710499994,0],[106.036922902,-6.05410133499993,0],[106.036877198,-6.05407858099994,0],[106.03685554,-6.05402913099994,0],[106.036856683,-6.05396314099994,0],[106.036867866,-6.05390353799993,0],[106.036885973,-6.05389040299997,0],[106.036978508,-6.05383444399996,0],[106.037017245,-6.05382575399994,0],[106.037067425,-6.05379837499993,0],[106.037085996,-6.05375238999994,0],[106.037088765,-6.05369925499997,0],[106.037103062,-6.05367050899997,0],[106.037138887,-6.05364028399993,0],[106.03721344,-6.05359849899997,0],[106.037286586,-6.05357107599997,0],[106.037346834,-6.05355372999998,0],[106.03744118,-6.05352264599998,0],[106.037552327,-6.05350966899994,0],[106.037665312,-6.05350580599998,0],[106.037789241,-6.05350556999997,0],[106.037895585,-6.05349254599997,0],[106.037961187,-6.05348877499995,0],[106.038026796,-6.05348864899997,0],[106.038145215,-6.05346654199997,0],[106.038245398,-6.05343899899998,0],[106.038379224,-6.05338404199995,0],[106.038437526,-6.05337481399994,0],[106.038541403,-6.05337279099996,0],[106.038619805,-6.05339087499993,0],[106.038762449,-6.05349577899995,0],[106.038884728,-6.05358439499997,0],[106.039051396,-6.05366552299995,0],[106.039236374,-6.05364665699994,0],[106.039484193,-6.05359435299994,0],[106.039606323,-6.05360522499996,0],[106.039728602,-6.05369384299996,0],[106.039795419,-6.05380477599994,0],[106.039888216,-6.05395638499994,0],[106.040033839,-6.05408984599995,0],[106.040093707,-6.05412274299994,0],[106.040207142,-6.05412871599998,0],[106.040246281,-6.05410594499995,0],[106.040291537,-6.05404602399994,0],[106.040362045,-6.05397500999993,0],[106.040415603,-6.05394395699994,0],[106.040463023,-6.05393767599998,0],[106.040526944,-6.05393342699995,0],[106.040594986,-6.05392710699994,0],[106.040650611,-6.05389811399994,0],[106.040697956,-6.05385263299996,0],[106.040755659,-6.05383189099996,0],[106.040803031,-6.05380085099995,0],[106.040867387,-6.05376827099997,0],[106.040911467,-6.05375531499993,0],[106.040961066,-6.05374418699995,0],[106.041038214,-6.05372565399995,0],[106.041096926,-6.05367405899995,0],[106.041115194,-6.05361702399995,0],[106.041115089,-6.05356186599994,0],[106.041123498,-6.05346734699998,0],[106.041123317,-6.05337243999998,0],[106.041123186,-6.05330381299996,0],[106.041107107,-6.05322581699994,0],[106.041086566,-6.05316891099994,0],[106.041047087,-6.05312956399996,0],[106.040982772,-6.05307712299998,0],[106.04095201,-6.05301731499998,0],[106.040951976,-6.05299979399996,0],[106.040959182,-6.05295159599996,0],[106.040988227,-6.05287707399998,0],[106.041026073,-6.05282589599994,0],[106.041078556,-6.05279659299993,0],[106.041138393,-6.05279647899994,0],[106.041201198,-6.05282264099998,0],[106.041274238,-6.05285900399997,0],[106.041404953,-6.05286420499993,0],[106.041441195,-6.05287115199997,0],[106.041494963,-6.05287572499998,0],[106.041547513,-6.05285457699995,0],[106.041578914,-6.05277383899994,0],[106.041591625,-6.05269898199998,0],[106.04159269,-6.05262588999994,0],[106.04158553,-6.05254873099994,0],[106.041580756,-6.05249612499995,0],[106.041586499,-6.05244466699997,0],[106.041618172,-6.05237946299997,0],[106.041646329,-6.05232284999994,0],[106.041653759,-6.05226627699994,0],[106.041653618,-6.05219275199994,0],[106.041672285,-6.05210033699996,0],[106.041726883,-6.05207572399996,0],[106.041792818,-6.05206617099998,0],[106.041843681,-6.05205853199993,0],[106.041866322,-6.05207357199993,0],[106.041928588,-6.05211681099996,0],[106.041975694,-6.05211483599993,0],[106.042000082,-6.05205823199998,0],[106.04202947,-6.05194517099994,0],[106.04204369,-6.05187332699995,0],[106.042067489,-6.05180625299994,0],[106.042213008,-6.05157854999993,0],[106.042177068,-6.05155228499996,0],[106.042078898,-6.05151656499993,0],[106.041971087,-6.05144495499997,0],[106.04189919,-6.05138524499995,0],[106.041800542,-6.05135888699994,0],[106.041711154,-6.05129870899998,0],[106.041626604,-6.05124576199995,0],[106.041508336,-6.05122426299994,0],[106.041399687,-6.05118584899998,0],[106.041235467,-6.05110891499993,0],[106.041105005,-6.05101984799995,0],[106.040908591,-6.05093026799995,0],[106.040734691,-6.05083645699995,0],[106.040442581,-6.05075252699993,0],[106.040251164,-6.05068230999996,0],[106.040207421,-6.05068994199996,0],[106.040151654,-6.05072477199997,0],[106.040083767,-6.05073245099993,0],[106.039963048,-6.05073268199993,0],[106.03986948,-6.05072682299993,0],[106.039762312,-6.05071042099996,0],[106.039691323,-6.05067583399995,0],[106.039644466,-6.05063365199993,0],[106.039623245,-6.05058387199995,0],[106.039624662,-6.05053555799998,0],[106.039638125,-6.05047363399996,0],[106.039610865,-6.05042235399998,0],[106.039598425,-6.05040741799996,0],[106.039544579,-6.05037657699995,0],[106.039288326,-6.05017758899993,0],[106.039229063,-6.05012792499997,0],[106.03907559,-6.05003538799997,0],[106.038971903,-6.04995890099997,0],[106.038787822,-6.04982985599997,0],[106.038844038,-6.04976141399993,0],[106.038886608,-6.04969983299998,0],[106.038944458,-6.04959209699996,0],[106.038981858,-6.04950660999998,0],[106.039036701,-6.04939961899993,0],[106.039084288,-6.04928336199993,0],[106.039109762,-6.04920985399997,0],[106.039118161,-6.04913808799995,0],[106.039119725,-6.04906291899994,0],[106.0390477,-6.04903876399993,0],[106.038850208,-6.04893935799993,0],[106.038710012,-6.04883287499996,0],[106.038551505,-6.04871170099995,0],[106.03835186,-6.04862097499995,0],[106.038100232,-6.04855637899993,0],[106.037907738,-6.04852469899993,0],[106.037568974,-6.04845648299994,0],[106.037243908,-6.04835243299993,0],[106.037040038,-6.04827845199998,0],[106.037141645,-6.04814328899994,0],[106.037282077,-6.04792136899994,0],[106.03740553,-6.04769250999993,0],[106.037446455,-6.04749686399992,0],[106.037477522,-6.04739129999996,0],[106.037622025,-6.04705348399995,0],[106.037762884,-6.04686089499995,0],[106.037941558,-6.04676613499993,0],[106.038128321,-6.04670106299994,0],[106.038154926,-6.04649973099993,0],[106.038198825,-6.04636218999997,0],[106.038272579,-6.04624082199996,0],[106.038397361,-6.04606139599997,0],[106.038529431,-6.04584513499998,0],[106.038581023,-6.04588185699993,0],[106.038698974,-6.04597981599994,0],[106.038829279,-6.04612439099998,0],[106.038943632,-6.04626608199993,0],[106.039045002,-6.04631961799993,0],[106.039181534,-6.04630554099998,0],[106.039311909,-6.04628226399996,0],[106.039466842,-6.04626200999996,0],[106.039625823,-6.04623079599997,0],[106.0398268,-6.04621813199998,0],[106.039975627,-6.04621477699993,0],[106.040040023,-6.04619009099997,0],[106.040134989,-6.04610393999997,0],[106.040095935,-6.04605679499997,0],[106.040006889,-6.04594863999995,0],[106.039917899,-6.04586826099995,0],[106.03974455,-6.04570664899995,0],[106.039574875,-6.04553476599995,0],[106.039395971,-6.04537613999997,0],[106.039354627,-6.04533384899997,0],[106.039300273,-6.04530136099993,0],[106.03924486,-6.04528299999993,0],[106.039143279,-6.04526103899997,0],[106.039094358,-6.04523071299997,0],[106.039054148,-6.04521340699995,0],[106.03899543,-6.04517006399993,0],[106.038926977,-6.04514629499994,0],[106.038880279,-6.04514203899993,0],[106.038847666,-6.04512254499997,0],[106.038794446,-6.04511504299995,0],[106.038736892,-6.04511297999994,0],[106.038703211,-6.04510326699994,0],[106.038663047,-6.04505336799997,0],[106.038647484,-6.04498501899997,0],[106.038656223,-6.04494309299997,0],[106.038706883,-6.04491873399996,0],[106.038810422,-6.04487662499997,0],[106.038845616,-6.04483464899994,0],[106.0388455,-6.04477288799995,0],[106.03882333,-6.04470896399994,0],[106.038750113,-6.04457110299995,0],[106.038713203,-6.04449585199995,0],[106.038702545,-6.04441529499996,0],[106.038698913,-6.04434698699993,0],[106.038697021,-6.04427341899998,0],[106.038668923,-6.04422793099997,0],[106.038443123,-6.04409495699997,0],[106.038043585,-6.04389354799997,0],[106.037173424,-6.04346109099993,0],[106.03667456,-6.04317121299994,0],[106.036786008,-6.04298563599997,0],[106.036942115,-6.04276801299994,0],[106.037178905,-6.04251915999993,0],[106.037258025,-6.04243600799992,0],[106.037530253,-6.04218039899996,0],[106.037880148,-6.04180362499994,0],[106.038089269,-6.04152837799995,0],[106.038256478,-6.04128054599994,0],[106.038343013,-6.04116827199994,0],[106.038389976,-6.04115371599994,0],[106.038516635,-6.04123303599994,0],[106.038607145,-6.04130880799994,0],[106.03877727,-6.04143505699994,0],[106.038827701,-6.04134455099995,0],[106.038881656,-6.04120702399996,0],[106.038892244,-6.04107319699995,0],[106.038891934,-6.04091045999996,0],[106.038891576,-6.04072240599993,0],[106.038883824,-6.04054335699993,0],[106.039012633,-6.04045794599995,0],[106.039105455,-6.04043970499993,0],[106.039172524,-6.04044215699997,0],[106.03925253,-6.04046522999994,0],[106.039309177,-6.04041350699993,0],[106.039327115,-6.04035153499996,0],[106.039332181,-6.04030249199997,0],[106.039365623,-6.04026231199992,0],[106.039482075,-6.04013238299996,0],[106.039580293,-6.04003535599998,0],[106.03967843,-6.03989636599994,0],[106.039770159,-6.03977998199997,0],[106.039721583,-6.03974637799996,0],[106.039737842,-6.03967871399993,0],[106.039758232,-6.03962948999992,0],[106.039811314,-6.03953716299998,0],[106.039873167,-6.03948098399997,0],[106.039953034,-6.03947058299997,0],[106.040012318,-6.03940898599996,0],[106.040069532,-6.03933509699993,0],[106.040132915,-6.03927349299994,0],[106.04026836,-6.03916620499996,0],[106.040315391,-6.03912307799993,0],[106.040393077,-6.03904299999994,0],[106.040565464,-6.03892727999994,0],[106.040677984,-6.03885328499996,0],[106.040788491,-6.03879773999995,0],[106.040880553,-6.03873813099995,0],[106.04109615,-6.03863681099995,0],[106.041493038,-6.03837577199994,0],[106.041763801,-6.03816347299994,0],[106.041945837,-6.03802171399997,0],[106.042118247,-6.03788140399996,0],[106.042185777,-6.03784643499995,0],[106.04221642,-6.03780333699996,0],[106.042265506,-6.03776430399995,0],[106.042306399,-6.03772528599995,0],[106.042330878,-6.03767195399996,0],[106.042381949,-6.03760012599997,0],[106.042447616,-6.03750097199998,0],[106.042492594,-6.03745579799994,0],[106.042613353,-6.03740637999994,0],[106.042738296,-6.03740204299993,0],[106.042847727,-6.03745184999997,0],[106.042932345,-6.03746796299993,0],[106.04301857,-6.03747430799996,0],[106.043088565,-6.03749858699996,0],[106.043195181,-6.03754291999996,0],[106.043265188,-6.03757370899996,0],[106.04333845,-6.03760611999996,0],[106.043416574,-6.03762875399997,0],[106.043519079,-6.03764157799998,0],[106.043564667,-6.03766264999996,0],[106.043624959,-6.03771786899995,0],[106.043667354,-6.03776986799994,0],[106.043701643,-6.03783815799994,0],[106.043731021,-6.03788855499994,0],[106.043770122,-6.03792103099994,0],[106.043830093,-6.03789742899994,0],[106.043923936,-6.03788067399995,0],[106.044004919,-6.03787683399997,0],[106.044134549,-6.03789850199996,0],[106.044210049,-6.03791493299997,0],[106.044270831,-6.03793507399996,0],[106.044346298,-6.03793492899996,0],[106.044418057,-6.03792005699995,0],[106.044491646,-6.03789965899995,0],[106.044556024,-6.03787559399996,0],[106.044688547,-6.03787165599994,0],[106.044863779,-6.03781963699993,0],[106.044950277,-6.03781210499994,0],[106.045068112,-6.03782845299997,0],[106.045182814,-6.03779713599994,0],[106.04526007,-6.03776936299994,0],[106.045374164,-6.03775440899994,0],[106.045475396,-6.03775053199996,0],[106.045582137,-6.03774111899997,0],[106.045702539,-6.03770589899995,0],[106.045739293,-6.03767452099993,0],[106.045790811,-6.03766337299993,0],[106.045857109,-6.03767981999994,0],[106.045905009,-6.03770182799997,0],[106.04595656,-6.03770909399998,0],[106.046000695,-6.03768690999993,0],[106.046039251,-6.03763526999995,0],[106.046081472,-6.03757625699996,0],[106.046125583,-6.03754117899996,0],[106.046210792,-6.03749838399995,0],[106.046266016,-6.03750011899996,0],[106.046323128,-6.03752579199994,0],[106.04637474,-6.03756436599997,0],[106.046433716,-6.03760292699997,0],[106.04649082,-6.03762491899994,0],[106.046573686,-6.03764317499997,0],[106.046663922,-6.03766509999997,0],[106.046735747,-6.03768522099995,0],[106.046774388,-6.03767777899998,0],[106.046809437,-6.03762960999995,0],[106.046852982,-6.03752586799993,0],[106.046858647,-6.03747863399997,0],[106.046842177,-6.03742440399998,0],[106.046814063,-6.03738938099997,0],[106.046785944,-6.03735201899997,0],[106.046771803,-6.03729124499995,0],[106.046788065,-6.03723976599997,0],[106.046862758,-6.03710516299998,0],[106.046932493,-6.03699839999996,0],[106.047002258,-6.03690829799996,0],[106.047065376,-6.03682487199995,0],[106.04714493,-6.03670700799995,0],[106.04721982,-6.03647483099996,0],[106.047300727,-6.03619253399995,0],[106.047480408,-6.03563756799997,0],[106.048212142,-6.03591263899995,0],[106.04828059,-6.03577291799996,0],[106.04850802,-6.03515465399994,0],[106.048950903,-6.03531121599997,0],[106.048670673,-6.03607750599997,0],[106.049230561,-6.03631229399997,0],[106.050169352,-6.03665898399993,0],[106.050216917,-6.03665059199994,0],[106.050307105,-6.03658621599993,0],[106.05073012,-6.03623286599998,0],[106.051243679,-6.03586278899996,0],[106.051458106,-6.03613820899994,0],[106.05180705,-6.03591876999997,0],[106.052003979,-6.03574718199997,0],[106.052187419,-6.03557468099996,0],[106.052346326,-6.03540554299997,0],[106.052479183,-6.03528401499995,0],[106.052585989,-6.03521009399998,0],[106.052754579,-6.03515143999994,0],[106.052991581,-6.03504503099992,0],[106.053267136,-6.03496361499998,0],[106.053434263,-6.03486581599998,0],[106.053484962,-6.03479790799997,0],[106.053565386,-6.03476808699997,0],[106.053662817,-6.03477213599996,0],[106.05383605,-6.03465700499993,0],[106.053917533,-6.03465684799994,0],[106.054042051,-6.03460385399995,0],[106.054124195,-6.03452641799993,0],[106.054404341,-6.03439639199996,0],[106.054622868,-6.03427080099993,0],[106.055005986,-6.03409981299995,0],[106.05523577,-6.03395310099995,0],[106.055276359,-6.03387389599993,0],[106.055317724,-6.03377453899998,0],[106.055363045,-6.03366415099993,0],[106.055429966,-6.03357050799997,0],[106.055506619,-6.03355117599995,0],[106.055549613,-6.03347676199996,0],[106.055769948,-6.03328880799995,0],[106.055913526,-6.03317823099997,0],[106.056025829,-6.03300536999996,0],[106.056174714,-6.03292258899995,0],[106.056351737,-6.03275679799998,0],[106.056555701,-6.03257328299998,0],[106.056888345,-6.03232806099993,0],[106.057149698,-6.03216304199998,0],[106.057433024,-6.03200231899996,0],[106.057670517,-6.03195198499998,0],[106.057720065,-6.03193018199994,0],[106.057791338,-6.03192384199997,0],[106.057839419,-6.03194390499993,0],[106.057890681,-6.03200737699996,0],[106.05791245,-6.03204454699994,0],[106.057942017,-6.03210805999993,0],[106.057980824,-6.03214209599997,0],[106.058018014,-6.03214047399996,0],[106.0581001,-6.03211550499998,0],[106.058292085,-6.03202365199996,0],[106.058373735,-6.03198555699993,0],[106.058404299,-6.03194787799993,0],[106.05851193,-6.03188991699994,0],[106.058665629,-6.03181707999994,0],[106.058560344,-6.03158762899994,0],[106.059318186,-6.03129803799993,0],[106.059810983,-6.03106601499996,0],[106.060162423,-6.03088467099997,0],[106.060599776,-6.03088178199994,0],[106.060588805,-6.03097441099993,0],[106.060749176,-6.03102139199996,0],[106.060814532,-6.03086495399998,0],[106.061018143,-6.03066914399994,0],[106.061187678,-6.03052609399998,0],[106.061223514,-6.03032440499993,0],[106.061238533,-6.03025804999993,0],[106.061326792,-6.03012441199996,0],[106.061423202,-6.02997008399996,0],[106.06148039,-6.02988783899997,0],[106.061481438,-6.02984845799995,0],[106.061413949,-6.02975423999993,0],[106.061377585,-6.02970170199995,0],[106.061350292,-6.02965277399994,0],[106.061346497,-6.02956570599997,0],[106.061357157,-6.02945321099997,0],[106.061382326,-6.02934250099997,0],[106.061422835,-6.02922940899998,0],[106.061475897,-6.02909674399996,0],[106.061549942,-6.02895272099994,0],[106.061596684,-6.02889443199996,0],[106.061630459,-6.02881353499993,0],[106.06164696,-6.02873415899995,0],[106.06172731,-6.02868460999997,0],[106.061889757,-6.02854343599995,0],[106.061976501,-6.02844797099993,0],[106.062043644,-6.02837407999994,0],[106.062072346,-6.02839748399998,0],[106.062124495,-6.02842083999997,0],[106.062184501,-6.02846503599994,0],[106.062244547,-6.02853008299996,0],[106.062291517,-6.02856909099995,0],[106.062351496,-6.02860025299998,0],[106.062421852,-6.02860793499997,0],[106.06248744,-6.02861391199997,0],[106.062526577,-6.02863176699998,0],[106.062580385,-6.02865285499996,0],[106.062637467,-6.02868208599995,0],[106.062673389,-6.02872113899997,0],[106.06276795,-6.02875247099996,0],[106.062813511,-6.02877515099993,0],[106.062939747,-6.02879353399993,0],[106.063074158,-6.02876015199996,0],[106.063134135,-6.02874968599997,0],[106.063181772,-6.02877650299996,0],[106.063247895,-6.02884207299996,0],[106.063308343,-6.02885509799995,0],[106.063352997,-6.02885238099998,0],[106.063381833,-6.02882078499994,0],[106.063426441,-6.02879441199997,0],[106.063505166,-6.02874957499995,0],[106.063568157,-6.02872053999994,0],[106.063599687,-6.02872310599997,0],[106.063649677,-6.02876243599997,0],[106.063736493,-6.02882534799994,0],[106.063799634,-6.02887253699993,0],[106.063865403,-6.02891972099997,0],[106.06404155,-6.02899034499995,0],[106.064078427,-6.02904021299997,0],[106.064078549,-6.02910329499997,0],[106.064106866,-6.02914797799997,0],[106.064427084,-6.02915969299994,0],[106.064636011,-6.02914070999998,0],[106.064753119,-6.02913304199996,0],[106.064814546,-6.02917198399996,0],[106.064822083,-6.02922405299995,0],[106.064820352,-6.02928915799993,0],[106.0648353,-6.02932819299997,0],[106.064870664,-6.02934858399993,0],[106.064989701,-6.02937625199996,0],[106.065393425,-6.02949361499998,0],[106.065583832,-6.02907990199998,0],[106.065580925,-6.02895505599997,0],[106.065562064,-6.02887223999994,0],[106.065551192,-6.02877604299994,0],[106.065542927,-6.02864776999996,0],[106.065496651,-6.02840603799996,0],[106.065488414,-6.02829112899997,0],[106.065445522,-6.02821370499993,0],[106.065394622,-6.02813896799995,0],[106.065357042,-6.02804549699994,0],[106.065343477,-6.02793861599997,0],[106.065329918,-6.02783440799993,0],[106.065276237,-6.02770354999996,0],[106.065220071,-6.02764804799995,0],[106.065178007,-6.02749435199996,0],[106.065189393,-6.02743842599995,0],[106.065207724,-6.02741498899996,0],[106.065246114,-6.02739819699997,0],[106.065309581,-6.02738971699995,0],[106.065352945,-6.02735285899996,0],[106.065406227,-6.02726082099997,0],[106.065456278,-6.02722729399994,0],[106.065518026,-6.02719374199995,0],[106.065563067,-6.02716022399994,0],[106.065649911,-6.02709463699995,0],[106.06569243,-6.02707326199993,0],[106.065763351,-6.02706602599994,0],[106.065831913,-6.02706115899997,0],[106.065933563,-6.02704794999994,0],[106.065996178,-6.02702535199995,0],[106.066076557,-6.02701691399994,0],[106.066165163,-6.02708104399994,0],[106.066201217,-6.02710499099993,0],[106.066329529,-6.02719998999993,0],[106.066421632,-6.02726187799993,0],[106.066498748,-6.02731737499994,0],[106.066571515,-6.02733649299995,0],[106.066639971,-6.02733850099997,0],[106.066691593,-6.02739715799993,0],[106.066766396,-6.02742590599996,0],[106.066856466,-6.02744612499993,0],[106.066970246,-6.02742720699996,0],[106.067100926,-6.02736406499997,0],[106.067153642,-6.02739285599995,0],[106.067182653,-6.02746078399997,0],[106.06722767,-6.02763659599998,0],[106.067261852,-6.02774190599996,0],[106.067307816,-6.02779280599998,0],[106.06737412,-6.02781987099996,0],[106.067533788,-6.02781275899997,0],[106.067664547,-6.02779040699994,0],[106.067689908,-6.02772917099998,0],[106.067699961,-6.02756348299994,0],[106.067720239,-6.02750905599993,0],[106.067747342,-6.02746990999998,0],[106.067777807,-6.02741206299993,0],[106.06777773,-6.02737296999993,0],[106.067741977,-6.02733224799994,0],[106.067694346,-6.02729834899998,0],[106.067643318,-6.02726445599995,0],[106.067609263,-6.02722373099994,0],[106.067619025,-6.02718602799996,0],[106.067646643,-6.02713976999996,0],[106.067646582,-6.02710896799994,0],[106.067635708,-6.02705816399993,0],[106.067658743,-6.02697776499997,0],[106.067692535,-6.02694073599997,0],[106.067747884,-6.02690674499996,0],[106.067777099,-6.02685894299998,0],[106.067809829,-6.02671822599996,0],[106.067832692,-6.02653227599995,0],[106.067924957,-6.02653506999997,0],[106.067993936,-6.02651312599994,0],[106.068064674,-6.02646210099994,0],[106.068120863,-6.02640201999998,0],[106.068182491,-6.02633647599993,0],[106.068258689,-6.02629089299995,0],[106.068325826,-6.02625623099993,0],[106.068445644,-6.02622510199996,0],[106.068570902,-6.02618850899995,0],[106.068774306,-6.02614623699998,0],[106.068967064,-6.02615847399994,0],[106.069167105,-6.02621034599997,0],[106.069332961,-6.02628210999995,0],[106.06946017,-6.02634683099996,0],[106.069580994,-6.02641868299997,0],[106.069694578,-6.02647252699995,0],[106.069748641,-6.02648503599994,0],[106.069793664,-6.02648134299994,0],[106.069836718,-6.02639114799996,0],[106.069885105,-6.02626489599993,0],[106.069953375,-6.02617465099996,0],[106.070041621,-6.02606074399995,0],[106.070073825,-6.02600247399994,0],[106.07001866,-6.02588940199996,0],[106.069960302,-6.02579573899993,0],[106.069931056,-6.02571495299998,0],[106.06989859,-6.02564064099994,0],[106.06966604,-6.02546411799995,0],[106.06980536,-6.02525805199997,0],[106.069863891,-6.02525284499995,0],[106.069927478,-6.02522979899993,0],[106.070054826,-6.02527284299993,0],[106.070258365,-6.02528649799996,0],[106.070572714,-6.02537161299995,0],[106.070878449,-6.02543388299995,0],[106.071094283,-6.02545466499993,0],[106.071138337,-6.02543251799995,0],[106.071174332,-6.02538832399995,0],[106.071176218,-6.02532815299998,0],[106.071178373,-6.02526934999997,0],[106.071236884,-6.02520284599996,0],[106.071534598,-6.02515696899997,0],[106.072006274,-6.02517354899993,0],[106.072286296,-6.02514352699995,0],[106.072419779,-6.02512928499993,0],[106.072609173,-6.02512735899995,0],[106.072804693,-6.02508192899995,0],[106.073012659,-6.02505045399994,0],[106.073202755,-6.02503088199995,0],[106.073389002,-6.02500721499996,0],[106.0736122,-6.02497133199995,0],[106.073706035,-6.02493093099997,0],[106.073856844,-6.02487709799993,0],[106.073977159,-6.02483906799995,0],[106.074111807,-6.02479040299994,0],[106.074194478,-6.02497788499994,0],[106.074297663,-6.02518595199996,0],[106.074383572,-6.02531852799996,0],[106.074491555,-6.02547547999995,0],[106.07454475,-6.02557838699994,0],[106.074583253,-6.02585588699998,0],[106.074737458,-6.02616150199998,0],[106.074746631,-6.02616934299994,0],[106.074758985,-6.02617375199998,0],[106.074781851,-6.02618214599994,0],[106.074810438,-6.02617254999996,0],[106.074863694,-6.02606868199996,0],[106.075023435,-6.02571490899993,0],[106.07513452,-6.02549803299996,0],[106.075277249,-6.02510804999997,0],[106.075509529,-6.02448596899995,0],[106.075642164,-6.02417548499994,0],[106.07520245,-6.02387654599994,0],[106.075259267,-6.02375608599993,0],[106.0753289,-6.02357258999996,0],[106.075333924,-6.02353820099995,0],[106.07531861,-6.02351658299995,0],[106.075261096,-6.02344219799994,0],[106.075235166,-6.02339571299996,0],[106.075211733,-6.02330527199996,0],[106.075216728,-6.02321736299996,0],[106.075265633,-6.02312160899993,0],[106.07531456,-6.02293467299995,0],[106.075335037,-6.02283638999995,0],[106.075396797,-6.02267178399995,0],[106.075456054,-6.02258376599997,0],[106.075507589,-6.02251127599993,0],[106.07556941,-6.02241291299993,0],[106.07559507,-6.02232237699997,0],[106.075589693,-6.02221638799995,0],[106.075579181,-6.02212592399997,0],[106.075571457,-6.02205297199993,0],[106.075602393,-6.02201671599994,0],[106.075638496,-6.02198045099993,0],[106.075687417,-6.02189245299996,0],[106.075700143,-6.02179418599997,0],[106.075681929,-6.02172958899996,0],[106.075670867,-6.02168750199996,0],[106.075666309,-6.02167015799995,0],[106.075666635,-6.02166842899993,0],[106.075666303,-6.02166716699998,0],[106.07567452,-6.02162353299997,0],[106.075676531,-6.02161285599993,0],[106.07569969,-6.02156368999994,0],[106.075733734,-6.02139788999995,0],[106.075770565,-6.02134443599994,0],[106.075799869,-6.02129731799994,0],[106.075801247,-6.02129510199995,0],[106.075770433,-6.02127784099997,0],[106.075768379,-6.02127668999998,0],[106.075821599,-6.02122886699993,0],[106.075864525,-6.02114460599995,0],[106.07590952,-6.02106855199997,0],[106.07593095,-6.02101562099995,0],[106.075855999,-6.02098336799997,0],[106.075856593,-6.02098063399995,0],[106.075855993,-6.02098037599995,0],[106.075874426,-6.02089551899996,0],[106.075925337,-6.02069832199993,0],[106.075951884,-6.02063257199995,0],[106.076029927,-6.02045872999997,0],[106.076044177,-6.02040121499994,0],[106.076064575,-6.02033958199996,0],[106.076087057,-6.02029436999993,0],[106.076117748,-6.02024914199995,0],[106.076162782,-6.02019361999993,0],[106.076209868,-6.02013809399995,0],[106.07625078,-6.02007436699995,0],[106.076314502,-6.01998698399996,0],[106.076345236,-6.01996433999994,0],[106.076371818,-6.01991706699994,0],[106.076371735,-6.01987488999993,0],[106.076371729,-6.01987189799996,0],[106.076383965,-6.01983286599994,0],[106.076402391,-6.01981229899997,0],[106.076431078,-6.01979171099993,0],[106.076469904,-6.01970951199996,0],[106.07648209,-6.01964584199993,0],[106.076514812,-6.01959034499993,0],[106.076551662,-6.01954715699998,0],[106.076609498,-6.01946211199993,0],[106.076664757,-6.01939014499993,0],[106.076713872,-6.01932229599993,0],[106.076730079,-6.01925275299993,0],[106.076727946,-6.01917538499993,0],[106.076728004,-6.01917471199994,0],[106.07672794,-6.01917239299996,0],[106.076733958,-6.01910257799994,0],[106.076760515,-6.01904298699998,0],[106.076848747,-6.01890608099995,0],[106.07690183,-6.01877047499994,0],[106.076963078,-6.01861226599993,0],[106.077100947,-6.01825629399997,0],[106.07716485,-6.01813402199997,0],[106.077264576,-6.01783358499995,0],[106.077356276,-6.01767250099994,0],[106.077581006,-6.01742368899994,0],[106.078212557,-6.01776184699997,0],[106.078794639,-6.01805593799997,0],[106.079148757,-6.01823792899995,0],[106.079676906,-6.01851237599993,0],[106.080177443,-6.01878041399993,0],[106.080505371,-6.01894626999996,0],[106.080612861,-6.01900628299995,0],[106.080730122,-6.01907115999995,0],[106.080898368,-6.01915106099995,0],[106.081079146,-6.01925162399993,0],[106.081188643,-6.01931193399997,0],[106.081247328,-6.01934114599993,0],[106.081354373,-6.01919732699997,0],[106.081444928,-6.01907244999995,0],[106.081521222,-6.01893869299994,0],[106.081572625,-6.01882279899996,0],[106.081611558,-6.01870336799993,0],[106.081743459,-6.01848851499994,0],[106.081901324,-6.01818892499995,0],[106.08207205,-6.01789380699995,0],[106.082206917,-6.01766908299993,0],[106.082347654,-6.01745414699997,0],[106.082407962,-6.01734001799997,0],[106.082487686,-6.01714034099996,0],[106.082576665,-6.01691644599993,0],[106.0826404,-6.01673461599995,0],[106.082684875,-6.01663407199993,0],[106.082768255,-6.01648248699996,0],[106.082840976,-6.01634339299994,0],[106.083024379,-6.01615094999994,0],[106.083120543,-6.01602962599998,0],[106.083189705,-6.01585900399994,0],[106.083276755,-6.01566367099997,0],[106.083368703,-6.01543339299997,0],[106.083527344,-6.01507121599997,0],[106.083609388,-6.01482165699997,0],[106.082052866,-6.01391861399998,0],[106.08147664,-6.01361024599993,0],[106.080847268,-6.01328378399995,0],[106.080848839,-6.01328160999998,0],[106.080847262,-6.01328079299998,0],[106.080977597,-6.01310044999997,0],[106.08114074,-6.01287787299998,0],[106.081226664,-6.01270623399995,0],[106.081348528,-6.01243126299994,0],[106.081386199,-6.01232436799995,0],[106.08143081,-6.01224330399998,0],[106.081468532,-6.01216225199994,0],[106.081510286,-6.01207491299994,0],[106.081206881,-6.01189794599998,0],[106.081208124,-6.01189568299998,0],[106.081206875,-6.01189495399996,0],[106.081366306,-6.01160470199994,0],[106.08149058,-6.01134866199993,0],[106.08163816,-6.01108795399995,0],[106.081742736,-6.01090706399998,0],[106.081909174,-6.01061854199997,0],[106.081842022,-6.01050705299997,0],[106.08184291,-6.01050554699998,0],[106.081842017,-6.01050406199994,0],[106.082043295,-6.01016282399996,0],[106.082338108,-6.01036430899995,0],[106.082415778,-6.01026677199997,0],[106.082556986,-6.01007749799993,0],[106.082657397,-6.00990644099994,0],[106.082791904,-6.00968171999995,0],[106.082699451,-6.00961336999995,0],[106.082611806,-6.00955314699996,0],[106.082595294,-6.00952430599995,0],[106.082587212,-6.00949869899995,0],[106.082587663,-6.00949715399997,0],[106.082587206,-6.00949570799997,0],[106.082613309,-6.00940613799997,0],[106.082632087,-6.00934199899996,0],[106.082674992,-6.00926309899995,0],[106.082702184,-6.00920524899993,0],[106.082712346,-6.00914800799995,0],[106.082706169,-6.00909934199996,0],[106.082688228,-6.00905524199993,0],[106.082688366,-6.00905260599995,0],[106.082688223,-6.00905225099996,0],[106.082691257,-6.00899444799995,0],[106.082702713,-6.00894503599994,0],[106.082705763,-6.00889458899996,0],[106.082727611,-6.00879101299995,0],[106.082730607,-6.00871324399998,0],[106.082730477,-6.00864793099993,0],[106.082728249,-6.00853303099996,0],[106.082728296,-6.00853273599995,0],[106.082728243,-6.00853003999993,0],[106.082739853,-6.00845608499998,0],[106.082768272,-6.00839049799993,0],[106.082776508,-6.00830982899993,0],[106.082779738,-6.00824429099993,0],[106.082808138,-6.00813262799994,0],[106.082816373,-6.00805195799995,0],[106.082816243,-6.00798605699993,0],[106.082816237,-6.00798306599995,0],[106.08281604,-6.00788355999993,0],[106.082816035,-6.00788056899995,0],[106.082818243,-6.00778804599997,0],[106.082825579,-6.00774496999998,0],[106.082842829,-6.00771569499994,0],[106.08286966,-6.00768991499996,0],[106.082922204,-6.00766525399996,0],[106.082974784,-6.00765813299995,0],[106.083021501,-6.00764166699997,0],[106.083061182,-6.00761352399996,0],[106.083114371,-6.00751970099998,0],[106.08310624,-6.00746751799994,0],[106.083074701,-6.00742561399994,0],[106.083028761,-6.00737274699998,0],[106.083025586,-6.00733451599996,0],[106.083025706,-6.00733303999993,0],[106.08302558,-6.00733152399994,0],[106.083028606,-6.00729431499997,0],[106.083028507,-6.00724459999998,0],[106.083009802,-6.00718676299994,0],[106.082978737,-6.00714652099992,0],[106.082920826,-6.00711046399994,0],[106.082808015,-6.00702417399998,0],[106.082699653,-6.00697682799995,0],[106.082604488,-6.00692681399994,0],[106.0825357,-6.00686089499993,0],[106.082506239,-6.00665221699995,0],[106.082471765,-6.00657830299997,0],[106.082450436,-6.00647529799994,0],[106.082430335,-6.00635189599996,0],[106.082430437,-6.00634956599993,0],[106.08243033,-6.00634890499992,0],[106.082444513,-6.00602437899994,0],[106.082443841,-6.00571692499994,0],[106.082426182,-6.00526187099996,0],[106.082424689,-6.00518593099997,0],[106.082424742,-6.00518590399997,0],[106.082424683,-6.00518293999994,0],[106.08255898,-6.00511541899994,0],[106.082395666,-6.00466994599998,0],[106.082396591,-6.00466949399993,0],[106.08239566,-6.00466695499995,0],[106.082789966,-6.00447398699993,0],[106.083144359,-6.00430983399997,0],[106.083340999,-6.00423174199994,0],[106.083387379,-6.00420454899995,0],[106.083416988,-6.00417609799996,0],[106.083423086,-6.00413653599998,0],[106.083423356,-6.00413478899998,0],[106.083411642,-6.00408189799998,0],[106.083367747,-6.00406004499996,0],[106.083236173,-6.00405256399995,0],[106.083106919,-6.00403057999995,0],[106.083057874,-6.00401390099995,0],[106.083030217,-6.00398633799995,0],[106.083029443,-6.00398556399995,0],[106.083121952,-6.00371906599997,0],[106.083277012,-6.00333942299994,0],[106.083447627,-6.00296683799996,0],[106.083631498,-6.00251848099998,0],[106.083632543,-6.00251593399997,0],[106.083692691,-6.00238109099996,0],[106.083908694,-6.00215386699995,0],[106.08398652,-6.00211059699996,0],[106.084016686,-6.00209906599997,0],[106.084560408,-6.00214795399995,0],[106.085077037,-6.00219440599994,0],[106.08531915,-6.00224159599998,0],[106.085856913,-6.00234641099996,0],[106.08675461,-6.00239085699997,0],[106.087196619,-6.00242452899994,0],[106.088007354,-6.00254348399994,0],[106.088008925,-6.00254330799993,0],[106.088032419,-6.00254067499998,0],[106.088032415,-6.00254094199994,0],[106.088032273,-6.00255514999998,0],[106.088030377,-6.00274520099993,0],[106.08803,-6.00278299999997,0],[106.088024,-6.00279599899994,0],[106.088032994,-6.00309478599996,0],[106.088033001,-6.00309499999997,0],[106.088047,-6.00355699999994,0],[106.088079,-6.00459699999993,0],[106.088090223,-6.00496974699996,0],[106.088092999,-6.00506200099994,0],[106.088132407,-6.00560688399997,0],[106.088144858,-6.00578079299993,0],[106.088146397,-6.00587375999993,0],[106.0881464,-6.00587393999996,0],[106.08815,-6.00611299999997,0],[106.088152,-6.00622899899997,0],[106.088157293,-6.00653191799995,0],[106.08816499,-6.00697236699995,0],[106.088165001,-6.00697299999996,0],[106.088169001,-6.00721399999998,0],[106.088134227,-6.00743257899995,0],[106.088134158,-6.00743301399996,0],[106.088107601,-6.00760174599998,0],[106.088085484,-6.00774226599998,0],[106.087871012,-6.00880287299998,0],[106.087848972,-6.00891186499996,0],[106.087725786,-6.00952104599997,0],[106.087659499,-6.00990554399993,0],[106.087474563,-6.01094603399997,0],[106.087035019,-6.01341901099994,0],[106.087031923,-6.01343643199993,0],[106.086914873,-6.01408913099993,0],[106.086914,-6.01409399999994,0],[106.086904707,-6.01415622899998,0],[106.086803507,-6.01486340399993,0],[106.086802477,-6.01487015099997,0],[106.086647296,-6.01588671899998,0],[106.086600057,-6.01619618099994,0],[106.086585,-6.01629699999995,0],[106.086513001,-6.01669100099997,0],[106.086508008,-6.01671858999993,0],[106.086283,-6.01796200099994,0],[106.086275864,-6.01799504599995,0],[106.086165213,-6.01850777699997,0],[106.086079523,-6.01890426399996,0],[106.085809001,-6.02015700099997,0],[106.085762953,-6.02047222599998,0],[106.085729363,-6.02070217299996,0],[106.085679855,-6.02104190499995,0],[106.085647133,-6.02126645099997,0],[106.085585391,-6.02169014699996,0],[106.085549091,-6.02193925099994,0],[106.085519105,-6.02214502699997,0],[106.085516616,-6.02216211099994,0],[106.085516476,-6.02278087899998,0],[106.085516001,-6.02334199999996,0],[106.085516905,-6.02338915699994,0],[106.085516908,-6.02338930199994,0],[106.085522752,-6.02369422599998,0],[106.085530447,-6.02409562599996,0],[106.085534001,-6.02428099999997,0],[106.085535261,-6.02435140799997,0],[106.085535373,-6.02435765399997,0],[106.085535379,-6.02435801099995,0],[106.085535949,-6.02438988899996,0],[106.085535989,-6.02439315699996,0],[106.085538039,-6.02456029199993,0],[106.085537013,-6.02476963099997,0],[106.085535325,-6.02511399399998,0],[106.085535269,-6.02512546599996,0],[106.085534102,-6.02536345199997,0],[106.085532433,-6.02570394099996,0],[106.085530029,-6.02619458899994,0],[106.085470262,-6.02701232099997,0],[106.085465003,-6.02708427499994,0],[106.085463352,-6.02711949799993,0],[106.085460704,-6.02717598699996,0],[106.085436431,-6.02746177199998,0],[106.085418993,-6.02766709099996,0],[106.085410444,-6.02774428099997,0],[106.085410288,-6.02774425899997,0],[106.085408963,-6.02774406799995,0],[106.085404018,-6.02780230199994,0],[106.085373031,-6.02834798799995,0],[106.085346562,-6.02881409499997,0],[106.085286716,-6.03079155999995,0],[106.085281533,-6.03094485199995,0],[106.085258566,-6.03162412599994,0],[106.085258561,-6.03162427199993,0],[106.085238,-6.03222600099997,0],[106.085235036,-6.03226972899995,0],[106.085185008,-6.03300781799993,0],[106.085184996,-6.03300799999994,0],[106.085143136,-6.03362153099994,0],[106.085103954,-6.03419574799995,0],[106.085098,-6.03428299999996,0],[106.085097821,-6.03429113799996,0],[106.085083001,-6.03496500099993,0],[106.085078598,-6.03516844399996,0],[106.085069795,-6.03557531099995,0],[106.085069239,-6.03560099699996,0],[106.085069001,-6.03561199999996,0],[106.085044876,-6.03560705199993,0],[106.084435726,-6.03525575899994,0],[106.083918957,-6.03598162899993,0],[106.083879261,-6.03599991099998,0],[106.083291819,-6.03627046399993,0],[106.083144043,-6.03647907599998,0],[106.0830667,-6.03661050799997,0],[106.083015456,-6.03670804199993,0],[106.082960296,-6.03688405499997,0],[106.082881196,-6.03708311199995,0],[106.082741036,-6.03730899099997,0],[106.082458421,-6.03775363499994,0],[106.082390613,-6.03771313799996,0],[106.082127334,-6.03751508399995,0],[106.082051625,-6.03746478099993,0],[106.081989647,-6.03742360199993,0],[106.081867991,-6.03731233699995,0],[106.081841166,-6.03726905299993,0],[106.081603554,-6.03718937799994,0],[106.080960126,-6.03695843999998,0],[106.079447462,-6.03906182199995,0],[106.079239446,-6.03915152199994,0],[106.079230363,-6.03916808799994,0],[106.079059519,-6.03947966299995,0],[106.078891472,-6.03967840199994,0],[106.078751401,-6.03982792199997,0],[106.078579786,-6.03999681899995,0],[106.078287477,-6.04025392399996,0],[106.078098254,-6.04037483299993,0],[106.077886063,-6.04044195599994,0],[106.077678871,-6.04034322199993,0],[106.076735574,-6.04018752199994,0],[106.07599814,-6.04006143899994,0],[106.076000358,-6.04005882799993,0],[106.076059919,-6.03998872899996,0],[106.076292849,-6.03968198299998,0],[106.076291568,-6.03968067299996,0],[106.075926987,-6.03930809599996,0],[106.075857041,-6.03925897199997,0],[106.075586437,-6.03906892499998,0],[106.075521213,-6.03863614899996,0],[106.074975599,-6.03872848199995,0],[106.074568561,-6.03879736499994,0],[106.074261775,-6.03884928199994,0],[106.074260558,-6.03885089999994,0],[106.074205417,-6.03892419399995,0],[106.07372738,-6.03916011999996,0],[106.072391861,-6.03981221299995,0],[106.072129828,-6.04000542799997,0],[106.072129604,-6.04000529299998,0],[106.07176007,-6.03978200499995,0],[106.071729131,-6.03980305099998,0],[106.071615627,-6.03988026299993,0],[106.071474415,-6.03996628599998,0],[106.070561583,-6.04063742699998,0],[106.071042047,-6.04092433499994,0],[106.071049675,-6.04092888999998,0],[106.070809213,-6.04115252399993,0],[106.070405933,-6.04152099299995,0],[106.070281105,-6.04163504599995,0],[106.070019241,-6.04147576799994,0],[106.069781578,-6.04172281299998,0],[106.069382147,-6.04212927699996,0],[106.069260297,-6.04219159599995,0],[106.068947736,-6.04255069399994,0],[106.068631754,-6.04291627199996,0],[106.068601315,-6.04295148899996,0],[106.06877583,-6.04304613399995,0],[106.068655139,-6.04314993599996,0],[106.068271533,-6.04321152999995,0],[106.067702599,-6.04379467899997,0],[106.067660297,-6.04378998299995,0],[106.067604625,-6.04378215999998,0],[106.06753417,-6.04377302699993,0],[106.067469384,-6.04376144199995,0],[106.067435197,-6.04375790899996,0],[106.067375819,-6.04375352099993,0],[106.06730025,-6.04374917399997,0],[106.067223782,-6.04374751599994,0],[106.067141939,-6.04375038099994,0],[106.067087088,-6.04376039199997,0],[106.067052035,-6.04377577399993,0],[106.06701168,-6.04380092499997,0],[106.066996363,-6.04381826699995,0],[106.066986851,-6.04384693999998,0],[106.066968734,-6.04390166899998,0],[106.066948072,-6.04395763299993,0],[106.066908784,-6.04403392799998,0],[106.06683347,-6.04404867999995,0],[106.066776049,-6.04407530899994,0],[106.066749178,-6.04408112999994,0],[106.066711708,-6.04408924799998,0],[106.06664909,-6.04410745199993,0],[106.066611745,-6.04413920499996,0],[106.066510435,-6.04424613899994,0],[106.066500768,-6.04436182399996,0],[106.066497439,-6.04438381899996,0],[106.066472392,-6.04439866299998,0],[106.06645093,-6.04440116799998,0],[106.066408196,-6.04439633999993,0],[106.066330441,-6.04437289199996,0],[106.066301401,-6.04436971099994,0],[106.066235373,-6.04437590499998,0],[106.066183039,-6.04440009999996,0],[106.066148568,-6.04442962699994,0],[106.066123391,-6.04447757099996,0],[106.066096374,-6.04453875399997,0],[106.066080936,-6.04455819899994,0],[106.066060897,-6.04456216199998,0],[106.066037469,-6.04456141199995,0],[106.066032635,-6.04455944399996,0],[106.065988723,-6.04454157299995,0],[106.065951958,-6.04453499999994,0],[106.065914711,-6.04452322599997,0],[106.065878784,-6.04457482299995,0],[106.065839913,-6.04463064699996,0],[106.065832451,-6.04463960099997,0],[106.065677488,-6.04482556299996,0],[106.065621427,-6.04491439699996,0],[106.065548458,-6.04496998399998,0],[106.065495292,-6.04499102199998,0],[106.065447336,-6.04500999899994,0],[106.065360226,-6.04502996399998,0],[106.06530963,-6.04509010299995,0],[106.065295567,-6.04512161299994,0],[106.06528428,-6.04521041599997,0],[106.065270172,-6.04527913599998,0],[106.065252476,-6.04533675599993,0],[106.065252393,-6.04533702599997,0],[106.065252227,-6.04533756699993,0],[106.065449357,-6.04541038099995,0],[106.065672176,-6.04549305699993,0],[106.06563737,-6.04553599899998,0],[106.065620753,-6.04555649999998,0],[106.065563899,-6.04561764399995,0],[106.065557194,-6.04562485499997,0],[106.065543534,-6.04563954599996,0],[106.065527758,-6.04565230599997,0],[106.06551517,-6.04566248799995,0],[106.06547125,-6.04569801099996,0],[106.065350936,-6.04579392099993,0],[106.065311971,-6.04584461199994,0],[106.065288257,-6.04587565499997,0],[106.065268727,-6.04590122099995,0],[106.065265309,-6.04590922999995,0],[106.065348118,-6.04598489999995,0],[106.065408804,-6.04604804199994,0],[106.065439107,-6.04610525999993,0],[106.065444821,-6.04611069399994,0],[106.065621467,-6.04627868399996,0],[106.0656204,-6.04627967599993,0],[106.065619335,-6.04628066599997,0],[106.065575698,-6.04632956399996,0],[106.065501044,-6.04641321999998,0],[106.065306863,-6.04658705399993,0],[106.065112777,-6.04680906899995,0],[106.065043386,-6.04678029599995,0],[106.064914194,-6.04670153199993,0],[106.064765992,-6.04649942399993,0],[106.064730739,-6.04645134799995,0],[106.064546878,-6.04657119199993,0],[106.064441,-6.04659645399994,0],[106.064331637,-6.04666202299995,0],[106.064331494,-6.04666210899995,0],[106.064331349,-6.04666219599994,0],[106.064292853,-6.04667383399993,0],[106.064277366,-6.04663339199993,0],[106.064175118,-6.04654493899994,0],[106.064039709,-6.04649033399994,0],[106.063537026,-6.04712510699994,0],[106.062979154,-6.04784379799997,0],[106.062729245,-6.04817812099998,0],[106.062604243,-6.04835695199995,0],[106.062545105,-6.04845232399992,0],[106.062488057,-6.04859745299996,0],[106.062438816,-6.04872843499993,0],[106.062387494,-6.04881512099996,0],[106.06227192,-6.04896760399993,0],[106.062265585,-6.04908160699995,0],[106.062262634,-6.04912901399996,0],[106.062258673,-6.04919264699993,0],[106.062257612,-6.04923211599993,0],[106.062254691,-6.04934081299996,0],[106.062239612,-6.04940485199995,0],[106.062169258,-6.04948921399995,0],[106.062139766,-6.04954215599997,0],[106.062124534,-6.04962359399997,0],[106.062103924,-6.04969050999995,0],[106.062076203,-6.04974393099997,0],[106.062035494,-6.04980301899997,0],[106.062002667,-6.04984919799995,0],[106.061981932,-6.04989299199997,0],[106.06197792,-6.04993394199994,0],[106.061984524,-6.04999237399994,0],[106.062020639,-6.05017568199997,0],[106.062047822,-6.05036021699993,0],[106.06205869,-6.05041191399994,0],[106.062076859,-6.05045009899993,0],[106.062253902,-6.05052957199996,0],[106.062559118,-6.05058367699996,0],[106.062611681,-6.05059367599995,0],[106.062903063,-6.05064910299996,0],[106.06304528,-6.05069177599995,0],[106.063144563,-6.05072156699993,0],[106.063102797,-6.05085030999993,0],[106.062836752,-6.05167038799993,0],[106.062741774,-6.05200791699997,0],[106.062637429,-6.05220870699998,0],[106.062510432,-6.05246880299995,0],[106.062437501,-6.05243702599995,0],[106.062256072,-6.05280664299994,0],[106.062216596,-6.05286258699994,0],[106.062123007,-6.05299521599994,0],[106.061965521,-6.05326763599993,0],[106.061575586,-6.05307314099997,0],[106.061232796,-6.05289541299993,0],[106.061187587,-6.05295861399998,0],[106.061128688,-6.05307706699995,0],[106.061034385,-6.05323306399993,0],[106.06097141,-6.05328249499996,0],[106.060920387,-6.05339698799997,0],[106.060854892,-6.05360251999997,0],[106.060839926,-6.05364948499994,0],[106.060682376,-6.05388190899993,0],[106.060556529,-6.05403402299993,0],[106.060491794,-6.05419193399996,0],[106.06033226,-6.05439097199996,0],[106.060314993,-6.05443566099996,0],[106.060245768,-6.05453503099994,0],[106.060097504,-6.05478588799997,0],[106.060038114,-6.05484306399995,0],[106.059988772,-6.05496720399998,0],[106.059964091,-6.05502431199994,0],[106.059833118,-6.05524288399994,0],[106.059758998,-6.05537451399994,0],[106.059678186,-6.05549278099994,0],[106.059540576,-6.05569416699996,0],[106.059441712,-6.05585065499997,0],[106.059315547,-6.05599231099995,0],[106.059163024,-6.05629187399995,0],[106.059109729,-6.05634875899995,0],[106.059027863,-6.05630299299997,0],[106.058915278,-6.05645175799998,0],[106.05882495,-6.05659840699997,0],[106.058727584,-6.05671019499994,0],[106.058646545,-6.05685450099998,0],[106.058556149,-6.05696627499998,0],[106.05851214,-6.05703610999996,0],[106.058468081,-6.05708036999994,0],[106.058366217,-6.05726889099998,0],[106.058288633,-6.05745267699996,0],[106.058185858,-6.05757987199996,0],[106.058109947,-6.05770103899994,0],[106.057946146,-6.05792546699996,0],[106.05781949,-6.05816273599993,0],[106.057645357,-6.05843369499996,0],[106.057521866,-6.05867072799998,0],[106.057458202,-6.05876857499993,0],[106.057307819,-6.05910656799995,0],[106.057133773,-6.05942262999997,0],[106.057000716,-6.05956947399994,0],[106.056934629,-6.05967804199997,0],[106.056844837,-6.05986050999996,0],[106.056732595,-6.06008812399995,0],[106.056659621,-6.06022733399993,0],[106.05663145,-6.06022738899998,0],[106.056627738,-6.06024994799998,0],[106.056610959,-6.06031387699994,0],[106.056577333,-6.06040602799993,0],[106.056571871,-6.06049436599994,0],[106.05652677,-6.06060671599994,0],[106.056470607,-6.06069891099997,0],[106.056356381,-6.06087202899994,0],[106.056264678,-6.06103758599994,0],[106.056204523,-6.06118334899998,0],[106.056116583,-6.06137092599994,0],[106.056060602,-6.06149033399993,0],[106.056034324,-6.06154638599997,0],[106.055978809,-6.06172818199997,0],[106.055881642,-6.06168493199993,0],[106.055471576,-6.06151367699994,0],[106.055458078,-6.06150184699993,0],[106.055365303,-6.06142053599996,0],[106.055326792,-6.06136936099995,0],[106.05531665,-6.06135695699993,0],[106.055286454,-6.06132001999993,0],[106.055171036,-6.06122689699993,0],[106.055018928,-6.06107893499995,0],[106.054963996,-6.06104975599993,0],[106.054870659,-6.06099880799997,0],[106.054760098,-6.06096373699995,0],[106.054733189,-6.06094310699996,0],[106.054652973,-6.06088160999997,0],[106.054538859,-6.06083243099994,0],[106.054461186,-6.06078435699993,0],[106.054381698,-6.06071346199997,0],[106.054334616,-6.06068061999997,0],[106.054280509,-6.06066190599995,0],[106.054238188,-6.06065963599997,0],[106.05416401,-6.06059508799996,0],[106.054056788,-6.06046355999996,0],[106.054047303,-6.06042123499998,0],[106.053963168,-6.06030072699997,0],[106.053890222,-6.06026558199994,0],[106.053839639,-6.06024568499993,0],[106.053770162,-6.06018112799995,0],[106.053733963,-6.06014437499994,0],[106.053268902,-6.06103233099998,0],[106.053242836,-6.06122902399994,0]]]]}}]}