{"type":"FeatureCollection","name":"Kecamatan Cilegon","crs":{"type":"name","properties":{"name":"urn:ogc:def:crs:OGC:1.3:CRS84"}},"features":[{"type":"Feature","properties":{"kode_kec":"36.72.02","kode_kk":"36.72","kode_prov":"36","kecamatan":"Cilegon","kab_kota":"Kota Cilegon","provinsi":"Banten","fid":"36.72.02","nama":"Kecamatan Cilegon","label":"Kecamatan Cilegon, Kota Cilegon, Provinsi Banten, 36.72.02"},"geometry":{"type":"MultiPolygon","coordinates":[[[[106.036786008,-6.04298563599997,0],[106.03667456,-6.04317121299994,0],[106.037173424,-6.04346109099993,0],[106.038043585,-6.04389354799997,0],[106.038443123,-6.04409495699997,0],[106.038668923,-6.04422793099997,0],[106.038697021,-6.04427341899998,0],[106.038698913,-6.04434698699993,0],[106.038702545,-6.04441529499996,0],[106.038713203,-6.04449585199995,0],[106.038750113,-6.04457110299995,0],[106.03882333,-6.04470896399994,0],[106.0388455,-6.04477288799995,0],[106.038845616,-6.04483464899994,0],[106.038810422,-6.04487662499997,0],[106.038706883,-6.04491873399996,0],[106.038656223,-6.04494309299997,0],[106.038647484,-6.04498501899997,0],[106.038663047,-6.04505336799997,0],[106.038703211,-6.04510326699994,0],[106.038736892,-6.04511297999994,0],[106.038794446,-6.04511504299995,0],[106.038847666,-6.04512254499997,0],[106.038880279,-6.04514203899993,0],[106.038926977,-6.04514629499994,0],[106.03899543,-6.04517006399993,0],[106.039054148,-6.04521340699995,0],[106.039094358,-6.04523071299997,0],[106.039143279,-6.04526103899997,0],[106.03924486,-6.04528299999993,0],[106.039300273,-6.04530136099993,0],[106.039354627,-6.04533384899997,0],[106.039395971,-6.04537613999997,0],[106.039574875,-6.04553476599995,0],[106.03974455,-6.04570664899995,0],[106.039917899,-6.04586826099995,0],[106.040006889,-6.04594863999995,0],[106.040095935,-6.04605679499997,0],[106.040134989,-6.04610393999997,0],[106.040040023,-6.04619009099997,0],[106.039975627,-6.04621477699993,0],[106.0398268,-6.04621813199998,0],[106.039625823,-6.04623079599997,0],[106.039466842,-6.04626200999996,0],[106.039311909,-6.04628226399996,0],[106.039181534,-6.04630554099998,0],[106.039045002,-6.04631961799993,0],[106.038943632,-6.04626608199993,0],[106.038829279,-6.04612439099998,0],[106.038698974,-6.04597981599994,0],[106.038581023,-6.04588185699993,0],[106.038529431,-6.04584513499998,0],[106.038397361,-6.04606139599997,0],[106.038272579,-6.04624082199996,0],[106.038198825,-6.04636218999997,0],[106.038154926,-6.04649973099993,0],[106.038128321,-6.04670106299994,0],[106.037941558,-6.04676613499993,0],[106.037762884,-6.04686089499995,0],[106.037622025,-6.04705348399995,0],[106.037477522,-6.04739129999996,0],[106.037446455,-6.04749686399992,0],[106.03740553,-6.04769250999993,0],[106.037282077,-6.04792136899994,0],[106.037141645,-6.04814328899994,0],[106.037040038,-6.04827845199998,0],[106.037243908,-6.04835243299993,0],[106.037568974,-6.04845648299994,0],[106.037907738,-6.04852469899993,0],[106.038100232,-6.04855637899993,0],[106.03835186,-6.04862097499995,0],[106.038551505,-6.04871170099995,0],[106.038710012,-6.04883287499996,0],[106.038850208,-6.04893935799993,0],[106.0390477,-6.04903876399993,0],[106.039119725,-6.04906291899994,0],[106.039118161,-6.04913808799995,0],[106.039109762,-6.04920985399997,0],[106.039084288,-6.04928336199993,0],[106.039036701,-6.04939961899993,0],[106.038981858,-6.04950660999998,0],[106.038944458,-6.04959209699996,0],[106.038886608,-6.04969983299998,0],[106.038844038,-6.04976141399993,0],[106.038787822,-6.04982985599997,0],[106.038971903,-6.04995890099997,0],[106.03907559,-6.05003538799997,0],[106.039229063,-6.05012792499997,0],[106.039288326,-6.05017758899993,0],[106.039544579,-6.05037657699995,0],[106.039598425,-6.05040741799996,0],[106.039610865,-6.05042235399998,0],[106.039638125,-6.05047363399996,0],[106.039624662,-6.05053555799998,0],[106.039623245,-6.05058387199995,0],[106.039644466,-6.05063365199993,0],[106.039691323,-6.05067583399995,0],[106.039762312,-6.05071042099996,0],[106.03986948,-6.05072682299993,0],[106.039963048,-6.05073268199993,0],[106.040083767,-6.05073245099993,0],[106.040151654,-6.05072477199997,0],[106.040207421,-6.05068994199996,0],[106.040251164,-6.05068230999996,0],[106.040442581,-6.05075252699993,0],[106.040734691,-6.05083645699995,0],[106.040908591,-6.05093026799995,0],[106.041105005,-6.05101984799995,0],[106.041235467,-6.05110891499993,0],[106.041399687,-6.05118584899998,0],[106.041508336,-6.05122426299994,0],[106.041626604,-6.05124576199995,0],[106.041711154,-6.05129870899998,0],[106.041800542,-6.05135888699994,0],[106.04189919,-6.05138524499995,0],[106.041971087,-6.05144495499997,0],[106.042078898,-6.05151656499993,0],[106.042177068,-6.05155228499996,0],[106.042213008,-6.05157854999993,0],[106.042067489,-6.05180625299994,0],[106.04204369,-6.05187332699995,0],[106.04202947,-6.05194517099994,0],[106.042000082,-6.05205823199998,0],[106.041975694,-6.05211483599993,0],[106.041928588,-6.05211681099996,0],[106.041866322,-6.05207357199993,0],[106.041843681,-6.05205853199993,0],[106.041792818,-6.05206617099998,0],[106.041726883,-6.05207572399996,0],[106.041672285,-6.05210033699996,0],[106.041653618,-6.05219275199994,0],[106.041653759,-6.05226627699994,0],[106.041646329,-6.05232284999994,0],[106.041618172,-6.05237946299997,0],[106.041586499,-6.05244466699997,0],[106.041580756,-6.05249612499995,0],[106.04158553,-6.05254873099994,0],[106.04159269,-6.05262588999994,0],[106.041591625,-6.05269898199998,0],[106.041578914,-6.05277383899994,0],[106.041547513,-6.05285457699995,0],[106.041494963,-6.05287572499998,0],[106.041441195,-6.05287115199997,0],[106.041404953,-6.05286420499993,0],[106.041274238,-6.05285900399997,0],[106.041201198,-6.05282264099998,0],[106.041138393,-6.05279647899994,0],[106.041078556,-6.05279659299993,0],[106.041026073,-6.05282589599994,0],[106.040988227,-6.05287707399998,0],[106.040959182,-6.05295159599996,0],[106.040951976,-6.05299979399996,0],[106.04095201,-6.05301731499998,0],[106.040982772,-6.05307712299998,0],[106.041047087,-6.05312956399996,0],[106.041086566,-6.05316891099994,0],[106.041107107,-6.05322581699994,0],[106.041123186,-6.05330381299996,0],[106.041123317,-6.05337243999998,0],[106.041123498,-6.05346734699998,0],[106.041115089,-6.05356186599994,0],[106.041115194,-6.05361702399995,0],[106.041096926,-6.05367405899995,0],[106.041038214,-6.05372565399995,0],[106.040961066,-6.05374418699995,0],[106.040911467,-6.05375531499993,0],[106.040867387,-6.05376827099997,0],[106.040803031,-6.05380085099995,0],[106.040755659,-6.05383189099996,0],[106.040697956,-6.05385263299996,0],[106.040650611,-6.05389811399994,0],[106.040594986,-6.05392710699994,0],[106.040526944,-6.05393342699995,0],[106.040463023,-6.05393767599998,0],[106.040415603,-6.05394395699994,0],[106.040362045,-6.05397500999993,0],[106.040291537,-6.05404602399994,0],[106.040246281,-6.05410594499995,0],[106.040207142,-6.05412871599998,0],[106.040093707,-6.05412274299994,0],[106.040033839,-6.05408984599995,0],[106.039888216,-6.05395638499994,0],[106.039795419,-6.05380477599994,0],[106.039728602,-6.05369384299996,0],[106.039606323,-6.05360522499996,0],[106.039484193,-6.05359435299994,0],[106.039236374,-6.05364665699994,0],[106.039051396,-6.05366552299995,0],[106.038884728,-6.05358439499997,0],[106.038762449,-6.05349577899995,0],[106.038619805,-6.05339087499993,0],[106.038541403,-6.05337279099996,0],[106.038437526,-6.05337481399994,0],[106.038379224,-6.05338404199995,0],[106.038245398,-6.05343899899998,0],[106.038145215,-6.05346654199997,0],[106.038026796,-6.05348864899997,0],[106.037961187,-6.05348877499995,0],[106.037895585,-6.05349254599997,0],[106.037789241,-6.05350556999997,0],[106.037665312,-6.05350580599998,0],[106.037552327,-6.05350966899994,0],[106.03744118,-6.05352264599998,0],[106.037346834,-6.05355372999998,0],[106.037286586,-6.05357107599997,0],[106.03721344,-6.05359849899997,0],[106.037138887,-6.05364028399993,0],[106.037103062,-6.05367050899997,0],[106.037088765,-6.05369925499997,0],[106.037085996,-6.05375238999994,0],[106.037067425,-6.05379837499993,0],[106.037017245,-6.05382575399994,0],[106.036978508,-6.05383444399996,0],[106.036885973,-6.05389040299997,0],[106.036867866,-6.05390353799993,0],[106.036856683,-6.05396314099994,0],[106.03685554,-6.05402913099994,0],[106.036877198,-6.05407858099994,0],[106.036922902,-6.05410133499993,0],[106.036957256,-6.05415710499994,0],[106.036961221,-6.05424085299995,0],[106.036939768,-6.05435723599993,0],[106.036894388,-6.05450579799998,0],[106.036850074,-6.05454648899996,0],[106.036737243,-6.05457589099996,0],[106.036600251,-6.05457234699998,0],[106.036495654,-6.05453424499996,0],[106.036425846,-6.05451026699996,0],[106.03636241,-6.05450150499996,0],[106.036231963,-6.05444157699998,0],[106.036137686,-6.05441938499996,0],[106.036054638,-6.05442273799997,0],[106.035993969,-6.05443563799997,0],[106.03592692,-6.05445334499996,0],[106.035855075,-6.05446786299996,0],[106.035794439,-6.05449834099994,0],[106.035729002,-6.05452403399994,0],[106.03564439,-6.05454337099997,0],[106.035592485,-6.05456621599996,0],[106.035549403,-6.05458867099998,0],[106.035528736,-6.05463984399995,0],[106.035528898,-6.05472453599998,0],[106.035529592,-6.05492948099993,0],[106.035536103,-6.05499338699997,0],[106.035541166,-6.05515224999994,0],[106.035546067,-6.05520976799994,0],[106.035535064,-6.05530247199994,0],[106.035498467,-6.05537604699992,0],[106.035452225,-6.05541608499993,0],[106.03538051,-6.05548180799997,0],[106.035321849,-6.05552280199993,0],[106.035281097,-6.05558164699994,0],[106.035255676,-6.05564301899994,0],[106.035232896,-6.05575037699998,0],[106.035182013,-6.05585267799995,0],[106.035131067,-6.05592176399995,0],[106.035085161,-6.05595506799995,0],[106.034913339,-6.05606347999998,0],[106.034790817,-6.05609692999997,0],[106.034676029,-6.05616869199997,0],[106.034584221,-6.05623785499995,0],[106.034512848,-6.05630953399998,0],[106.034423643,-6.05640424299997,0],[106.034334075,-6.05653063999995,0],[106.034270431,-6.05663807599996,0],[106.034214412,-6.05672505699994,0],[106.034168573,-6.05679413299993,0],[106.034122677,-6.05683254699994,0],[106.034069708,-6.05692561299998,0],[106.03399741,-6.05698209499997,0],[106.033941182,-6.05702848199996,0],[106.033895016,-6.05707686399995,0],[106.033866942,-6.05712118599996,0],[106.033834386,-6.05719437999994,0],[106.033814431,-6.05727691999994,0],[106.033814601,-6.05736545799994,0],[106.03381882,-6.05747008499998,0],[106.03378278,-6.05755466799997,0],[106.033738654,-6.05761914099998,0],[106.033690531,-6.05769569899996,0],[106.033660525,-6.05778228199995,0],[106.033675054,-6.05793436099998,0],[106.033709459,-6.05804697999997,0],[106.033717696,-6.05814757499996,0],[106.033723941,-6.05825823699996,0],[106.033734143,-6.05833468199995,0],[106.033746577,-6.05847671199996,0],[106.03375878,-6.05854711699993,0],[106.033791081,-6.05861144599993,0],[106.033817358,-6.05867981099993,0],[106.033803394,-6.05874020499994,0],[106.033765345,-6.05882680299993,0],[106.033690671,-6.05897654599994,0],[106.033620448,-6.05906722999993,0],[106.033566255,-6.05912568799994,0],[106.033503761,-6.05918636699994,0],[106.033421375,-6.05922676799997,0],[106.033369241,-6.05930936999994,0],[106.03333722,-6.05939394399996,0],[106.033287134,-6.05949666299995,0],[106.033220859,-6.05954709499997,0],[106.033123268,-6.05956211799997,0],[106.033060923,-6.05956424899995,0],[106.033012676,-6.05957641499998,0],[106.032968547,-6.05963887699994,0],[106.032930439,-6.05969529199996,0],[106.0328822,-6.05971148099997,0],[106.03285811,-6.05973567499996,0],[106.0328562,-6.05978799599995,0],[106.032852284,-6.05984434599998,0],[106.03280817,-6.05991485799996,0],[106.032729838,-6.05997134999996,0],[106.032604987,-6.06004897399993,0],[106.032560858,-6.06011143799998,0],[106.032506741,-6.06021013999998,0],[106.032484812,-6.06031280599996,0],[106.032456873,-6.06042755599998,0],[106.032418804,-6.06050409299996,0],[106.03234044,-6.06054448599997,0],[106.032286141,-6.06054660299998,0],[106.032226809,-6.06059794699996,0],[106.032188716,-6.06066241099995,0],[106.032136634,-6.06077318299998,0],[106.032072385,-6.06083165999996,0],[106.031981878,-6.06083183199996,0],[106.031887317,-6.06081591299994,0],[106.031800817,-6.06080802999998,0],[106.031700234,-6.06079815999993,0],[106.031603699,-6.06080035599996,0],[106.031511172,-6.06079650699996,0],[106.031432758,-6.06081074299993,0],[106.031378517,-6.06084304099994,0],[106.031277344,-6.06093218499996,0],[106.031178909,-6.06099474999996,0],[106.03106033,-6.06103924499996,0],[106.030927606,-6.06104955899997,0],[106.030806933,-6.06105179999997,0],[106.03072646,-6.06103987999995,0],[106.030666022,-6.06098767699996,0],[106.030568586,-6.06093165699997,0],[106.030516225,-6.06089553699996,0],[106.030425705,-6.06088967299996,0],[106.030335225,-6.06090392899995,0],[106.030241349,-6.06103862399993,0],[106.03016581,-6.06116874599996,0],[106.030194844,-6.06125534499995,0],[106.03019507,-6.06137449299996,0],[106.030170028,-6.06149007699997,0],[106.030040234,-6.06155531399997,0],[106.029950171,-6.06163852699996,0],[106.029845783,-6.06172386899993,0],[106.029784034,-6.06176788899995,0],[106.029732294,-6.06182984699996,0],[106.029706517,-6.06190971599995,0],[106.029708669,-6.06199352199997,0],[106.029686873,-6.06206939299994,0],[106.029638832,-6.06219413099996,0],[106.029657018,-6.06231781699995,0],[106.02965933,-6.06248543499993,0],[106.029659477,-6.06256325999993,0],[106.029641872,-6.06278994599995,0],[106.029642149,-6.06293561699994,0],[106.029598468,-6.06304146299993,0],[106.029489393,-6.06319990899993,0],[106.029402171,-6.06323590399995,0],[106.029352989,-6.06326734599998,0],[106.029310589,-6.06333460499997,0],[106.029268191,-6.06340186399996,0],[106.029190092,-6.06349423099994,0],[106.029156701,-6.06359058299995,0],[106.02916137,-6.06369134099998,0],[106.029170487,-6.06377865499996,0],[106.02918635,-6.06388163099996,0],[106.029213227,-6.06399895799996,0],[106.029202244,-6.06410870299993,0],[106.029150969,-6.06421628499993,0],[106.029063207,-6.06427870499994,0],[106.029010405,-6.06431936399997,0],[106.028973513,-6.06438468499994,0],[106.028940151,-6.06445352599997,0],[106.028892617,-6.06448359399997,0],[106.028838018,-6.06450662399993,0],[106.028746547,-6.06460555299998,0],[106.028720599,-6.06468784499998,0],[106.028674135,-6.06476565399993,0],[106.028627636,-6.06482570099996,0],[106.028590088,-6.06492347999995,0],[106.028599106,-6.06499674499997,0],[106.028646022,-6.06514431899996,0],[106.028672851,-6.06524641899995,0],[106.028681919,-6.06534633099994,0],[106.028679829,-6.06541517299996,0],[106.028644484,-6.06550406699995,0],[106.028609126,-6.06558629799997,0],[106.028589288,-6.06565961799993,0],[106.028593436,-6.06576286399996,0],[106.028586882,-6.06581839299997,0],[106.028538194,-6.06589398799997,0],[106.02849835,-6.06595179999994,0],[106.028456296,-6.06601405799995,0],[106.028409764,-6.06605633799995,0],[106.028334283,-6.06611671099995,0],[106.028265521,-6.06614126899996,0],[106.028221227,-6.06619242699998,0],[106.028196923,-6.06625243099995,0],[106.02819707,-6.06633015399996,0],[106.028199433,-6.06640565199996,0],[106.028190599,-6.06657559499996,0],[106.028190801,-6.06668218699997,0],[106.028153296,-6.06680217199994,0],[106.028097944,-6.06687555899993,0],[106.028013704,-6.06693123399998,0],[106.027922796,-6.06698248199996,0],[106.027762628,-6.06705475899997,0],[106.027707262,-6.06712148299994,0],[106.027654186,-6.06722373399998,0],[106.02763006,-6.06737700399998,0],[106.027621371,-6.06747694999996,0],[106.027615173,-6.06775971199994,0],[106.027602073,-6.06787520999995,0],[106.027606702,-6.06797513099997,0],[106.027597566,-6.06809191399998,0],[106.027566621,-6.06816081399995,0],[106.027513516,-6.06824751999994,0],[106.027469275,-6.06832754699997,0],[106.027378509,-6.06845429599997,0],[106.027318655,-6.06849438199993,0],[106.027234385,-6.06853451399996,0],[106.027127593,-6.06857764199998,0],[106.027036612,-6.06858891799993,0],[106.026923341,-6.06864042999996,0],[106.026824006,-6.06866192299998,0],[106.026745938,-6.06866917199994,0],[106.026646798,-6.06879363799993,0],[106.026643438,-6.06889306499994,0],[106.026654307,-6.06901021899995,0],[106.026661722,-6.06917709099997,0],[106.026676092,-6.06926938399994,0],[106.026725418,-6.06945917199994,0],[106.026750518,-6.06959405499992,0],[106.026708212,-6.06974326599993,0],[106.026626723,-6.06981798699996,0],[106.026452876,-6.06985027199994,0],[106.026296741,-6.06986477199996,0],[106.02611211,-6.06987341299993,0],[106.025924917,-6.06979599799996,0],[106.025835029,-6.06979130899992,0],[106.025759775,-6.06981818299994,0],[106.025655551,-6.06993989599994,0],[106.025602266,-6.07002262699996,0],[106.025587814,-6.07008827199996,0],[106.025583096,-6.07016118999996,0],[106.025531766,-6.07031540099996,0],[106.025488246,-6.07042484799996,0],[106.025449559,-6.07051970199996,0],[106.025418214,-6.07064370499995,0],[106.02541358,-6.07076279899997,0],[106.025399176,-6.07085274599996,0],[106.025424121,-6.07114579799998,0],[106.025448733,-6.07132618899993,0],[106.025475578,-6.07139175699996,0],[106.025521892,-6.07147672899993,0],[106.025524533,-6.07158851799994,0],[106.025510151,-6.07169061699994,0],[106.025512718,-6.07176352099998,0],[106.025524939,-6.07180238299998,0],[106.025551688,-6.07186118799996,0],[106.025595469,-6.07189026899994,0],[106.025648925,-6.07189745799997,0],[106.025682947,-6.07190468499994,0],[106.025704888,-6.07194595799996,0],[106.025690424,-6.07200431299998,0],[106.025637008,-6.07201899499995,0],[106.025569001,-6.07202398499993,0],[106.025513153,-6.07203624199997,0],[106.025471967,-6.07209464599993,0],[106.025450252,-6.07217245799995,0],[106.025454779,-6.07224100499997,0],[106.025415999,-6.07228725399995,0],[106.025343169,-6.07231169399995,0],[106.025270313,-6.07232155499997,0],[106.025212086,-6.07236054999993,0],[106.025161133,-6.07239223899995,0],[106.025105335,-6.07243122999995,0],[106.025037386,-6.07246781299995,0],[106.024956664,-6.07254201499995,0],[106.024910653,-6.07261744299996,0],[106.024851683,-6.07268979099996,0],[106.024739203,-6.07277549599996,0],[106.024646122,-6.07284950399998,0],[106.024568608,-6.07293902999993,0],[106.024491122,-6.07304409599993,0],[106.024433028,-6.07313358399995,0],[106.024437053,-6.07320740799997,0],[106.024487656,-6.07326560299992,0],[106.024557645,-6.07330432999993,0],[106.024619858,-6.07333918499995,0],[106.024724739,-6.07339096999993,0],[106.024767524,-6.07342197599996,0],[106.024775461,-6.07351133799995,0],[106.024732934,-6.07361633999994,0],[106.02465158,-6.07372918599998,0],[106.024554672,-6.07383429099997,0],[106.024492686,-6.07391989899997,0],[106.024481174,-6.07399375499995,0],[106.024504612,-6.07406365799994,0],[106.024566854,-6.07411405799996,0],[106.024664055,-6.07416438899998,0],[106.024796367,-6.07429626299995,0],[106.024848973,-6.07439434399993,0],[106.024865516,-6.07449249199993,0],[106.024843966,-6.07462888899994,0],[106.02477602,-6.07473537799996,0],[106.024686171,-6.07479281899998,0],[106.024593592,-6.07484753699993,0],[106.02452279,-6.07488585199997,0],[106.024468395,-6.07495140699996,0],[106.024452148,-6.07500870699994,0],[106.024466204,-6.07514613899997,0],[106.024469113,-6.07524431099995,0],[106.024488443,-6.07537517899993,0],[106.024502283,-6.07548696699996,0],[106.024516058,-6.07556330199998,0],[106.02454069,-6.07561507199995,0],[106.024647594,-6.07578224399998,0],[106.024705065,-6.07590212899993,0],[106.024770855,-6.07609563399996,0],[106.024782051,-6.07625105999995,0],[106.024835743,-6.07642893699995,0],[106.024885294,-6.07652119599993,0],[106.0249586,-6.07668857799996,0],[106.024986837,-6.07686249099993,0],[106.025015175,-6.07706114399997,0],[106.025019682,-6.07717281599997,0],[106.025049918,-6.07726940599997,0],[106.025176923,-6.07733629899997,0],[106.025258574,-6.07737480399993,0],[106.025312414,-6.07746490599993,0],[106.025336215,-6.07756365599994,0],[106.025364245,-6.07762803499998,0],[106.02539867,-6.07766877499995,0],[106.025428881,-6.07775033299993,0],[106.025433275,-6.07780401599996,0],[106.025373498,-6.07787211399994,0],[106.025261987,-6.07793675699997,0],[106.024939348,-6.07812004799996,0],[106.024604891,-6.07835263599998,0],[106.024489037,-6.07838936699994,0],[106.024342453,-6.07845491399996,0],[106.024224577,-6.07855822799996,0],[106.024143117,-6.07862066599995,0],[106.023990854,-6.07870922199993,0],[106.023940203,-6.07874483499995,0],[106.023918295,-6.07878208899996,0],[106.023933611,-6.07883449399998,0],[106.023984396,-6.07886991599997,0],[106.024048733,-6.07891884299994,0],[106.024089425,-6.07897965799998,0],[106.024118292,-6.07904664799997,0],[106.024121837,-6.07913290199997,0],[106.024103379,-6.07920735899995,0],[106.024079814,-6.07926152699997,0],[106.024025641,-6.07946537099997,0],[106.023983248,-6.07956342599994,0],[106.023936553,-6.07963805999998,0],[106.023903857,-6.07968732699993,0],[106.023872867,-6.07973402299996,0],[106.023732256,-6.07988016699994,0],[106.023645106,-6.07995274899997,0],[106.023574114,-6.08010321399996,0],[106.023549317,-6.08010023599996,0],[106.02340297,-6.08017129099994,0],[106.022934841,-6.08006030099995,0],[106.022927313,-6.08006563599997,0],[106.022899464,-6.08007087699997,0],[106.022878466,-6.08007131499994,0],[106.022839118,-6.08006559699993,0],[106.022818449,-6.08005677699992,0],[106.022730493,-6.07998818399994,0],[106.022506038,-6.07980420799993,0],[106.022350762,-6.07968994999993,0],[106.022078047,-6.07948091599997,0],[106.021920468,-6.07931313599994,0],[106.021824572,-6.07917885199993,0],[106.021562392,-6.07888029399993,0],[106.021476898,-6.07875990099996,0],[106.021310261,-6.07855233299995,0],[106.021181186,-6.07836348999996,0],[106.021180254,-6.07836032799997,0],[106.021164613,-6.07830728599993,0],[106.021127662,-6.07831913199993,0],[106.021007784,-6.07835756299994,0],[106.020854193,-6.07836689799996,0],[106.020736693,-6.07834902999997,0],[106.020582932,-6.07826791699995,0],[106.020573879,-6.07825888899993,0],[106.020447259,-6.07819581399997,0],[106.020358021,-6.07816919899994,0],[106.020286233,-6.07808862099995,0],[106.020351203,-6.07795455199994,0],[106.020533871,-6.07757760799996,0],[106.020552075,-6.07755061999995,0],[106.020727011,-6.07729127299996,0],[106.021048942,-6.07682942299994,0],[106.021250958,-6.07635857399993,0],[106.021397862,-6.07600775199995,0],[106.021461918,-6.07574010999997,0],[106.02143378,-6.07549109199994,0],[106.021331616,-6.07511306599997,0],[106.021039041,-6.07459201399996,0],[106.021038538,-6.07432507999994,0],[106.021025255,-6.07402003899995,0],[106.021050263,-6.07380390199995,0],[106.021138839,-6.07360035699998,0],[106.021158012,-6.07354677099994,0],[106.021252615,-6.07328236499995,0],[106.021366438,-6.07298979399997,0],[106.021429381,-6.07267189699996,0],[106.021441634,-6.07243036199998,0],[106.021466523,-6.07215067099997,0],[106.021447,-6.07176299999998,0],[106.021446707,-6.07176222799995,0],[106.021447208,-6.07175935999993,0],[106.021398938,-6.07163645599996,0],[106.021398923,-6.07163641599993,0],[106.021398907,-6.07163637499997,0],[106.021368,-6.07155499999993,0],[106.02117119,-6.07135464499993,0],[106.021146024,-6.07132861399998,0],[106.021043166,-6.07124786799994,0],[106.020847196,-6.07109402899994,0],[106.020822118,-6.07107506899996,0],[106.0206424,-6.07093919599993,0],[106.020478429,-6.07088593299994,0],[106.020339694,-6.07096687599994,0],[106.020187793,-6.07105550099993,0],[106.020142861,-6.07108171599998,0],[106.020122344,-6.07109368699997,0],[106.020060062,-6.07112959399996,0],[106.020003662,-6.07116210899994,0],[106.019986278,-6.07115239799998,0],[106.019888173,-6.07109759199994,0],[106.019870848,-6.07107569899995,0],[106.019764112,-6.07094081699995,0],[106.019763829,-6.07094045899993,0],[106.019763546,-6.07094010199995,0],[106.019789089,-6.07045375099995,0],[106.019796093,-6.07032040299993,0],[106.019802038,-6.07019326099993,0],[106.019818674,-6.06983743499995,0],[106.019799249,-6.06968456599998,0],[106.019795962,-6.06965892799997,0],[106.019706348,-6.06949387899994,0],[106.019618948,-6.06933494399993,0],[106.019569385,-6.06925048899996,0],[106.019527057,-6.06917836099996,0],[106.019532,-6.06903499999993,0],[106.019664619,-6.06880880899996,0],[106.019909001,-6.06839199899997,0],[106.019951411,-6.06829029999994,0],[106.02000736,-6.06816055599995,0],[106.020007475,-6.06800668699998,0],[106.020007567,-6.06788297699995,0],[106.020007596,-6.06784381299997,0],[106.019962752,-6.06763172499996,0],[106.019899981,-6.06756215599995,0],[106.019867609,-6.06752627799995,0],[106.019685968,-6.06732699699995,0],[106.019664224,-6.06725102099995,0],[106.01962134,-6.06710117799997,0],[106.019539967,-6.06681684699993,0],[106.01955157,-6.06676295699998,0],[106.019552186,-6.06676082199994,0],[106.019561869,-6.06672725299995,0],[106.019598,-6.06660199999993,0],[106.019660755,-6.06645757399997,0],[106.01964618,-6.06641411699997,0],[106.019614,-6.06632099999996,0],[106.019585729,-6.06626493699997,0],[106.019555769,-6.06620552699997,0],[106.019566639,-6.06618217799996,0],[106.019579001,-6.06615899999997,0],[106.019725267,-6.06615845699997,0],[106.019825268,-6.06615808499993,0],[106.019848001,-6.06615800099996,0],[106.020181999,-6.06618499999996,0],[106.020434001,-6.06604000099998,0],[106.020472518,-6.06598703599997,0],[106.020473259,-6.06598601799993,0],[106.020474,-6.06598499899997,0],[106.020303061,-6.06576986999994,0],[106.01993109,-6.06530173999994,0],[106.019835837,-6.06518186199997,0],[106.019828001,-6.06517200099995,0],[106.019722,-6.06501899999995,0],[106.0196923,-6.06486654199995,0],[106.019692,-6.06486499999994,0],[106.019726,-6.06478399999997,0],[106.019812929,-6.06477389999998,0],[106.020208,-6.06472799999995,0],[106.020708975,-6.06445679199993,0],[106.021163001,-6.06421100099993,0],[106.021276,-6.06411999899996,0],[106.021298758,-6.06403985299994,0],[106.021068867,-6.06376144699993,0],[106.021049337,-6.06373671399996,0],[106.021029593,-6.06371171199993,0],[106.020964001,-6.06363299999992,0],[106.020954942,-6.06356431499995,0],[106.020951999,-6.06354199999993,0],[106.021034406,-6.06351938399996,0],[106.021060913,-6.06351210999998,0],[106.021218001,-6.06346899899995,0],[106.021299566,-6.06345235699996,0],[106.021427266,-6.06342630199993,0],[106.021631788,-6.06338457299995,0],[106.021664001,-6.06337799999994,0],[106.021810442,-6.06331792199995,0],[106.02182,-6.06331400099998,0],[106.021890843,-6.06323317799996,0],[106.021873737,-6.06308948699996,0],[106.021784483,-6.06296424799996,0],[106.021600508,-6.06289402899995,0],[106.021443,-6.06283599899996,0],[106.020967126,-6.06273192999993,0],[106.020924403,-6.06272258699994,0],[106.020908001,-6.06271899999996,0],[106.020708001,-6.06268299999994,0],[106.020573001,-6.06260199999997,0],[106.020513421,-6.06250369399993,0],[106.020513,-6.06250299999994,0],[106.020542001,-6.06236699899995,0],[106.020554065,-6.06235604099993,0],[106.020662,-6.06225799999993,0],[106.020759803,-6.06221893999998,0],[106.020759859,-6.06221891699994,0],[106.020980203,-6.06212892199994,0],[106.021157493,-6.06210223099993,0],[106.021395866,-6.06224463699994,0],[106.021471389,-6.06230615599998,0],[106.021536,-6.06235599899998,0],[106.021617369,-6.06236181099996,0],[106.021914,-6.06238299999995,0],[106.02207994,-6.06241332699994,0],[106.022204001,-6.06243599999993,0],[106.022244924,-6.06244316599998,0],[106.022461,-6.06248099999993,0],[106.022524573,-6.06247030499998,0],[106.022568,-6.06246299899993,0],[106.022622216,-6.06239507499993,0],[106.022654305,-6.06235487099997,0],[106.022655001,-6.06235399999997,0],[106.022663794,-6.06230531099993,0],[106.022702856,-6.06208901999997,0],[106.022709,-6.06205499899994,0],[106.022759,-6.06174799899998,0],[106.022784347,-6.06164999299995,0],[106.022819833,-6.06151277799995,0],[106.022834,-6.06145799999996,0],[106.022834,-6.06133408599993,0],[106.022834001,-6.06133304199994,0],[106.022834001,-6.06133199899995,0],[106.022714001,-6.06117799899994,0],[106.022683355,-6.06116489999994,0],[106.022335001,-6.06101600099993,0],[106.022168,-6.06092599899995,0],[106.022128223,-6.06086573099998,0],[106.022101928,-6.06082779899998,0],[106.022102033,-6.06082700499996,0],[106.022102139,-6.06082620999996,0],[106.022111086,-6.06075891499995,0],[106.022120023,-6.06069169399996,0],[106.022155994,-6.06063870699995,0],[106.022156021,-6.06063866699998,0],[106.022156049,-6.06063862599996,0],[106.02222542,-6.06053643899997,0],[106.022242228,-6.06052726299993,0],[106.022301,-6.06049200099994,0],[106.022403316,-6.06058408499996,0],[106.022541237,-6.06070411399998,0],[106.022681763,-6.06083180699994,0],[106.022749548,-6.06084833799997,0],[106.022894001,-6.06087900099993,0],[106.023201,-6.06088799999998,0],[106.023273667,-6.06086932399995,0],[106.023415001,-6.06083299999995,0],[106.02347935,-6.06078725799995,0],[106.023484893,-6.06078331799995,0],[106.023533679,-6.06074863899994,0],[106.023581001,-6.06071499999996,0],[106.0235988,-6.06068716799996,0],[106.02365693,-6.06059627199994,0],[106.023682531,-6.06055624099997,0],[106.023690845,-6.06054324099995,0],[106.02369287,-6.06052848399997,0],[106.023695877,-6.06050656199994,0],[106.023698269,-6.06048868999994,0],[106.023698331,-6.06048822899993,0],[106.023707864,-6.06041700999998,0],[106.023659387,-6.06029021699993,0],[106.023656531,-6.06028274599993,0],[106.023635261,-6.06022711199995,0],[106.023629759,-6.06022375399994,0],[106.023629731,-6.06022373699994,0],[106.023629703,-6.06022371999995,0],[106.023536381,-6.06016592699996,0],[106.0235321,-6.06016327599997,0],[106.023342939,-6.06004612999993,0],[106.023241,-6.05998299999993,0],[106.023172126,-6.05993995399996,0],[106.023105158,-6.05989809899995,0],[106.023025,-6.05984800099998,0],[106.022930381,-6.05973824199998,0],[106.022899752,-6.05970339899994,0],[106.022902286,-6.05964562299994,0],[106.022905437,-6.05957376599997,0],[106.02290917,-6.05948865199997,0],[106.022925966,-6.05910563599997,0],[106.022909526,-6.05892850599997,0],[106.022900286,-6.05883173799998,0],[106.022900213,-6.05883097799995,0],[106.022894776,-6.05877402899995,0],[106.022885245,-6.05869843299996,0],[106.022871476,-6.05858922199997,0],[106.022871413,-6.05858872099998,0],[106.02287135,-6.05858821899994,0],[106.022881355,-6.05855231999993,0],[106.022888327,-6.05852627799993,0],[106.022888387,-6.05852605299998,0],[106.022905001,-6.05846400099995,0],[106.022916008,-6.05845780899995,0],[106.02293818,-6.05844533699997,0],[106.022969,-6.05842799999994,0],[106.023027012,-6.05848174799996,0],[106.023083165,-6.05853377199998,0],[106.023104999,-6.05855399999996,0],[106.023296362,-6.05881586499993,0],[106.023409,-6.05896999999993,0],[106.023583,-6.05914999899994,0],[106.023704214,-6.05920027299993,0],[106.023721577,-6.05920747399995,0],[106.023799827,-6.05924110799998,0],[106.023854159,-6.05924406099996,0],[106.023919999,-6.05924899999997,0],[106.023990751,-6.05918481799995,0],[106.02401332,-6.05916488599996,0],[106.024059819,-6.05912381999997,0],[106.02419291,-6.05881972599997,0],[106.02419299,-6.05881954299997,0],[106.024235,-6.05872399999993,0],[106.024244499,-6.05870252499994,0],[106.024327,-6.05851599999994,0],[106.024793999,-6.05820699999992,0],[106.024963001,-6.05806199899996,0],[106.025099636,-6.05786352899997,0],[106.025100001,-6.05786299999994,0],[106.025102385,-6.05764760099993,0],[106.025103001,-6.05759199999994,0],[106.025065161,-6.05746553899996,0],[106.025016059,-6.05741279399996,0],[106.024966949,-6.05740333099993,0],[106.024913389,-6.05739300999994,0],[106.024861999,-6.05738399999996,0],[106.024850101,-6.05738951899997,0],[106.024800727,-6.05741241999993,0],[106.024800644,-6.05741245799993,0],[106.024627212,-6.05749540299996,0],[106.024622867,-6.05749887099995,0],[106.024536404,-6.05756787599995,0],[106.02435329,-6.05771401999993,0],[106.024156936,-6.05790340099998,0],[106.024133883,-6.05791676799993,0],[106.024032262,-6.05797569399994,0],[106.024022656,-6.05798144599993,0],[106.023990001,-6.05800099999993,0],[106.023974017,-6.05800099999993,0],[106.023842314,-6.05800505399998,0],[106.023765157,-6.05797388199994,0],[106.023589481,-6.05790290799996,0],[106.023529453,-6.05785311099993,0],[106.023472452,-6.05780582399996,0],[106.023457236,-6.05770959799997,0],[106.023438835,-6.05759322299997,0],[106.023429152,-6.05753199199995,0],[106.023423238,-6.05749459099997,0],[106.023436546,-6.05741589999997,0],[106.023446442,-6.05736126299996,0],[106.023531039,-6.05732508799997,0],[106.023655274,-6.05727196399994,0],[106.023697928,-6.05725372499995,0],[106.023702149,-6.05725191999994,0],[106.023702243,-6.05725187999997,0],[106.02392,-6.05715999999995,0],[106.023988258,-6.05713596599998,0],[106.024094905,-6.05709841399994,0],[106.024204,-6.05706000099997,0],[106.024263836,-6.05701648299993,0],[106.024390993,-6.05692667299996,0],[106.024516757,-6.05677046899996,0],[106.024516796,-6.05677042099995,0],[106.024554001,-6.05672499999997,0],[106.024628512,-6.05654111199993,0],[106.024866,-6.05595499999993,0],[106.024920907,-6.05585245499998,0],[106.024934001,-6.05582799999996,0],[106.025032,-6.05576499999995,0],[106.025124805,-6.05581464699998,0],[106.025284889,-6.05590028699993,0],[106.025318001,-6.05591800099995,0],[106.025398561,-6.05593603599993,0],[106.025398665,-6.05593605999996,0],[106.025518903,-6.05596355999995,0],[106.025609307,-6.05594661999993,0],[106.025646528,-6.05582279699996,0],[106.025646632,-6.05582245099993,0],[106.025699178,-6.05564764299993,0],[106.02574662,-6.05544277999996,0],[106.025835334,-6.05505969199993,0],[106.025835631,-6.05505841399997,0],[106.025854232,-6.05497841999994,0],[106.025868903,-6.05491532499997,0],[106.025881981,-6.05485908299994,0],[106.025882642,-6.05485778799994,0],[106.025882658,-6.05485775699998,0],[106.025954,-6.05472299999997,0],[106.026158999,-6.05461399999996,0],[106.026163175,-6.05461266199995,0],[106.026405578,-6.05453501799997,0],[106.026414901,-6.05453203099995,0],[106.026854932,-6.05424952499993,0],[106.026960009,-6.05416514599995,0],[106.026967344,-6.05415925599993,0],[106.026983443,-6.05414632799994,0],[106.026992846,-6.05413877699993,0],[106.027038938,-6.05410176399994,0],[106.027086621,-6.05401446699994,0],[106.027086895,-6.05401396499997,0],[106.026856196,-6.05368940099993,0],[106.026762436,-6.05350754099993,0],[106.026823236,-6.05332217999995,0],[106.026907447,-6.05324889999997,0],[106.026951,-6.05321099999998,0],[106.027057,-6.05311999999998,0],[106.027059871,-6.05301261999995,0],[106.027071862,-6.05256418499994,0],[106.027071895,-6.05256295299995,0],[106.027071928,-6.05256172099996,0],[106.027060182,-6.05248581399997,0],[106.027037908,-6.05234187999997,0],[106.027002372,-6.05229598899996,0],[106.026863096,-6.05211832099997,0],[106.026859435,-6.05211457199994,0],[106.026697945,-6.05194921399993,0],[106.026646547,-6.05180093299998,0],[106.026643128,-6.05179106799994,0],[106.026677063,-6.05160091999994,0],[106.026763166,-6.05148946999998,0],[106.026908,-6.05130199999996,0],[106.027045,-6.05112099999997,0],[106.027099,-6.05093999999997,0],[106.027092734,-6.05085853699995,0],[106.027083001,-6.05073199899994,0],[106.027063793,-6.05069181199997,0],[106.027017823,-6.05059908599998,0],[106.026817989,-6.05048707099996,0],[106.026720502,-6.05043242599993,0],[106.026613707,-6.05037256399993,0],[106.026542057,-6.05033240099993,0],[106.026541995,-6.05033236599996,0],[106.026449947,-6.05028138599994,0],[106.026368,-6.05023599999993,0],[106.026343042,-6.05022137999993,0],[106.026219431,-6.05014896899996,0],[106.026198999,-6.05013699999995,0],[106.026168209,-6.05009389299994,0],[106.026134279,-6.05004638899993,0],[106.026148277,-6.04996909999994,0],[106.026214029,-6.04993485699993,0],[106.026242161,-6.04992020599997,0],[106.026266417,-6.04991948599996,0],[106.02648721,-6.04991293599994,0],[106.026525095,-6.04991181199995,0],[106.026585859,-6.04993038799995,0],[106.026911089,-6.05002981399997,0],[106.027022957,-6.05006033699993,0],[106.027053547,-6.05006868299995,0],[106.027188001,-6.05010799999997,0],[106.027257288,-6.05010170199995,0],[106.02729805,-6.05009959599994,0],[106.027432115,-6.04991731399997,0],[106.027507485,-6.04981037799996,0],[106.027631015,-6.04976053899998,0],[106.027739,-6.04971799999993,0],[106.027817279,-6.04965662699993,0],[106.02784364,-6.04963595999993,0],[106.028202152,-6.04935879199996,0],[106.028316704,-6.04926479799997,0],[106.028425447,-6.04917558099993,0],[106.028445973,-6.04914145999993,0],[106.028446006,-6.04914140599993,0],[106.028514679,-6.04902725099993,0],[106.028515053,-6.04902662999996,0],[106.028515427,-6.04902600799994,0],[106.028447347,-6.04865833599996,0],[106.028415499,-6.04849358899997,0],[106.028434765,-6.04843909399995,0],[106.02845,-6.04839600099996,0],[106.02865485,-6.04837822099995,0],[106.02898,-6.04834999899998,0],[106.029114,-6.04832199999993,0],[106.029282578,-6.04816871699995,0],[106.029632,-6.04785099899993,0],[106.029687638,-6.04781258899993,0],[106.029738394,-6.04777754999998,0],[106.029829001,-6.04771499999993,0],[106.02995,-6.04764199899995,0],[106.029982186,-6.04756299699994,0],[106.029916274,-6.04744613099996,0],[106.029904221,-6.04742475899997,0],[106.029886672,-6.04740000099997,0],[106.029829326,-6.04731726399996,0],[106.029829245,-6.04731714699994,0],[106.029773,-6.04723599999994,0],[106.029661621,-6.04686705599994,0],[106.029649213,-6.04636382699994,0],[106.029643298,-6.04612394099996,0],[106.029636056,-6.04604170299996,0],[106.029625847,-6.04592578299997,0],[106.029602553,-6.04588296999998,0],[106.029548399,-6.04578343699995,0],[106.029486326,-6.04576564599995,0],[106.029223739,-6.04569038699998,0],[106.029106251,-6.04565801899997,0],[106.029059001,-6.04564500099997,0],[106.029028292,-6.04563436999996,0],[106.028981103,-6.04562084499997,0],[106.028902302,-6.04559074999997,0],[106.028866507,-6.04557707899994,0],[106.028866074,-6.04557691399998,0],[106.028865875,-6.04557618899997,0],[106.028840388,-6.04548335999993,0],[106.028822334,-6.04541760199993,0],[106.02885,-6.04530199899995,0],[106.028857654,-6.04527061799996,0],[106.028869811,-6.04522131699997,0],[106.029027587,-6.04500736999995,0],[106.029172715,-6.04489974899997,0],[106.029206,-6.04487600099998,0],[106.029538,-6.04477599899997,0],[106.029826999,-6.04469399999994,0],[106.030168001,-6.04454899899997,0],[106.030218409,-6.04450621099994,0],[106.030254114,-6.04447934899997,0],[106.030276905,-6.04426921999993,0],[106.030281672,-6.04422526699994,0],[106.030282073,-6.04422156999993,0],[106.030294333,-6.04410854199995,0],[106.030331515,-6.04376579799998,0],[106.030338106,-6.04370504099995,0],[106.030338969,-6.04369708499996,0],[106.030337605,-6.04365655899994,0],[106.030335668,-6.04359900999998,0],[106.030331659,-6.04349317599997,0],[106.03028745,-6.04340210499993,0],[106.030279384,-6.04338548999993,0],[106.030258999,-6.04334499999993,0],[106.030234019,-6.04333020899998,0],[106.030215508,-6.04331924899998,0],[106.030153479,-6.04328252099998,0],[106.030031,-6.04321000099998,0],[106.030012139,-6.04319797199997,0],[106.029969946,-6.04317106099995,0],[106.029922269,-6.04314065199998,0],[106.029904,-6.04312899999996,0],[106.029889881,-6.04309451599994,0],[106.029858309,-6.04301740799997,0],[106.029852323,-6.04300278799997,0],[106.029852891,-6.04299230699996,0],[106.029859486,-6.04287058999995,0],[106.029861234,-6.04286562099998,0],[106.029904794,-6.04283874399994,0],[106.030094001,-6.04272200099996,0],[106.030114001,-6.04270399999996,0],[106.030324001,-6.04260399999993,0],[106.030324468,-6.04260331199993,0],[106.030343001,-6.04257599899995,0],[106.030405001,-6.04251299999993,0],[106.030371544,-6.04234939899993,0],[106.030326522,-6.04212924899997,0],[106.030296,-6.04197999999997,0],[106.030290001,-6.04194300099994,0],[106.030289384,-6.04193742499996,0],[106.030265007,-6.04171705599992,0],[106.030281892,-6.04162472299993,0],[106.030284912,-6.04160821099993,0],[106.030310706,-6.04146716499997,0],[106.030339453,-6.04143945899995,0],[106.03033983,-6.04143909499993,0],[106.030340074,-6.04143885899992,0],[106.030340252,-6.04143868799997,0],[106.03034053,-6.04143842099995,0],[106.030341381,-6.04143759999994,0],[106.030342249,-6.04143676399997,0],[106.030343152,-6.04143589299997,0],[106.030343716,-6.04143534899993,0],[106.030344451,-6.04143463999998,0],[106.030344838,-6.04143426699994,0],[106.030345308,-6.04143381399996,0],[106.030346017,-6.04143312999997,0],[106.030346444,-6.04143271899994,0],[106.030346819,-6.04143235699996,0],[106.030347752,-6.04143145699993,0],[106.030348484,-6.04143075099995,0],[106.030349055,-6.04143019999998,0],[106.030349878,-6.04142940699995,0],[106.030350619,-6.04142869299994,0],[106.030351295,-6.04142804199995,0],[106.030352051,-6.04142731299993,0],[106.030352714,-6.04142667399998,0],[106.030353382,-6.04142603099996,0],[106.030354289,-6.04142515699994,0],[106.030354805,-6.04142465999996,0],[106.030355448,-6.04142403999998,0],[106.030356145,-6.04142336899997,0],[106.030356758,-6.04142277899996,0],[106.030357065,-6.04142248299996,0],[106.030357533,-6.04142203199996,0],[106.030358259,-6.04142133199997,0],[106.030358639,-6.04142096599998,0],[106.030359154,-6.04142046899995,0],[106.030359463,-6.04142017199996,0],[106.030359717,-6.04141992799993,0],[106.030360334,-6.04141933299996,0],[106.030366129,-6.04141374799997,0],[106.030377884,-6.04140241999994,0],[106.030390639,-6.04139012799993,0],[106.03040316,-6.04137805999994,0],[106.030455615,-6.04132750599996,0],[106.030467945,-6.04131562299995,0],[106.030519829,-6.04126657199993,0],[106.03052002,-6.04126639199995,0],[106.030604858,-6.04118618499996,0],[106.030683611,-6.04111172999995,0],[106.030714,-6.04108299999996,0],[106.030826065,-6.04098569199994,0],[106.030844536,-6.04096965199994,0],[106.030845774,-6.04096857799993,0],[106.03084638,-6.04096805199993,0],[106.030846759,-6.04096772199995,0],[106.03084721,-6.04096733099993,0],[106.030847624,-6.04096697099993,0],[106.030848115,-6.04096654499995,0],[106.030847649,-6.04096615499998,0],[106.030847184,-6.04096576599994,0],[106.031176227,-6.04083579699994,0],[106.031181952,-6.04083600499996,0],[106.03119103,-6.04084278599993,0],[106.03123726,-6.04089870699994,0],[106.031284622,-6.04094348599995,0],[106.031299005,-6.04095022599995,0],[106.03131976,-6.04095995299997,0],[106.031370015,-6.04096123399995,0],[106.031401662,-6.04095221999995,0],[106.031417506,-6.04093685899994,0],[106.031474419,-6.04092300599996,0],[106.031525507,-6.04091891999997,0],[106.031721952,-6.04091723599993,0],[106.032016451,-6.04091347399998,0],[106.032299662,-6.04087079599998,0],[106.032395633,-6.04084993399994,0],[106.032430755,-6.04083354399995,0],[106.032536982,-6.04081902299993,0],[106.032821408,-6.04072351199994,0],[106.033058427,-6.04064844499993,0],[106.033141215,-6.04061426199996,0],[106.033202263,-6.04061988799998,0],[106.033391303,-6.04061005199998,0],[106.033505854,-6.04053038399996,0],[106.033625709,-6.04045600299997,0],[106.033736036,-6.04042589599993,0],[106.033818461,-6.04035008599993,0],[106.033849636,-6.04025599399995,0],[106.033851039,-6.04017329599998,0],[106.033829035,-6.04008284099996,0],[106.033771162,-6.03999245499995,0],[106.033718565,-6.03991018799996,0],[106.033588176,-6.03985408499994,0],[106.033523046,-6.03979792399997,0],[106.03345963,-6.03969386699993,0],[106.033468414,-6.03962792599998,0],[106.033485867,-6.03948284999996,0],[106.033491982,-6.03943001999994,0],[106.033484262,-6.03935715299997,0],[106.033451309,-6.03927133899998,0],[106.033399257,-6.03916127299993,0],[106.033362794,-6.03904765499993,0],[106.033327307,-6.03883807099993,0],[106.033338089,-6.03872814099998,0],[106.033402867,-6.03866070899994,0],[106.03346417,-6.03860769099992,0],[106.033495014,-6.03856225199996,0],[106.033578359,-6.03844800299993,0],[106.033636789,-6.03833480599997,0],[106.033689153,-6.03827044799993,0],[106.033734074,-6.03822233499994,0],[106.033757922,-6.03817140399997,0],[106.033763514,-6.03814695299997,0],[106.033762402,-6.03812861399996,0],[106.033747076,-6.03810436799995,0],[106.033707715,-6.03807374099995,0],[106.033676155,-6.03805739499995,0],[106.033613647,-6.03803843799994,0],[106.033514401,-6.03795687699994,0],[106.033527337,-6.03789682599995,0],[106.033569711,-6.03778207899995,0],[106.033609133,-6.03769292299995,0],[106.033676535,-6.03759235899997,0],[106.033687042,-6.03753000999995,0],[106.033683832,-6.03739506099993,0],[106.033743642,-6.03732818199995,0],[106.033766242,-6.03727997299995,0],[106.0337939,-6.03719191699997,0],[106.033849204,-6.03716556499995,0],[106.033868005,-6.03714438299994,0],[106.033873558,-6.03711632999995,0],[106.0338795,-6.03707799599994,0],[106.033882549,-6.03696675199996,0],[106.033919608,-6.03686406499997,0],[106.033979305,-6.03677099599997,0],[106.034076244,-6.03671916899998,0],[106.034181458,-6.03667558899997,0],[106.034276387,-6.03665268599997,0],[106.034406306,-6.03657187699997,0],[106.034629103,-6.03647643199997,0],[106.034783779,-6.03638731199993,0],[106.035068418,-6.03627659799997,0],[106.035251973,-6.03621682199997,0],[106.035438356,-6.03615878399995,0],[106.035525561,-6.03612689599993,0],[106.035555519,-6.03604858199998,0],[106.035559528,-6.03590885699998,0],[106.03554365,-6.03580195899997,0],[106.035513489,-6.03567655499995,0],[106.035514939,-6.03557647699995,0],[106.035486003,-6.03549493999998,0],[106.035444322,-6.03543902499996,0],[106.035372345,-6.03542796199997,0],[106.03529716,-6.03541210699996,0],[106.035245903,-6.03536580899993,0],[106.035205829,-6.03531308899994,0],[106.035171707,-6.03514115999997,0],[106.035137842,-6.03499083799994,0],[106.035107288,-6.03489970399994,0],[106.034999566,-6.03479034499998,0],[106.034945136,-6.03475685199993,0],[106.03488751,-6.03472496399996,0],[106.034801085,-6.03468353199997,0],[106.034708224,-6.03462131399993,0],[106.03463606,-6.03451106199998,0],[106.034560194,-6.03428489499993,0],[106.034543713,-6.03402575099994,0],[106.034505033,-6.03392415799993,0],[106.034448934,-6.03385387099996,0],[106.03440885,-6.03379635299996,0],[106.034360223,-6.03358124499994,0],[106.034324733,-6.03341652699993,0],[106.034286199,-6.03333340799998,0],[106.034228492,-6.03325832399997,0],[106.03410363,-6.03318496799994,0],[106.033999621,-6.03314676899993,0],[106.033877296,-6.03305514499993,0],[106.033782844,-6.03299772899993,0],[106.033712365,-6.03293226899996,0],[106.033672284,-6.03287634999998,0],[106.033644662,-6.03272535399998,0],[106.03361565,-6.03260381999996,0],[106.033557217,-6.03244636799997,0],[106.033513258,-6.03236586199995,0],[106.033381044,-6.03211044799997,0],[106.033326625,-6.03199126299995,0],[106.033333632,-6.03187557699994,0],[106.033355062,-6.03174540399993,0],[106.033463292,-6.03166205899993,0],[106.033539079,-6.03161853799998,0],[106.033658684,-6.03161681499995,0],[106.033736297,-6.03162394599997,0],[106.033844069,-6.03162598899996,0],[106.033937387,-6.03161669999997,0],[106.034037582,-6.03161650999994,0],[106.034152293,-6.03166265099998,0],[106.034174582,-6.03168256299995,0],[106.034189131,-6.03168998499996,0],[106.034201545,-6.03169315399998,0],[106.034219618,-6.03169028199994,0],[106.034228645,-6.03162744599996,0],[106.034232416,-6.03153810999993,0],[106.034249405,-6.03141552799997,0],[106.034303095,-6.03134186099993,0],[106.034381788,-6.03129704799994,0],[106.03447737,-6.03130648599995,0],[106.034512709,-6.03132378999993,0],[106.034546515,-6.03139298299993,0],[106.034572867,-6.03147716399997,0],[106.034614209,-6.03157442199995,0],[106.034713483,-6.03163787399995,0],[106.034798052,-6.03159041799995,0],[106.034822595,-6.03154842199996,0],[106.034868339,-6.03147843999994,0],[106.03491731,-6.03146061399997,0],[106.034961113,-6.03146678899998,0],[106.035010337,-6.03149061199997,0],[106.035057223,-6.03145965999994,0],[106.035095198,-6.03146481899995,0],[106.035139553,-6.03148483499996,0],[106.035185039,-6.03145059199994,0],[106.035193173,-6.03143869399997,0],[106.035199511,-6.03142803299994,0],[106.035200282,-6.03141554999996,0],[106.035202074,-6.03139204199994,0],[106.035220169,-6.03134299399994,0],[106.035214885,-6.03126090699993,0],[106.035192487,-6.03116858999994,0],[106.035178591,-6.03105231199993,0],[106.035184985,-6.03087395199998,0],[106.035157535,-6.03069037899996,0],[106.035213815,-6.03062185799996,0],[106.035314583,-6.03057377699997,0],[106.035430841,-6.03052956899995,0],[106.035520136,-6.03047292599996,0],[106.035613434,-6.03039654599996,0],[106.035707987,-6.03028026299995,0],[106.035781656,-6.03014726799995,0],[106.035910336,-6.03014839299993,0],[106.035957504,-6.03029753599998,0],[106.036039644,-6.03030011899995,0],[106.03617245,-6.03031174099993,0],[106.036321792,-6.03033991799992,0],[106.036504445,-6.03035044699993,0],[106.036606349,-6.03037932599995,0],[106.036698986,-6.03042757999998,0],[106.036916226,-6.03049124199993,0],[106.037052602,-6.03056316199996,0],[106.037190732,-6.03062228599993,0],[106.037282976,-6.03066743299996,0],[106.037367324,-6.03066727199996,0],[106.037431134,-6.03054524999993,0],[106.037474724,-6.03046858799996,0],[106.037541813,-6.03032249199993,0],[106.037684939,-6.03034739899994,0],[106.037808079,-6.03019204599997,0],[106.037875327,-6.03009269299997,0],[106.037926854,-6.03007076599994,0],[106.038014188,-6.03010433499998,0],[106.038179431,-6.03017387299997,0],[106.038316434,-6.03025100599996,0],[106.03845536,-6.03029638499993,0],[106.038556556,-6.03031802099997,0],[106.038627973,-6.03032582199995,0],[106.0386578,-6.03036545499998,0],[106.038622291,-6.03046673099993,0],[106.038679923,-6.03052615499996,0],[106.038737511,-6.03056176599995,0],[106.038840375,-6.03062131199994,0],[106.039031485,-6.03070123999993,0],[106.03916499,-6.03079301099996,0],[106.03944108,-6.03090174599993,0],[106.039658906,-6.03059654799995,0],[106.039805924,-6.03039767299992,0],[106.03991508,-6.03020372699996,0],[106.040097848,-6.02991386399998,0],[106.040205749,-6.02969377799997,0],[106.040086925,-6.02950763199993,0],[106.04002876,-6.02930018799998,0],[106.039993533,-6.02914649299993,0],[106.039952029,-6.02893231399997,0],[106.039903119,-6.02866090599997,0],[106.039831201,-6.02855122499994,0],[106.039928347,-6.02845827099998,0],[106.040036013,-6.02832680699993,0],[106.040135177,-6.02822389099993,0],[106.040214742,-6.02806924199996,0],[106.040305491,-6.02789509499996,0],[106.04034367,-6.02778338999997,0],[106.040408112,-6.02770870799998,0],[106.040495768,-6.02765054899993,0],[106.040600105,-6.02765531999995,0],[106.040722672,-6.02772967499993,0],[106.040857934,-6.02773878299996,0],[106.040894466,-6.02771959599994,0],[106.040944598,-6.02769735199996,0],[106.040978467,-6.02765889899996,0],[106.041003467,-6.02761307899993,0],[106.040985646,-6.02755405199997,0],[106.040863051,-6.02748303099997,0],[106.040771432,-6.02741823899993,0],[106.04078898,-6.02730864599994,0],[106.040909582,-6.02722917099993,0],[106.040997984,-6.02717553799994,0],[106.041126512,-6.02714855899995,0],[106.041153202,-6.02704250899995,0],[106.041153065,-6.02697066599995,0],[106.041177967,-6.02689376299998,0],[106.041189462,-6.02679182399993,0],[106.041178904,-6.02667399699993,0],[106.041128718,-6.02655981999993,0],[106.041071345,-6.02641946799997,0],[106.041085308,-6.02625517399997,0],[106.041041201,-6.02615068899996,0],[106.040957591,-6.02599685499996,0],[106.04101102,-6.02592230699997,0],[106.041094302,-6.02589534799995,0],[106.041228168,-6.02586233699998,0],[106.041352933,-6.02588278499996,0],[106.041381597,-6.02586275999994,0],[106.041420165,-6.02581734599994,0],[106.041430862,-6.02578550299995,0],[106.041421437,-6.02561644899993,0],[106.041339587,-6.02549147499997,0],[106.041304857,-6.02540385099996,0],[106.041359241,-6.02535681399996,0],[106.041386411,-6.02532194099996,0],[106.041407517,-6.02528102299993,0],[106.041404352,-6.02520035899994,0],[106.041426914,-6.02512915899996,0],[106.041486099,-6.02497893199995,0],[106.041570093,-6.02477251599993,0],[106.04168871,-6.02447347799995,0],[106.041752055,-6.02429421699998,0],[106.041879243,-6.02419779099995,0],[106.041969465,-6.02407418799993,0],[106.042000559,-6.02399718199996,0],[106.042018392,-6.02389615599998,0],[106.0420603,-6.02377181199995,0],[106.042064896,-6.02366119299995,0],[106.042071949,-6.02357904799993,0],[106.042110252,-6.02350082599997,0],[106.042153407,-6.02344664099996,0],[106.042225601,-6.02336084299998,0],[106.042272285,-6.02326697499996,0],[106.042298607,-6.02318727399995,0],[106.0423115,-6.02301652599994,0],[106.042392079,-6.02284448799998,0],[106.042472607,-6.02263148799994,0],[106.04246939,-6.02254447699994,0],[106.042440251,-6.02246667199995,0],[106.04237846,-6.02232823899993,0],[106.042306433,-6.02211584399993,0],[106.04225884,-6.02195328799996,0],[106.042280453,-6.02185019599995,0],[106.042508487,-6.02191894299995,0],[106.043044493,-6.02205708299994,0],[106.043771237,-6.02221938999998,0],[106.044153812,-6.02228323599996,0],[106.044847799,-6.02237519099998,0],[106.045576743,-6.02246912999993,0],[106.046480504,-6.02261018499996,0],[106.046910416,-6.02268821399997,0],[106.047174466,-6.02278909499995,0],[106.04725388,-6.02282471199993,0],[106.047278267,-6.02281070599997,0],[106.047306077,-6.02276266999996,0],[106.047431743,-6.02243862999995,0],[106.047814466,-6.02152752099994,0],[106.048033506,-6.02099252099993,0],[106.048121637,-6.02076570499997,0],[106.048265594,-6.02038540699994,0],[106.048602419,-6.02046625599996,0],[106.048854943,-6.02051460499996,0],[106.04905625,-6.02052899999995,0],[106.049328459,-6.02046337199994,0],[106.049483831,-6.02042776499997,0],[106.049657637,-6.02043700199994,0],[106.049902755,-6.02048512199997,0],[106.050230133,-6.02054413699994,0],[106.050603249,-6.02061647899995,0],[106.050936993,-6.02067085199997,0],[106.050877251,-6.02108948399996,0],[106.050859101,-6.02122044299995,0],[106.050818605,-6.02142551999998,0],[106.050796469,-6.02161608899996,0],[106.050781405,-6.02174541599993,0],[106.050931752,-6.02175104399993,0],[106.051134984,-6.02177868399997,0],[106.051471348,-6.02183008199995,0],[106.051761429,-6.02187471799994,0],[106.051812939,-6.02188275399993,0],[106.051841888,-6.02190348899995,0],[106.051830265,-6.02196678499996,0],[106.051577867,-6.02258640699995,0],[106.051560546,-6.02263432799998,0],[106.051626313,-6.02265227899994,0],[106.053267051,-6.02264740499993,0],[106.053287928,-6.02291509599996,0],[106.053599878,-6.02290950199995,0],[106.054323112,-6.02294139799994,0],[106.054427797,-6.02294533199995,0],[106.054959697,-6.02298020999996,0],[106.055346633,-6.02298799199997,0],[106.055632947,-6.02299219399993,0],[106.056038753,-6.02297921599995,0],[106.056050414,-6.02327127799992,0],[106.056316273,-6.02327662299996,0],[106.056480891,-6.02325108599996,0],[106.05676592,-6.02327314499996,0],[106.056987271,-6.02325762399994,0],[106.057145427,-6.02321225099996,0],[106.057268839,-6.02316663399995,0],[106.057261173,-6.02309756199998,0],[106.05761026,-6.02302205799998,0],[106.057887724,-6.02298627999994,0],[106.057897494,-6.02293833599992,0],[106.058113446,-6.02288273799996,0],[106.058211051,-6.02289552699995,0],[106.058242551,-6.02292851099998,0],[106.058352515,-6.02289401899998,0],[106.058391841,-6.02296491199996,0],[106.058564392,-6.02301477299994,0],[106.05882455,-6.02301806899993,0],[106.058849009,-6.02293000999993,0],[106.059269847,-6.02286438399994,0],[106.059449838,-6.02286540899996,0],[106.059818065,-6.02273939099996,0],[106.059983622,-6.02266815499996,0],[106.060090822,-6.02263332499996,0],[106.06035338,-6.02265898899998,0],[106.060387976,-6.02258036699993,0],[106.060416481,-6.02248654999994,0],[106.060389461,-6.02235935499994,0],[106.060557495,-6.02228803799994,0],[106.060548426,-6.02223247699993,0],[106.060670667,-6.02219246499993,0],[106.060636621,-6.02198141499997,0],[106.060963208,-6.02185350499997,0],[106.061148701,-6.02180316099998,0],[106.061301452,-6.02181073799994,0],[106.061405764,-6.02182544099998,0],[106.061478028,-6.02176064999998,0],[106.061561809,-6.02164204399998,0],[106.061842176,-6.02134677799995,0],[106.06195874,-6.02115683099993,0],[106.062159658,-6.02125410099995,0],[106.062383227,-6.02134536399996,0],[106.063244251,-6.02177683999997,0],[106.06429675,-6.02229746099994,0],[106.064865228,-6.02256895199997,0],[106.065805123,-6.02296520699997,0],[106.065734207,-6.02310320199996,0],[106.065691799,-6.02328290799994,0],[106.065609039,-6.02341323999997,0],[106.065574308,-6.02349008599998,0],[106.065567473,-6.02356222399993,0],[106.065619238,-6.02362905899997,0],[106.065666287,-6.02365959499997,0],[106.065667069,-6.02375161799995,0],[106.065661472,-6.02383964899997,0],[106.065639886,-6.02391532299993,0],[106.065632988,-6.02407550499993,0],[106.06560575,-6.02415925099996,0],[106.065553896,-6.02419254099993,0],[106.065525213,-6.02427484599997,0],[106.065518826,-6.02439010699993,0],[106.065599726,-6.02452208599993,0],[106.065564165,-6.02470958999993,0],[106.065522848,-6.02479365599993,0],[106.065489267,-6.02488866099998,0],[106.065471205,-6.02492498099997,0],[106.065461591,-6.02500175699993,0],[106.065463135,-6.02507851099995,0],[106.065482802,-6.02514964699998,0],[106.065520508,-6.02517329799997,0],[106.065576304,-6.02517458599993,0],[106.065630701,-6.02517447899993,0],[106.065758347,-6.02518393599996,0],[106.065825073,-6.02517501799997,0],[106.065877704,-6.02514328199993,0],[106.065944365,-6.02510097399994,0],[106.06598646,-6.02507101699996,0],[106.06603565,-6.02507619299996,0],[106.066079753,-6.02509049099996,0],[106.066136051,-6.02513783099994,0],[106.066139744,-6.02523096299996,0],[106.066139998,-6.02536100799995,0],[106.066106843,-6.02547178599997,0],[106.066089437,-6.02555265999996,0],[106.066090709,-6.02567868499995,0],[106.066172291,-6.02574877599994,0],[106.066256605,-6.02577951999996,0],[106.066301573,-6.02579629199994,0],[106.066326964,-6.02585525199993,0],[106.066353295,-6.02596580499994,0],[106.066355649,-6.02603882699998,0],[106.066391119,-6.02608080299996,0],[106.066444222,-6.02609176499993,0],[106.066508362,-6.02609163899996,0],[106.066576879,-6.02606716099996,0],[106.066647612,-6.02604489399994,0],[106.066771483,-6.02605129099993,0],[106.06688432,-6.02607098599998,0],[106.066976812,-6.02606970799997,0],[106.067035823,-6.02608356999997,0],[106.067065373,-6.02611301999997,0],[106.067090287,-6.02615334999996,0],[106.067084266,-6.02624965099994,0],[106.067085976,-6.02633040699993,0],[106.067092283,-6.02638009099996,0],[106.067131151,-6.02641262899994,0],[106.067227412,-6.02642486399998,0],[106.067282165,-6.02643526999998,0],[106.06732622,-6.02645964299995,0],[106.067370196,-6.02644365699996,0],[106.067397045,-6.02642158999993,0],[106.067443502,-6.02642394399993,0],[106.067547506,-6.02647510999998,0],[106.067657582,-6.02650547099995,0],[106.067811905,-6.02652986999993,0],[106.067832692,-6.02653227599995,0],[106.067809829,-6.02671822599996,0],[106.067777099,-6.02685894299998,0],[106.067747884,-6.02690674499996,0],[106.067692535,-6.02694073599997,0],[106.067658743,-6.02697776499997,0],[106.067635708,-6.02705816399993,0],[106.067646582,-6.02710896799994,0],[106.067646643,-6.02713976999996,0],[106.067619025,-6.02718602799996,0],[106.067609263,-6.02722373099994,0],[106.067643318,-6.02726445599995,0],[106.067694346,-6.02729834899998,0],[106.067741977,-6.02733224799994,0],[106.06777773,-6.02737296999993,0],[106.067777807,-6.02741206299993,0],[106.067747342,-6.02746990999998,0],[106.067720239,-6.02750905599993,0],[106.067699961,-6.02756348299994,0],[106.067689908,-6.02772917099998,0],[106.067664547,-6.02779040699994,0],[106.067533788,-6.02781275899997,0],[106.06737412,-6.02781987099996,0],[106.067307816,-6.02779280599998,0],[106.067261852,-6.02774190599996,0],[106.06722767,-6.02763659599998,0],[106.067182653,-6.02746078399997,0],[106.067153642,-6.02739285599995,0],[106.067100926,-6.02736406499997,0],[106.066970246,-6.02742720699996,0],[106.066856466,-6.02744612499993,0],[106.066766396,-6.02742590599996,0],[106.066691593,-6.02739715799993,0],[106.066639971,-6.02733850099997,0],[106.066571515,-6.02733649299995,0],[106.066498748,-6.02731737499994,0],[106.066421632,-6.02726187799993,0],[106.066329529,-6.02719998999993,0],[106.066201217,-6.02710499099993,0],[106.066165163,-6.02708104399994,0],[106.066076557,-6.02701691399994,0],[106.065996178,-6.02702535199995,0],[106.065933563,-6.02704794999994,0],[106.065831913,-6.02706115899997,0],[106.065763351,-6.02706602599994,0],[106.06569243,-6.02707326199993,0],[106.065649911,-6.02709463699995,0],[106.065563067,-6.02716022399994,0],[106.065518026,-6.02719374199995,0],[106.065456278,-6.02722729399994,0],[106.065406227,-6.02726082099997,0],[106.065352945,-6.02735285899996,0],[106.065309581,-6.02738971699995,0],[106.065246114,-6.02739819699997,0],[106.065207724,-6.02741498899996,0],[106.065189393,-6.02743842599995,0],[106.065178007,-6.02749435199996,0],[106.065220071,-6.02764804799995,0],[106.065276237,-6.02770354999996,0],[106.065329918,-6.02783440799993,0],[106.065343477,-6.02793861599997,0],[106.065357042,-6.02804549699994,0],[106.065394622,-6.02813896799995,0],[106.065445522,-6.02821370499993,0],[106.065488414,-6.02829112899997,0],[106.065496651,-6.02840603799996,0],[106.065542927,-6.02864776999996,0],[106.065551192,-6.02877604299994,0],[106.065562064,-6.02887223999994,0],[106.065580925,-6.02895505599997,0],[106.065583832,-6.02907990199998,0],[106.065393425,-6.02949361499998,0],[106.064989701,-6.02937625199996,0],[106.064870664,-6.02934858399993,0],[106.0648353,-6.02932819299997,0],[106.064820352,-6.02928915799993,0],[106.064822083,-6.02922405299995,0],[106.064814546,-6.02917198399996,0],[106.064753119,-6.02913304199996,0],[106.064636011,-6.02914070999998,0],[106.064427084,-6.02915969299994,0],[106.064106866,-6.02914797799997,0],[106.064078549,-6.02910329499997,0],[106.064078427,-6.02904021299997,0],[106.06404155,-6.02899034499995,0],[106.063865403,-6.02891972099997,0],[106.063799634,-6.02887253699993,0],[106.063736493,-6.02882534799994,0],[106.063649677,-6.02876243599997,0],[106.063599687,-6.02872310599997,0],[106.063568157,-6.02872053999994,0],[106.063505166,-6.02874957499995,0],[106.063426441,-6.02879441199997,0],[106.063381833,-6.02882078499994,0],[106.063352997,-6.02885238099998,0],[106.063308343,-6.02885509799995,0],[106.063247895,-6.02884207299996,0],[106.063181772,-6.02877650299996,0],[106.063134135,-6.02874968599997,0],[106.063074158,-6.02876015199996,0],[106.062939747,-6.02879353399993,0],[106.062813511,-6.02877515099993,0],[106.06276795,-6.02875247099996,0],[106.062673389,-6.02872113899997,0],[106.062637467,-6.02868208599995,0],[106.062580385,-6.02865285499996,0],[106.062526577,-6.02863176699998,0],[106.06248744,-6.02861391199997,0],[106.062421852,-6.02860793499997,0],[106.062351496,-6.02860025299998,0],[106.062291517,-6.02856909099995,0],[106.062244547,-6.02853008299996,0],[106.062184501,-6.02846503599994,0],[106.062124495,-6.02842083999997,0],[106.062072346,-6.02839748399998,0],[106.062043644,-6.02837407999994,0],[106.061976501,-6.02844797099993,0],[106.061889757,-6.02854343599995,0],[106.06172731,-6.02868460999997,0],[106.06164696,-6.02873415899995,0],[106.061630459,-6.02881353499993,0],[106.061596684,-6.02889443199996,0],[106.061549942,-6.02895272099994,0],[106.061475897,-6.02909674399996,0],[106.061422835,-6.02922940899998,0],[106.061382326,-6.02934250099997,0],[106.061357157,-6.02945321099997,0],[106.061346497,-6.02956570599997,0],[106.061350292,-6.02965277399994,0],[106.061377585,-6.02970170199995,0],[106.061413949,-6.02975423999993,0],[106.061481438,-6.02984845799995,0],[106.06148039,-6.02988783899997,0],[106.061423202,-6.02997008399996,0],[106.061326792,-6.03012441199996,0],[106.061238533,-6.03025804999993,0],[106.061223514,-6.03032440499993,0],[106.061187678,-6.03052609399998,0],[106.061018143,-6.03066914399994,0],[106.060814532,-6.03086495399998,0],[106.060749176,-6.03102139199996,0],[106.060588805,-6.03097441099993,0],[106.060599776,-6.03088178199994,0],[106.060162423,-6.03088467099997,0],[106.059810983,-6.03106601499996,0],[106.059318186,-6.03129803799993,0],[106.058560344,-6.03158762899994,0],[106.058665629,-6.03181707999994,0],[106.05851193,-6.03188991699994,0],[106.058404299,-6.03194787799993,0],[106.058373735,-6.03198555699993,0],[106.058292085,-6.03202365199996,0],[106.0581001,-6.03211550499998,0],[106.058018014,-6.03214047399996,0],[106.057980824,-6.03214209599997,0],[106.057942017,-6.03210805999993,0],[106.05791245,-6.03204454699994,0],[106.057890681,-6.03200737699996,0],[106.057839419,-6.03194390499993,0],[106.057791338,-6.03192384199997,0],[106.057720065,-6.03193018199994,0],[106.057670517,-6.03195198499998,0],[106.057433024,-6.03200231899996,0],[106.057149698,-6.03216304199998,0],[106.056888345,-6.03232806099993,0],[106.056555701,-6.03257328299998,0],[106.056351737,-6.03275679799998,0],[106.056174714,-6.03292258899995,0],[106.056025829,-6.03300536999996,0],[106.055913526,-6.03317823099997,0],[106.055769948,-6.03328880799995,0],[106.055549613,-6.03347676199996,0],[106.055506619,-6.03355117599995,0],[106.055429966,-6.03357050799997,0],[106.055363045,-6.03366415099993,0],[106.055317724,-6.03377453899998,0],[106.055276359,-6.03387389599993,0],[106.05523577,-6.03395310099995,0],[106.055005986,-6.03409981299995,0],[106.054622868,-6.03427080099993,0],[106.054404341,-6.03439639199996,0],[106.054124195,-6.03452641799993,0],[106.054042051,-6.03460385399995,0],[106.053917533,-6.03465684799994,0],[106.05383605,-6.03465700499993,0],[106.053662817,-6.03477213599996,0],[106.053565386,-6.03476808699997,0],[106.053484962,-6.03479790799997,0],[106.053434263,-6.03486581599998,0],[106.053267136,-6.03496361499998,0],[106.052991581,-6.03504503099992,0],[106.052754579,-6.03515143999994,0],[106.052585989,-6.03521009399998,0],[106.052479183,-6.03528401499995,0],[106.052346326,-6.03540554299997,0],[106.052187419,-6.03557468099996,0],[106.052003979,-6.03574718199997,0],[106.05180705,-6.03591876999997,0],[106.051458106,-6.03613820899994,0],[106.051243679,-6.03586278899996,0],[106.05073012,-6.03623286599998,0],[106.050307105,-6.03658621599993,0],[106.050216917,-6.03665059199994,0],[106.050169352,-6.03665898399993,0],[106.049230561,-6.03631229399997,0],[106.048670673,-6.03607750599997,0],[106.048950903,-6.03531121599997,0],[106.04850802,-6.03515465399994,0],[106.04828059,-6.03577291799996,0],[106.048212142,-6.03591263899995,0],[106.047480408,-6.03563756799997,0],[106.047300727,-6.03619253399995,0],[106.04721982,-6.03647483099996,0],[106.04714493,-6.03670700799995,0],[106.047065376,-6.03682487199995,0],[106.047002258,-6.03690829799996,0],[106.046932493,-6.03699839999996,0],[106.046862758,-6.03710516299998,0],[106.046788065,-6.03723976599997,0],[106.046771803,-6.03729124499995,0],[106.046785944,-6.03735201899997,0],[106.046814063,-6.03738938099997,0],[106.046842177,-6.03742440399998,0],[106.046858647,-6.03747863399997,0],[106.046852982,-6.03752586799993,0],[106.046809437,-6.03762960999995,0],[106.046774388,-6.03767777899998,0],[106.046735747,-6.03768522099995,0],[106.046663922,-6.03766509999997,0],[106.046573686,-6.03764317499997,0],[106.04649082,-6.03762491899994,0],[106.046433716,-6.03760292699997,0],[106.04637474,-6.03756436599997,0],[106.046323128,-6.03752579199994,0],[106.046266016,-6.03750011899996,0],[106.046210792,-6.03749838399995,0],[106.046125583,-6.03754117899996,0],[106.046081472,-6.03757625699996,0],[106.046039251,-6.03763526999995,0],[106.046000695,-6.03768690999993,0],[106.04595656,-6.03770909399998,0],[106.045905009,-6.03770182799997,0],[106.045857109,-6.03767981999994,0],[106.045790811,-6.03766337299993,0],[106.045739293,-6.03767452099993,0],[106.045702539,-6.03770589899995,0],[106.045582137,-6.03774111899997,0],[106.045475396,-6.03775053199996,0],[106.045374164,-6.03775440899994,0],[106.04526007,-6.03776936299994,0],[106.045182814,-6.03779713599994,0],[106.045068112,-6.03782845299997,0],[106.044950277,-6.03781210499994,0],[106.044863779,-6.03781963699993,0],[106.044688547,-6.03787165599994,0],[106.044556024,-6.03787559399996,0],[106.044491646,-6.03789965899995,0],[106.044418057,-6.03792005699995,0],[106.044346298,-6.03793492899996,0],[106.044270831,-6.03793507399996,0],[106.044210049,-6.03791493299997,0],[106.044134549,-6.03789850199996,0],[106.044004919,-6.03787683399997,0],[106.043923936,-6.03788067399995,0],[106.043830093,-6.03789742899994,0],[106.043770122,-6.03792103099994,0],[106.043731021,-6.03788855499994,0],[106.043701643,-6.03783815799994,0],[106.043667354,-6.03776986799994,0],[106.043624959,-6.03771786899995,0],[106.043564667,-6.03766264999996,0],[106.043519079,-6.03764157799998,0],[106.043416574,-6.03762875399997,0],[106.04333845,-6.03760611999996,0],[106.043265188,-6.03757370899996,0],[106.043195181,-6.03754291999996,0],[106.043088565,-6.03749858699996,0],[106.04301857,-6.03747430799996,0],[106.042932345,-6.03746796299993,0],[106.042847727,-6.03745184999997,0],[106.042738296,-6.03740204299993,0],[106.042613353,-6.03740637999994,0],[106.042492594,-6.03745579799994,0],[106.042447616,-6.03750097199998,0],[106.042381949,-6.03760012599997,0],[106.042330878,-6.03767195399996,0],[106.042306399,-6.03772528599995,0],[106.042265506,-6.03776430399995,0],[106.04221642,-6.03780333699996,0],[106.042185777,-6.03784643499995,0],[106.042118247,-6.03788140399996,0],[106.041945837,-6.03802171399997,0],[106.041763801,-6.03816347299994,0],[106.041493038,-6.03837577199994,0],[106.04109615,-6.03863681099995,0],[106.040880553,-6.03873813099995,0],[106.040788491,-6.03879773999995,0],[106.040677984,-6.03885328499996,0],[106.040565464,-6.03892727999994,0],[106.040393077,-6.03904299999994,0],[106.040315391,-6.03912307799993,0],[106.04026836,-6.03916620499996,0],[106.040132915,-6.03927349299994,0],[106.040069532,-6.03933509699993,0],[106.040012318,-6.03940898599996,0],[106.039953034,-6.03947058299997,0],[106.039873167,-6.03948098399997,0],[106.039811314,-6.03953716299998,0],[106.039758232,-6.03962948999992,0],[106.039737842,-6.03967871399993,0],[106.039721583,-6.03974637799996,0],[106.039770159,-6.03977998199997,0],[106.03967843,-6.03989636599994,0],[106.039580293,-6.04003535599998,0],[106.039482075,-6.04013238299996,0],[106.039365623,-6.04026231199992,0],[106.039332181,-6.04030249199997,0],[106.039327115,-6.04035153499996,0],[106.039309177,-6.04041350699993,0],[106.03925253,-6.04046522999994,0],[106.039172524,-6.04044215699997,0],[106.039105455,-6.04043970499993,0],[106.039012633,-6.04045794599995,0],[106.038883824,-6.04054335699993,0],[106.038891576,-6.04072240599993,0],[106.038891934,-6.04091045999996,0],[106.038892244,-6.04107319699995,0],[106.038881656,-6.04120702399996,0],[106.038827701,-6.04134455099995,0],[106.03877727,-6.04143505699994,0],[106.038607145,-6.04130880799994,0],[106.038516635,-6.04123303599994,0],[106.038389976,-6.04115371599994,0],[106.038343013,-6.04116827199994,0],[106.038256478,-6.04128054599994,0],[106.038089269,-6.04152837799995,0],[106.037880148,-6.04180362499994,0],[106.037530253,-6.04218039899996,0],[106.037258025,-6.04243600799992,0],[106.037178905,-6.04251915999993,0],[106.036942115,-6.04276801299994,0],[106.036786008,-6.04298563599997,0]]]]}}]}